Unnamed: 0,id,name,address,city_name,county_name,town_name,type,x,y,data_type,h_code
14,121,홈플러스익스프레스 신당점,서울특별시 중구 다산로 222 ,서울,중구,신당동,그 밖의 대규모점포,127.015591399432,37.5628525208577,마트,1114066500
22,154,(주)지에스리테일 남산타운점,서울특별시 중구 다산로 32 ,서울,중구,신당동,그 밖의 대규모점포,127.005706247221,37.5471505540187,마트,1114063500
32,166,주식회사 이마트 청계천점,서울특별시 중구 청계천로 400-0 ,서울,중구,황학동,대형마트,127.021463886656,37.5708105464699,마트,1114067000
36,129,지에스수퍼마켓 중구만리점,서울특별시 중구 만리재로 175,서울,중구,만리동2가,그 밖의 대규모점포,126.964454371144,37.5547908528642,마트,1114068000
39,722,롯데쇼핑(주)롯데마트 제타플렉스 서울역점,서울특별시 중구 청파로 426 ,서울,중구,봉래동2가,대형마트,126.969512319976,37.5574468761736,마트,1114054000
59,591,삐에로쇼핑 강남논현점,서울특별시 강남구 논현동 164번지,서울,강남구,논현동,그 밖의 대규모점포,127.022988454509,37.5086426988926,마트,1168052100
63,614,홈플러스익스프레스 학동역점,서울특별시 강남구 학동로 176 ,서울,강남구,논현동,그 밖의 대규모점포,127.030225147038,37.5135235215924,마트,1168052100
64,618,롯데슈퍼 논현점,서울특별시 강남구 언주로122길 25 ,서울,강남구,논현동,그 밖의 대규모점포,127.038440301401,37.5128106920375,마트,1168053100
65,621,(주)지에스리테일 GS슈퍼 강남 논현점,서울특별시 강남구 강남대로128길 128-20,서울,강남구,논현동,그 밖의 대규모점포,127.0253996,37.5102836,마트,1168052100
74,592,홈플러스익스프레스 도곡2점,서울특별시 강남구 논현로28길 9,서울,강남구,도곡동,그 밖의 대규모점포,127.043363387843,37.4827271767229,마트,1168065600
76,620,롯데슈퍼 도곡점,서울특별시 강남구 언주로 123 ,서울,강남구,도곡동,그 밖의 대규모점포,127.049755052514,37.4876033476735,마트,1168065600
77,40,롯데슈퍼 코엑스점,서울특별시 강남구 봉은사로103길 5 ,서울,강남구,삼성동,그 밖의 대규모점포,127.061407747841,37.5150173640349,마트,1168058000
79,602,노브랜드 삼성점,서울특별시 강남구 삼성로 633,서울,강남구,삼성동,그 밖의 대규모점포,127.051107823804,37.5162938562313,마트,1168059000
84,619,밀구루 삼성점,서울특별시 강남구 선릉로 660 ,서울,강남구,삼성동,그 밖의 대규모점포,127.042332457469,37.5155511161052,마트,1168059000
86,51,GS THE FRESH 압구정점,서울특별시 강남구 압구정로 312,서울,강남구,신사동,그 밖의 대규모점포,127.035516085138,37.5287778293928,마트,1168054500
87,77,이마트에브리데이 강남시장점,서울특별시 강남구 압구정로2길 46,서울,강남구,신사동,그 밖의 대규모점포,127.020691646267,37.5187672551656,마트,1168051000
89,631,홈플러스 익스프레스 압구정점,서울특별시 강남구 압구정로46길 5-2 ,서울,강남구,신사동,그 밖의 대규모점포,127.036869472402,37.5280407556239,마트,1168054500
90,632,(주)지에스리테일 신사점,서울특별시 강남구 압구정로18길 25 ,서울,강남구,신사동,그 밖의 대규모점포,127.025571790316,37.5234371884205,마트,1168051000
93,607,(주)이마트 역삼점,서울특별시 강남구 역삼로 310 ,서울,강남구,역삼동,대형마트,127.048420861876,37.4992355425931,마트,1168065000
94,616,롯데슈퍼 역삼2동점,서울특별시 강남구 역삼로 230 ,서울,강남구,역삼동,그 밖의 대규모점포,127.041918694609,37.4969507340424,마트,1168065000
95,617,롯데슈퍼 역삼1동점,서울특별시 강남구 역삼로8길 15 ,서울,강남구,역삼동,그 밖의 대규모점포,127.034174004352,37.4930900713112,마트,1168064000
101,628,SSG Food Market 백화점,서울특별시 강남구 도산대로 442 ,서울,강남구,청담동,그 밖의 대규모점포,127.044119009562,37.5233111622682,마트,1168056500
107,29,롯데쇼핑㈜롯데슈퍼길동점,서울특별시 강동구 성안로 176 ,서울,강동구,길동,그 밖의 대규모점포,127.136364166062,37.5385075979681,마트,1174068500
110,679,홈플러스(주)익스프레스 길동점,서울특별시 강동구 양재대로 1486 ,서울,강동구,길동,그 밖의 대규모점포,127.140522748413,37.5383619865301,마트,1174068500
111,664,지에스 더프레시(GS THE FRESH) 고덕그라시움점,서울특별시 강동구 고덕로 353,서울,강동구,고덕동,그 밖의 대규모점포,127.164510295845,37.557135101795,마트,1174056000
112,671,(주)지에스리테일 명일점,서울특별시 강동구 양재대로 1630 ,서울,강동구,명일동,그 밖의 대규모점포,127.144792941447,37.5510625291986,마트,1174053000
114,678,(주)이마트에브리데이 명일동점,서울특별시 강동구 고덕로 210 ,서울,강동구,명일동,그 밖의 대규모점포,127.147060992177,37.5538092997685,마트,1174053000
115,681,(주)이마트명일점,서울특별시 강동구 고덕로 276 ,서울,강동구,명일동,대형마트,127.155613136912,37.5547067235109,마트,1174054000
116,683,신세계 이마트 명일점,서울특별시 강동구 명일동 46번지,서울,강동구,명일동,대형마트,127.153661406004,37.5546138640691,마트,1174054000
119,677,홈플러스(주) 익스프레스 성내점,서울특별시 강동구 풍성로 138 ,서울,강동구,성내동,그 밖의 대규모점포,127.127348186394,37.5312353306954,마트,1174064000
120,680,(주)농협유통 하나로마트 성내점,서울특별시 강동구 올림픽로 528 ,서울,강동구,성내동,그 밖의 대규모점포,127.120399895825,37.5294051174033,마트,1174064000
121,675,(주)지에스리테일 암사캐슬점,서울특별시 강동구 고덕로 133 ,서울,강동구,암사동,그 밖의 대규모점포,127.140347239304,37.5552528493133,마트,1174059000
122,676,홈플러스(주) 익스프레스 암사점,서울특별시 강동구 고덕로24길 50 ,서울,강동구,암사동,그 밖의 대규모점포,127.135098750222,37.5523806454985,마트,1174057000
123,669,홈플러스 강동점,서울특별시 강동구 양재대로 1571 ,서울,강동구,천호동,대형마트,127.14225531407,37.5457145865749,마트,1174060000
124,672,(주)이마트천호점,서울특별시 강동구 천호대로 1017 ,서울,강동구,천호동,대형마트,127.125146170477,37.5387290509448,마트,1174061000
128,33,롯데쇼핑(주) 롯데마트 삼양점,서울특별시 강북구 삼양로 247 ,서울,강북구,미아동,대형마트,127.017747047824,37.6255182619776,마트,1130553400
130,312,(주)농협유통 미아점,서울특별시 강북구 도봉로33길 18 ,서울,강북구,미아동,그 밖의 대규모점포,127.02650237659,37.6215640795865,마트,1130555500
131,313,홈플러스(주)익스프레스미아점,서울특별시 강북구 도봉로 172 ,서울,강북구,미아동,그 밖의 대규모점포,127.027361963445,37.6242206246421,마트,1130554500
136,326,(주)지에스리테일GS수퍼 강북미아점,서울특별시 강북구 삼양로27길 35-21 ,서울,강북구,미아동,그 밖의 대규모점포,127.018934343303,37.6179766319717,마트,1130557500
137,327,(주)이마트에브리데이 미아동점,서울특별시 강북구 도봉로 157,서울,강북구,미아동,그 밖의 대규모점포,127.027002345032,37.6227592161358,마트,1130555500
145,440,㈜이마트에브리데이 양천향교역점,서울특별시 강서구 허준로 16-12,서울,강서구,가양동,그 밖의 대규모점포,126.843273939231,37.5699382059269,마트,1150060300
146,450,홈플러스(주) 가양점,서울특별시 강서구 양천로 431 ,서울,강서구,가양동,대형마트,126.849960213917,37.5642640468035,마트,1150060400
147,62,(주)이마트에브리데이 가양역점,서울특별시 강서구 양천로 476,서울,강서구,등촌동,그 밖의 대규모점포,126.853271958466,37.5616001805127,마트,1150053500
148,437,노브랜드 강서가양점,서울특별시 강서구 양천로 410 ,서울,강서구,등촌동,그 밖의 대규모점포,126.846514026959,37.5648131885109,마트,1150060300
149,446,홈플러스(주) 강서점,서울특별시 강서구  화곡로  398 ,서울,강서구,등촌동,대형마트,126.854819012937,37.5584699599397,마트,1150052000
150,700,(주) 이랜드리테일 강서점,서울특별시 강서구 강서로56길 17 ,서울,강서구,등촌동,그 밖의 대규모점포,126.840498784915,37.559933531546,마트,1150053500
152,195,롯데쇼핑(주)롯데슈퍼 방화점,서울특별시 강서구 방화대로34길 83 ,서울,강서구,마곡동,그 밖의 대규모점포,126.820951424269,37.5710636982024,마트,1150063000
153,438,이마트에브리데이 마곡점,서울특별시 강서구 마곡서로 158,서울,강서구,마곡동,그 밖의 대규모점포,126.825424095847,37.5680890965874,마트,1150060300
154,439,롯데쇼핑㈜ 마켓999 양천향교역가맹점,서울특별시 강서구 양천로 344,서울,강서구,마곡동,그 밖의 대규모점포,126.840359563104,37.5682660192783,마트,1150060300
155,441,노브랜드 강서마곡점,서울특별시 강서구 마곡서로 101,서울,강서구,마곡동,그 밖의 대규모점포,126.823605646871,37.5626706927393,마트,1150063000
156,25,롯데쇼핑(주)롯데슈퍼개화산점,서울특별시 양천로6길 15,서울,강서구,방화동,그 밖의 대규모점포,126.807704315128,37.5719974667348,마트,1150064000
159,103,GS THE FRESH 강서증미역점,서울특별시 강서구 양천로67길 15,서울,강서구,염창동,그 밖의 대규모점포,126.867519664511,37.5550477712524,마트,1150051000
160,449,(주)지에스리테일 염창점,서울특별시 강서구 양천로 687,서울,강서구,염창동,그 밖의 대규모점포,126.872621443293,37.5507524739861,마트,1150051000
162,9,씨에스유통 (롯데슈퍼화곡2점),서울특별시 강서구 등촌로5길 80 ,서울,강서구,화곡동,그 밖의 대규모점포,126.858951804044,37.5330706883775,마트,1150057000
164,98,화곡 더리브스카이,서울특별시 강서구 화곡동 370-76,서울,강서구,화곡동,그 밖의 대규모점포,126.8395116,37.5354196,마트,1150054000
166,443,롯데쇼핑(주)롯데슈퍼화곡3동점,서울특별시 강서구 강서로 179 ,서울,강서구,화곡동,그 밖의 대규모점포,126.839322200876,37.5423627575293,마트,1150056000
167,444,홈플러스(주) 익스프레스 화곡점,서울특별시 강서구 화곡로 153 ,서울,강서구,화곡동,그 밖의 대규모점포,126.838750382592,37.5414945865523,마트,1150056000
169,453,홈플러스익스프레스 화곡2점,서울특별시 강서구 까치산로 106 ,서울,강서구,화곡동,그 밖의 대규모점포,126.849281947719,37.5475444670864,마트,1150059000
170,194,롯데쇼핑(주)롯데슈퍼 우장산점,서울특별시 강서구 강서로 267 ,서울,강서구,내발산동,그 밖의 대규모점포,126.835941270275,37.5496000614643,마트,1150061100
172,557,홈플러스 서울남현점,서울특별시 관악구 과천대로 909 ,서울,관악구,남현동,대형마트,126.982466468514,37.4714704021418,마트,1162063000
173,20,GS THE FRESH 관악은천점,서울특별시 관악구 국회단지길 7,서울,관악구,봉천동,그 밖의 대규모점포,126.939223564554,37.4866527645058,마트,1162052500
174,35,지에스 더 프레시(GS THE FRESH) 관악청림점,서울특별시 관악구 청림6길 3,서울,관악구,봉천동,그 밖의 대규모점포,126.959937748135,37.4875621618116,마트,1162054500
177,554,홈플러스 익스프레스 봉천점,서울특별시 관악구 양녕로 46 ,서울,관악구,봉천동,그 밖의 대규모점포,126.947285551333,37.4861422511009,마트,1162061500
178,555,(주)이마트에브리데이 봉천동점,서울특별시 관악구 은천로 51 ,서울,관악구,봉천동,그 밖의 대규모점포,126.941200194149,37.4862851623719,마트,1162060500
179,559,(주)지에스리테일 관악점,서울특별시 관악구 쑥고개로 111 ,서울,관악구,봉천동,그 밖의 대규모점포,126.949015489778,37.4793391334088,마트,1162059500
180,560,(주)지에스리테일 낙성대점,서울특별시 관악구 봉천로 576 ,서울,관악구,봉천동,그 밖의 대규모점포,126.961320975076,37.4769738774324,마트,1162058500
189,556,(주)천성세이브마트,서울특별시 관악구 난곡로 220 ,서울,관악구,신림동,그 밖의 대규모점포,126.918058479434,37.4742854376103,마트,1162076500
194,49,GS THE FRESH 광진구의점,서울특별시 광진구 자양로 168,서울,광진구,구의동,그 밖의 대규모점포,127.084604778156,37.5426360202952,마트,1121585000
195,60,롯데 FRESH 아차산점,서울특별시 광진구 자양로 293 ,서울,광진구,구의동,그 밖의 대규모점포,127.092174272972,37.551967582982,마트,1121586000
196,225,테크노-마트21,서울특별시 광진구 광나루로56길 85 ,서울,광진구,구의동,그 밖의 대규모점포,127.095692162256,37.535725176732,마트,1121587000
201,240,홈플러스익스프레스 구의2점,서울특별시 광진구 아차산로 473 ,서울,광진구,구의동,그 밖의 대규모점포,127.094283451142,37.5405187287016,마트,1121587000
202,725,롯데쇼핑(주)롯데마트 강변점,서울특별시 광진구 광나루로56길 85 ,서울,광진구,구의동,대형마트,127.095692162256,37.535725176732,마트,1121587000
208,228,(주)이마트 자양점,서울특별시 광진구 아차산로 272 ,서울,광진구,자양동,대형마트,127.072996184863,37.5385582736952,마트,1121584000
212,59,(주)이마트에브리데이 중곡동점,서울특별시 광진구 긴고랑로11길 11 ,서울,광진구,중곡동,그 밖의 대규모점포,127.081301383167,37.5639082846623,마트,1121574000
215,226,홈플러스(주)익스프레스 중곡점,서울특별시 광진구 능동로 314 ,서울,광진구,중곡동,그 밖의 대규모점포,127.080039873331,37.5576188388403,마트,1121575000
216,227,홈플러스익스프레스 중곡2점,서울특별시 광진구 용마산로 10 ,서울,광진구,중곡동,그 밖의 대규모점포,127.088841013335,37.5545352784401,마트,1121577000
219,230,(주)지에스리테일GS수퍼 광진화양점,서울특별시 광진구 능동로13길 39 ,서울,광진구,화양동,그 밖의 대규모점포,127.069757721395,37.543959020957,마트,1121571000
223,477,홈플러스 익스프레스 개봉점,서울특별시 구로구 경인로 319 ,서울,구로구,개봉동,그 밖의 대규모점포,126.855601090574,37.4975993752858,마트,1153074000
224,481,(주)이마트에브리데이 개봉동점,서울특별시 구로구 개봉로17길 34 ,서울,구로구,개봉동,그 밖의 대규모점포,126.854071610666,37.4917839337419,마트,1153075000
235,31,이랜드리테일 NC구로점,서울특별시 구로구 구로중앙로 152 ,서울,구로구,구로동,그 밖의 대규모점포,126.882773011925,37.5011601442131,마트,1153056000
236,82,(주) 이마트 신도림점,서울특별시 구로구 새말로 97 ,서울,구로구,구로동,대형마트,126.890227293528,37.5070438414784,마트,1153056000
237,85,(주)이마트 구로점,서울특별시 구로구 디지털로32길 43 ,서울,구로구,구로동,대형마트,126.897885833718,37.4843992290119,마트,1153054000
248,474,신도림 테크노마트,서울특별시 구로구 새말로 97 ,서울,구로구,구로동,그 밖의 대규모점포,126.890227293528,37.5070438414784,마트,1153056000
249,478,홈플러스 익스프레스 서울구로점,서울특별시  구일로10길 27,서울,구로구,구로동,그 밖의 대규모점포,126.872266560677,37.4959404465654,마트,1153052000
252,486,이마트구로점,서울특별시 구로구 구로동 188번지,서울,구로구,구로동,대형마트,126.8981285,37.484901,마트,1153054000
255,482,홈플러스 익스프레스 서울오류점,서울특별시 구로구 서해안로 2293 ,서울,구로구,오류동,그 밖의 대규모점포,126.839721489898,37.4914452994457,마트,1153078000
256,465,홈플러스(주) 신도림점,서울특별시 구로구 경인로 661,서울,구로구,신도림동,대형마트,126.887986372819,37.5096619486431,마트,1153051000
263,500,홈플러스(주)익스프레스 가산점,서울특별시 금천구 가산로 106 ,서울,금천구,가산동,그 밖의 대규모점포,126.893680931368,37.4754448085701,마트,1154551000
266,493,홈플러스(주) 금천점,서울특별시 금천구 시흥대로 391 ,서울,금천구,독산동,대형마트,126.896885338466,37.4686638539154,마트,1154561000
267,495,롯데캐슬 골드파크 2차 마르쉐도르,서울특별시 금천구 벚꽃로 30 ,서울,금천구,독산동,그 밖의 대규모점포,126.893710403536,37.4582229148592,마트,1154561000
270,502,삼성테스코(주)홈플러스 금천점,서울특별시 금천구 시흥대로 391 ,서울,금천구,독산동,대형마트,126.896885338466,37.4686638539154,마트,1154561000
271,503,삼성테스코(주)홈플러스 금천점,서울특별시 금천구 시흥대로 391 ,서울,금천구,독산동,대형마트,126.896885338466,37.4686638539154,마트,1154561000
272,712,롯데쇼핑(주) 금천 독산점,서울특별시 금천구 시흥대로 291,서울,금천구,독산동,대형마트,126.896699156299,37.4599560487863,마트,1154561000
273,714,롯데쇼핑(주) VIC 마켓 금천점,서울특별시 금천구 두산로 71 ,서울,금천구,독산동,그 밖의 대규모점포,126.895673628058,37.4706228483117,마트,1154561000
279,499,홈플러스 시흥점,서울특별시 금천구 시흥대로 201 ,서울,금천구,시흥동,대형마트,126.90079038873,37.4519790161758,마트,1154567000
281,46,롯데쇼핑(주) 롯데슈퍼공릉점,서울특별시 노원구 공릉로 144 ,서울,노원구,공릉동,그 밖의 대규모점포,127.079489105218,37.6226202059241,마트,1135060000
282,342,홈플러스(주)익스프레스 공릉점,서울특별시 노원구 동일로 1101 ,서울,노원구,공릉동,그 밖의 대규모점포,127.071009933961,37.6282542576144,마트,1135059500
283,344,(주)이마트에브리데이 공릉동점,서울특별시 노원구 노원로1길 67 ,서울,노원구,공릉동,그 밖의 대규모점포,127.083635681247,37.6208254563305,마트,1135060000
287,105,GS THE FRESH 노원캐슬점,서울특별시 노원구 덕릉로 753,서울,노원구,상계동,그 밖의 대규모점포,127.0763205024,37.6658515931357,마트,1135066500
290,350,(주)지에스리테일 GS수퍼상계점,서울특별시 노원구 한글비석로 471 ,서울,노원구,상계동,그 밖의 대규모점포,127.065838887284,37.6642116374435,마트,1135071000
292,343,(주)지에스리테일 GS슈퍼 노원월계점,서울특별시 노원구 마들로 31 ,서울,노원구,월계동,그 밖의 대규모점포,127.067084588448,37.6187253727752,마트,1135058000
293,354,이마트타운 월계점,서울특별시 노원구 마들로3길 15 ,서울,노원구,월계동,대형마트,127.061979778612,37.6265093604229,마트,1135058000
295,345,홈플러스(주) 중계점,서울특별시 노원구 동일로204가길 12 ,서울,노원구,중계동,대형마트,127.068668049616,37.6398580838556,마트,1135062500
296,347,롯데마트 중계점,서울특별시 노원구 노원로 330 ,서울,노원구,중계동,대형마트,127.070940893709,37.6467905319279,마트,1135062100
299,356,(주)이마트에브리데이 상계역점,서울특별시 노원구 덕릉로 690,서울,노원구,중계동,그 밖의 대규모점포,127.075665301985,37.6591742139574,마트,1135062400
300,357,홈플러스(주)익스프레스 중계점,서울특별시 노원구 중계로 225 ,서울,노원구,중계동,그 밖의 대규모점포,127.074984978156,37.6503840349218,마트,1135062100
302,83,롯데프레쉬 창동점,서울특별시 도봉구 도봉로110길 65 ,서울,도봉구,창동,그 밖의 대규모점포,127.037139346772,37.646419583413,마트,1132051100
303,329,(주)이마트에브리데이 창동점,서울특별시 도봉구 도봉로104길 53 ,서울,도봉구,창동,그 밖의 대규모점포,127.035021358294,37.6433358929241,마트,1132051200
305,335,(주)에브리데이리테일 창동점,서울특별시 도봉구 도봉로104길 53 ,서울,도봉구,창동,그 밖의 대규모점포,127.035021358294,37.6433358929241,마트,1132051200
307,340,(주) 이마트 창동점,서울특별시 도봉구 노해로65길 4 ,서울,도봉구,창동,대형마트,127.046699282846,37.651636123068,마트,1132051500
308,341,(주)에브리데이리테일 창동점,서울특별시 도봉구 도봉로104길 53 ,서울,도봉구,창동,그 밖의 대규모점포,127.035021358294,37.6433358929241,마트,1132051200
311,71,롯데슈퍼 방학점,서울특별시 도봉구 방학로 223 ,서울,도봉구,방학동,그 밖의 대규모점포,127.027500354604,37.6613189795285,마트,1132071000
313,334,GS THE FRESH 방학신동아점,서울특별시 도봉구 시루봉로 103-1,서울,도봉구,방학동,그 밖의 대규모점포,127.027322087714,37.6601019751337,마트,1132071000
314,337,홈플러스(주)방학점,서울특별시 도봉구 도봉로 678 ,서울,도봉구,방학동,대형마트,127.043598783853,37.6648602093274,마트,1132069000
315,73,롯데슈퍼 쌍문점,서울특별시 도봉구 도당로 10 ,서울,도봉구,쌍문동,그 밖의 대규모점포,127.035308458179,37.6590926475667,마트,1132067000
317,541,(주)이마트에브리데이 대방동점,서울특별시 동작구 상도로 81 ,서울,동작구,대방동,그 밖의 대규모점포,126.929559239366,37.4999513063416,마트,1159066000
318,544,(주)홈플러스 대방점,서울특별시 동작구 노량진로 4 ,서울,동작구,대방동,대형마트,126.926240355701,37.5124124321853,마트,1159066000
319,81,(주)이마트에브리데이 이수점,서울특별시 동작구 사당로 300 ,서울,동작구,사당동,그 밖의 대규모점포,126.980281616349,37.4843790909712,마트,1159062000
320,539,홈플러스(주) 익스프레스 남성점,서울특별시 동작구 사당로 215 ,서울,동작구,사당동,그 밖의 대규모점포,126.972344800972,37.4844593113614,마트,1159064000
321,543,(주)이마트에브리데이 사당동점,서울특별시 동작구 동작대로29길 110 ,서울,동작구,사당동,그 밖의 대규모점포,126.977745172841,37.489824423368,마트,1159063000
322,86,GS THE FRESH 동작구청점,서울특별시 동작구 상도로30길 40,서울,동작구,상도동,그 밖의 대규모점포,126.942466980966,37.5043182643342,마트,1159054000
323,538,홈플러스(주) 익스프레스 상도점,서울특별시 동작구 성대로 43 ,서울,동작구,상도동,그 밖의 대규모점포,126.93366186004,37.498975188861,마트,1159056000
325,542,(주)이마트에브리데이 상도동점,서울특별시 동작구 상도로31길 19 ,서울,동작구,상도동,그 밖의 대규모점포,126.944541781061,37.5062358749024,마트,1159054000
326,545,홈플러스 익스프레스 상도2점,서울특별시 동작구 만양로 26 ,서울,동작구,상도동,그 밖의 대규모점포,126.949547851693,37.5076264776599,마트,1159051000
327,546,홈플러스 익스프레스 상도3점,서울특별시 동작구  양녕로  170 ,서울,동작구,상도동,그 밖의 대규모점포,126.943642572569,37.4970019422426,마트,1159056000
328,547,(주)지에스리테일 상도 엠코타운점,서울특별시 동작구 상도로 346-1 ,서울,동작구,상도동,그 밖의 대규모점포,126.951667453182,37.4967899772343,마트,1159053000
331,548,롯대슈펴 신대방점,서울특별시 동작구 여의대방로 30,서울,동작구,신대방동,그 밖의 대규모점포,126.911447301832,37.4946606629676,마트,1159067000
332,713,롯데프리미엄푸드마켓 공덕점,서울특별시 마포구 마포대로 109 ,서울,마포구,공덕동,그 밖의 대규모점포,126.950847479316,37.5450686146253,마트,1144055500
333,396,롯데슈퍼 마포점,서울특별시 마포구 토정로 193 ,서울,마포구,구수동,그 밖의 대규모점포,126.932559379744,37.5458361570522,마트,1144063000
334,720,롯데슈퍼 대흥점,서울특별시 마포구 큰우물로 3 ,서울,마포구,대흥동,그 밖의 대규모점포,126.940228965734,37.5453842026006,마트,1144059000
335,410,홈플러스익스프레스 도화점,서울특별시 마포구 도화4길 73 ,서울,마포구,도화동,그 밖의 대규모점포,126.951132481622,37.538718127097,마트,1144058500
339,399,홈플러스 합정점,서울특별시 마포구 양화로 45 ,서울,마포구,서교동,대형마트,126.91395024016,37.5515008030203,마트,1144066000
340,401,홈플러스(주)월드컵점,서울특별시 마포구 월드컵로 240 ,서울,마포구,성산동,대형마트,126.897273034482,37.5682884450841,마트,1144073000
341,386,GS THE FRESH 신촌숲아이파크점,서울특별시 마포구 광성로 17,서울,마포구,신수동,그 밖의 대규모점포,126.935286024774,37.5503208717883,마트,1144063000
342,392,홈플러스익스프레스 연남점,서울특별시 마포구 연남로 30 ,서울,마포구,연남동,그 밖의 대규모점포,126.921856968358,37.5627107408645,마트,1144071000
343,391,GS THE FRESH 마포염리점,서울특별시 마포구 대흥로24길 24,서울,마포구,염리동,그 밖의 대규모점포,126.947610265434,37.5539607082089,마트,1144061000
344,352,홈플러스익스프레스 용강점,서울특별시 마포구 토정로 282 ,서울,마포구,용강동,그 밖의 대규모점포,126.9406049,37.541761,마트,1144059000
347,398,(주)이마트 마포점,서울특별시 마포구  백범로  212 ,서울,마포구,신공덕동,대형마트,126.953365521963,37.5424315097987,마트,1144056500
348,413,(주)이마트 마포점,서울특별시 마포구 백범로 212 ,서울,마포구,신공덕동,대형마트,126.953365521963,37.5424315097987,마트,1144056500
356,4,롯데슈퍼 방배2점,서울특별시 방배로33길 29,서울,서초구,방배동,그 밖의 대규모점포,126.989270518102,37.4912422359315,마트,1165062100
359,197,롯데쇼핑(주) 롯데마트 서초점,서울특별시 서초구 서초동 1498번지,서울,서초구,서초동,대형마트,127.0047229,37.4906231,마트,1165053000
366,68,(주)이마트 양재점,서울특별시 서초구 매헌로 16 ,서울,서초구,양재동,대형마트,127.036947909974,37.462467348157,마트,1165065200
368,584,코스트코코리아,서울특별시 서초구 양재대로 159 ,서울,서초구,양재동,대형마트,127.03615282356,37.4619732088672,마트,1165065200
372,711,(주)이랜드킴스클럽 강남점,서울특별시 서초구 잠원로 69 ,서울,서초구,잠원동,그 밖의 대규모점포,127.006970780391,37.5102605018374,마트,1165058000
376,204,(주)이마트 왕십리점,서울특별시 성동구 왕십리광장로 17 ,서울,성동구,행당동,대형마트,127.038394194396,37.5614417528647,마트,1120056000
380,214,노브랜드 엔터식스한양대점,서울특별시 성동구 왕십리로 241 ,서울,성동구,행당동,그 밖의 대규모점포,127.04010502543,37.5571543304982,마트,1120055000
381,213,홈플러스(주) 익스프레스 금호점,서울특별시 성동구 행당로 6 ,서울,성동구,금호동1가,그 밖의 대규모점포,127.020746218188,37.5544764185936,마트,1120059000
382,212,홈플러스(주) 익프스레스 금호2점,서울특별시 성동구 동호로 100 ,서울,성동구,금호동3가,그 밖의 대규모점포,127.016416476579,37.5513284722706,마트,1120061500
383,57,GS THE FRESG 서울숲점,서울특별시 성동구 왕십리로 109,서울,성동구,성수동1가,그 밖의 대규모점포,127.044350756633,37.5474976267809,마트,1120066000
385,97,GS THE FRESH 성동텐즈힐점,서울특별시 성동구 마장로 137,서울,성동구,상왕십리동,그 밖의 대규모점포,127.025053595952,37.5678250213489,마트,1120053500
386,67,GS THE FRESH 성동센트라스점,서울특별시 성동구 왕십리로 410,서울,성동구,하왕십리동,그 밖의 대규모점포,127.024082467223,37.5666029325047,마트,1120053500
387,201,홈플러스(주) 익스프레스 왕십리점,서울특별시 성동구 왕십리로 333 ,서울,성동구,하왕십리동,그 밖의 대규모점포,127.032571064368,37.562723999259,마트,1120052000
388,15,이마트에브리데이 길음점,서울특별시 성북구 길음로7길 6,서울,성북구,길음동,그 밖의 대규모점포,127.022429212083,37.6043421622613,마트,1129066000
390,54,GS THE FRESH 성북클라시아점,서울특별시 성북구 숭인로8길 80,서울,성북구,길음동,그 밖의 대규모점포,127.027110004518,37.6094762808223,마트,1129068500
391,96,이마트 미아점,서울특별시 성북구 도봉로 17 ,서울,성북구,길음동,대형마트,127.029867413357,37.6108552099076,마트,1129068500
394,278,홈플러스익스프레스 길음점,서울특별시 성북구 길음로13길 22 ,서울,성북구,길음동,그 밖의 대규모점포,127.019323702394,37.6094417730405,마트,1129066000
397,294,신세계이마트미아점,서울특별시 성북구 길음동 25번지,서울,성북구,길음동,대형마트,127.0296317,37.6113732,마트,1129068500
398,295,이마트 미아점,서울특별시 성북구  도봉로  17 ,서울,성북구,길음동,대형마트,127.029867413357,37.6108552099076,마트,1129068500
400,302,GS슈퍼마켓 길음뉴타운점,서울특별시 성북구 길음로 33 ,서울,성북구,길음동,그 밖의 대규모점포,127.022078590713,37.6050832927232,마트,1129066000
401,303,GS수퍼마켓 길음점,서울특별시 성북구 길음로 103 ,서울,성북구,길음동,그 밖의 대규모점포,127.01797449683,37.6108648284908,마트,1129066000
404,300,GS슈퍼마켓 동소문점,서울특별시 성북구 성북로4길 52 ,서울,성북구,돈암동,그 밖의 대규모점포,127.012706037821,37.5944725333435,마트,1129059000
405,301,GS슈퍼마켓 돈암점,서울특별시 성북구 북악산로 844 ,서울,성북구,돈암동,그 밖의 대규모점포,127.019322962211,37.5973859824567,마트,1129059000
410,727,롯데마이슈퍼 장위점,서울특별시 성북구 월계로40길 7 ,서울,성북구,장위동,그 밖의 대규모점포,127.048397229405,37.6229473543321,마트,1129078000
411,728,롯데마이슈퍼 정릉점,서울특별시 성북구 정릉로 307 ,서울,성북구,정릉동,그 밖의 대규모점포,127.017866208389,37.6032285064084,마트,1129062000
413,44,롯데마켓 999 하월곡점,서울특별시 성북구 오패산로4길 17 ,서울,성북구,하월곡동,그 밖의 대규모점포,127.038798133596,37.6041834865478,마트,1129072500
414,95,이마트 하월곡점,서울특별시 성북구 종암로 167 ,서울,성북구,하월곡동,대형마트,127.030990445726,37.6050587642973,마트,1129068500
416,298,홈플러스 월곡점,서울특별시 성북구 화랑로 76 ,서울,성북구,하월곡동,대형마트,127.040463515854,37.6018277386458,마트,1129072500
417,299,이마트 하월곡점,서울특별시 성북구 종암로 167,서울,성북구,하월곡동,대형마트,127.030990445726,37.6050587642973,마트,1129068500
418,726,롯데마켓999 하월곡점,서울특별시 성북구 오패산로4길 17 ,서울,성북구,하월곡동,그 밖의 대규모점포,127.038798133596,37.6041834865478,마트,1129072500
421,284,(주)지에스리테일 성북보문점,서울특별시 성북구 보문사길 111 ,서울,성북구,보문동6가,그 밖의 대규모점포,127.017891118296,37.5828731138796,마트,1129061000
422,277,홈플러스익스프레스 보문점,서울특별시 성북구 보문로 61 ,서울,성북구,보문동7가,그 밖의 대규모점포,127.021439462939,37.5807751898586,마트,1129061000
423,306,홈플러스익스프레스 삼선점,서울특별시 성북구 삼선교로 6 ,서울,성북구,삼선동1가,그 밖의 대규모점포,127.006593740013,37.5879301180095,마트,1129055500
424,635,(주)지에스리테일 송파가락점,서울특별시 송파구 오금로46길 49 ,서울,송파구,가락동,그 밖의 대규모점포,127.133049178585,37.4937245011219,마트,1171063200
426,652,(주)지에스리테일 송파점,서울특별시 송파구 동남로 189 ,서울,송파구,가락동,그 밖의 대규모점포,127.129853687565,37.4946614092198,마트,1171063200
427,659,(주)이마트에브리데이 가락동점,서울특별시 송파구 중대로9길 35 ,서울,송파구,가락동,그 밖의 대규모점포,127.118304768528,37.4962985938826,마트,1171062000
428,662,이마트에브리데이 송파점,서울특별시 송파구 송파대로 345 ,서울,송파구,가락동,그 밖의 대규모점포,127.102531804188,37.4976145695004,마트,1171063100
429,663,롯데프레시송파가락가맹점,서울특별시 송파구 동남로20길 24 ,서울,송파구,가락동,그 밖의 대규모점포,127.134508852862,37.4953843038463,마트,1171063200
430,24,GS THE FRESH 송파시그니처점,서울특별시 송파구 거마로 56,서울,송파구,거여동,그 밖의 대규모점포,127.147282077623,37.4970454816341,마트,1171053200
431,656,홈플러스(주)익스프레스 거여점,서울특별시 오금로 512,서울,송파구,거여동,그 밖의 대규모점포,127.145547345253,37.4927296497634,마트,1171053200
435,26,GS THE FRESH 송파하비오점,서울특별시 송파구 송파대로 111,서울,송파구,문정동,그 밖의 대규모점포,127.124913859704,37.4796683841344,마트,1171064200
437,694,롯데쇼핑(주)롯데마트 송파점,서울특별시 송파구 중대로 80 ,서울,송파구,문정동,대형마트,127.117842816756,37.4917620371568,마트,1171064200
438,653,(주)지에스리테일 방이점,서울특별시 송파구 오금로31가길 20 ,서울,송파구,방이동,그 밖의 대규모점포,127.123156221506,37.5073379787265,마트,1171056100
440,690,롯데쇼핑(주)롯데슈퍼방이점,서울특별시 송파구 올림픽로32길 20 ,서울,송파구,방이동,그 밖의 대규모점포,127.109223321372,37.514223190787,마트,1171056200
441,661,홈플러스 익스프레스 삼전역점,서울특별시 송파구 백제고분로 207 ,서울,송파구,삼전동,그 밖의 대규모점포,127.089795706905,37.5041183948621,마트,1171061000
442,99,GS THE FRESH 송파석촌호수점,서울특별시 송파구 백제고분로33길 25 ,서울,송파구,석촌동,그 밖의 대규모점포,127.098601781598,37.5049660660731,마트,1171060000
444,657,롯데쇼핑(주)롯데슈퍼석촌점,서울특별시 송파구 백제고분로34길 3 ,서울,송파구,석촌동,그 밖의 대규모점포,127.098906971802,37.5021781007562,마트,1171060000
445,642,홈플러스(주) 익스프레스 송파점,서울특별시 송파구 가락로28길 7 ,서울,송파구,송파동,그 밖의 대규모점포,127.116739304529,37.5063681661101,마트,1171059000
447,688,롯데쇼핑(주)롯데슈퍼송파점,서울특별시 송파구 가락로 183,서울,송파구,송파동,그 밖의 대규모점포,127.114525472441,37.5051646086263,마트,1171058000
448,634,(주)지에스리테일 잠실파크리오점,서울특별시 송파구 올림픽로 435 ,서울,송파구,신천동,그 밖의 대규모점포,127.104971745978,37.5213592954462,마트,1171069000
450,650,홈플러스(주)잠실점,서울특별시 송파구 올림픽로35가길 16 ,서울,송파구,신천동,대형마트,127.103006473255,37.5162517087896,마트,1171071000
452,687,롯데쇼핑(주) 롯데마트 월드타워점,서울특별시 송파구 올림픽로 300,서울,송파구,신천동,대형마트,127.104301829165,37.5137129859207,마트,1171071000
455,658,농협하나로마트방이역점,서울특별시 송파구 양재대로72길 5 ,서울,송파구,오금동,그 밖의 대규모점포,127.127546833594,37.5099574942875,마트,1171057000
456,637,(주)지에스리테일 잠실점,서울특별시 송파구 올림픽로 203 ,서울,송파구,잠실동,그 밖의 대규모점포,127.093322610898,37.5124860835366,마트,1171068000
458,641,홈플러스(주)익스프레스 잠실점,서울특별시 송파구 석촌호수로 133 ,서울,송파구,잠실동,그 밖의 대규모점포,127.091787465447,37.5076519568451,마트,1171068000
461,691,롯데쇼핑(주)롯데슈퍼신천점,서울특별시 송파구 올림픽로 111 ,서울,송파구,잠실동,그 밖의 대규모점포,127.083062185894,37.5121612739032,마트,1171067000
462,692,롯데쇼핑(주)롯데슈퍼잠실3동점,서울특별시 송파구 석촌호수로 61 ,서울,송파구,잠실동,그 밖의 대규모점포,127.086211355223,37.5107020036631,마트,1171068000
464,697,롯데쇼핑(주)롯데마트 제타플렉스 잠실점,서울특별시 송파구 올림픽로 240 ,서울,송파구,잠실동,대형마트,127.098141751177,37.5113096112036,마트,1171068000
465,660,홈플러스(주)익스프레스 풍납점,서울특별시 송파구  올림픽로51길  52 ,서울,송파구,풍납동,그 밖의 대규모점포,127.116232495956,37.5339264599218,마트,1171052000
466,689,롯데쇼핑(주)롯데슈퍼풍납점,서울특별시 송파구 강동대로9길 20 ,서울,송파구,풍납동,그 밖의 대규모점포,127.117015514458,37.5279697102875,마트,1171052000
467,2,롯데슈퍼 목동2점,서울특별시 양천구 목동서로 100,서울,양천구,목동,그 밖의 대규모점포,126.874169046113,37.5342244045517,마트,1147055000
468,84,(주)이마트 목동점,서울특별시 양천구 오목로 299 ,서울,양천구,목동,대형마트,126.87035534357,37.5260837006075,마트,1147051000
469,417,(주)이마트에브리데이 목동점,서울특별시 양천구 목동서로 130,서울,양천구,목동,그 밖의 대규모점포,126.870904725016,37.5315163480803,마트,1147055000
472,422,홈플러스(주)목동점,서울특별시 양천구 목동서로 170 ,서울,양천구,목동,대형마트,126.873300065422,37.5302447468035,마트,1147051000
473,424,홈플러스(주)익스프레스 목동2점,서울특별시 양천구 등촌로 172 ,서울,양천구,목동,그 밖의 대규모점포,126.862607834028,37.5451346059769,마트,1147053000
478,66,롯데쇼핑(주)롯데슈퍼 신월점,서울특별시 양천구 월정로46길 11 ,서울,양천구,신월동,그 밖의 대규모점포,126.833144811368,37.5409423254402,마트,1147060000
479,427,(주)이마트 신월점,서울특별시 양천구 화곡로 59 ,서울,양천구,신월동,대형마트,126.828515227561,37.5397558351393,마트,1147060000
480,63,홈플러스 익스프레스 오목교점,서울특별시 양천구 목동동로 196,서울,양천구,신정동,그 밖의 대규모점포,126.87145664624,37.5229231089155,마트,1147063000
481,415,롯데프레시 신정점,서울특별시 양천구 신정로13길 3,서울,양천구,신정동,그 밖의 대규모점포,126.843251343486,37.509813151143,마트,1147064000
482,416,홈플러스(주)익스프레스 신정점,서울특별시 양천구 중앙로 255-1 ,서울,양천구,신정동,그 밖의 대규모점포,126.852968795835,37.5191629222655,마트,1147064000
484,423,(주)지에스리테일 신정2점,서울특별시 양천구 목동남로4길 2 ,서울,양천구,신정동,그 밖의 대규모점포,126.864535471682,37.508287498257,마트,1147068000
485,425,홈플러스(주)익스프레스 신정3점,서울특별시 양천구 목동동로 53,서울,양천구,신정동,그 밖의 대규모점포,126.860819809577,37.5150061976255,마트,1147068000
486,435,(주)이마트에브리데이 목동역점,서울특별시 양천구 목동로 183,서울,양천구,신정동,그 밖의 대규모점포,126.86432426536,37.5248692237083,마트,1147065000
487,696,롯데프레시 갈월점,서울특별시 한강대로77길 12,서울,용산구,갈월동,그 밖의 대규모점포,126.971894293496,37.5422089700722,마트,1117053000
488,47,GS THE FRESH 용산이촌점,서울특별시 용산구 이촌로 200,서울,용산구,이촌동,그 밖의 대규모점포,126.969343240712,37.5209511026518,마트,1117063000
489,175,롯데슈퍼 한남점(가맹점),서울특별시 용산구 대사관로34길 26,서울,용산구,한남동,그 밖의 대규모점포,127.005673986734,37.5320910602827,마트,1117068500
493,27,롯데쇼핑(주)롯데슈퍼원효로점,서울특별시 용산구 백범로 341 ,서울,용산구,원효로1가,그 밖의 대규모점포,126.967973433167,37.5379386735674,마트,1117056000
497,190,(주)농협유통하나로클럽용산점,서울특별시 용산구 청파로 122 ,서울,용산구,한강로2가,그 밖의 대규모점포,126.964733000098,37.5331746103959,마트,1117062500
500,685,GS THE FRESH 용산해링턴점,서울특별시 용산구 서빙고로 17,서울,용산구,한강로3가,그 밖의 대규모점포,126.966566172294,37.5269056148241,마트,1117062500
501,368,홈플러스 익스프레스 갈현점,서울특별시 은평구 서오릉로 222 ,서울,은평구,갈현동,그 밖의 대규모점포,126.909692686912,37.61502187175,마트,1138055200
503,372,홈플러스(주)익스프레스구산점,서울특별시 은평구 서오릉로 145 ,서울,은평구,구산동,그 밖의 대규모점포,126.916477274153,37.611286414672,마트,1138056000
511,363,롯데쇼핑(주)롯데슈퍼범서점,서울특별시 은평구 통일로 842 ,서울,은평구,불광동,그 밖의 대규모점포,126.922063807625,37.6186902335511,마트,1138052000
515,374,홈플러스(주)익스프레스 불광점,서울특별시 은평구 불광로 121 ,서울,은평구,불광동,그 밖의 대규모점포,126.932886145151,37.61763903504,마트,1138052000
517,380,(주)이마트 수색점,서울특별시 은평구 수색로 217 ,서울,은평구,수색동,대형마트,126.898724662348,37.5796242995394,마트,1138065000
518,367,홈플러스(주)익스프레스 신사점,서울특별시 은평구 갈현로 10 ,서울,은평구,신사동,그 밖의 대규모점포,126.910331908586,37.5988266227276,마트,1138063100
520,723,롯데쇼핑(주) 롯데슈퍼 역촌점,서울특별시 은평구 진흥로 103 ,서울,은평구,역촌동,그 밖의 대규모점포,126.922406417484,37.6060733736923,마트,1138062500
522,373,홈플러스(주)익스프레스응암점,서울특별시 은평구 응암로 247 ,서울,은평구,응암동,그 밖의 대규모점포,126.917854566217,37.5942237088269,마트,1138060000
523,379,(주)이마트 은평점,서울특별시 은평구 은평로 111 ,서울,은평구,응암동,대형마트,126.920513478627,37.6008254685415,마트,1138058000
527,56,GS THE FRESH 무악현대점,서울특별시 종로구 통일로 246-10,서울,종로구,무악동,그 밖의 대규모점포,126.959103079359,37.5743447023263,마트,1111057000
529,111,홈플러스(주)익스프레스 숭인점,서울특별시 종로구 종로 347 ,서울,종로구,숭인동,그 밖의 대규모점포,127.016000015149,37.5740562569508,마트,1111070000
541,127,홈플러스(주)익스프레스 광화문점,서울특별시  새문안로 91,서울,종로구,신문로1가,그 밖의 대규모점포,126.974761002545,37.5704876038354,마트,1111053000
542,276,주식회사 이마트 묵동점,서울특별시 중랑구 동일로 932 ,서울,중랑구,묵동,대형마트,127.077557139207,37.6138393830212,마트,1126062000
543,7,GS THE FRESH 중랑망우점,서울특별시 중랑구 양원역로 18,서울,중랑구,망우동,그 밖의 대규모점포,127.108648043621,37.6027743133849,마트,1126065500
544,94,주식회사 이마트 상봉점,서울특별시 중랑구 상봉로 118 ,서울,중랑구,망우동,대형마트,127.09360845762,37.596467652374,마트,1126065500
545,275,홈플러스(주)익스프레스 망우점,서울특별시 중랑구 용마산로 494 ,서울,중랑구,망우동,그 밖의 대규모점포,127.100268095195,37.5949757275537,마트,1126066000
546,266,홈플러스(주)익스프레스 면목점,서울특별시 중랑구 면목로 357 ,서울,중랑구,면목동,그 밖의 대규모점포,127.08813658984,37.5839916838426,마트,1126057500
547,268,홈플러스(주)면목점,서울특별시 중랑구 사가정로 332 ,서울,중랑구,면목동,대형마트,127.08038084565,37.5811863912514,마트,1126055000
548,272,(주)이마트에브리데이 면목동점,서울특별시 중랑구 면목로39길 11 ,서울,중랑구,면목동,그 밖의 대규모점포,127.086299055242,37.5795516849136,마트,1126057000
550,270,홈플러스(주) 서울 상봉점,서울특별시 망우로 353-0 ,서울,중랑구,상봉동,대형마트,127.091624142481,37.5983328190955,마트,1126058000
551,271,코스트코홀세일 상봉점,서울특별시 중랑구 망우로 336 ,서울,중랑구,상봉동,대형마트,127.090296348769,37.5968649569229,마트,1126059000
552,70,GS THE FRESH 신내점,서울특별시 중랑구 봉화산로56길 153,서울,중랑구,신내동,그 밖의 대규모점포,127.096785094457,37.6014843289566,마트,1126068000
553,100,롯데프레시앤델리 봉화산역점,서울특별시 중랑구 신내로 211,서울,중랑구,신내동,그 밖의 대규모점포,127.092668240549,37.6163496295774,마트,1126069000
555,267,홈플러스 신내점,서울특별시 중랑구 신내로 201 ,서울,중랑구,신내동,대형마트,127.093597352593,37.6159839060513,마트,1126069000
556,265,홈플러스(주) 익스프레스 태릉점,서울특별시 중랑구 동일로129길 35 ,서울,중랑구,중화동,그 밖의 대규모점포,127.077505274598,37.5992225724592,마트,1126061000
560,239,홈플러스(주) 동대문점,서울특별시 동대문구 천호대로 133 ,서울,동대문구,용두동,대형마트,127.03876781084,37.5745483247197,마트,1123053600
561,242,(주)이마트에브리데이 이문점,서울특별시 동대문구 이문로 136 ,서울,동대문구,이문동,그 밖의 대규모점포,127.061872724933,37.5984809170412,마트,1123074000
564,706,롯데쇼핑(주) 롯데마켓 999 이문점,서울특별시 동대문구 이문로 88 ,서울,동대문구,이문동,그 밖의 대규모점포,127.059408344046,37.5946710804233,마트,1123074000
565,5,GS THE FRESH 동대문장안점,서울특별시 동대문구 장한로28가길 45,서울,동대문구,장안동,그 밖의 대규모점포,127.07257242454,37.5750625285245,마트,1123066000
567,215,롯데쇼핑(주) 롯데슈퍼 장안점,서울특별시 동대문구 한천로46길 42 ,서울,동대문구,장안동,그 밖의 대규모점포,127.070706551458,37.5814628804522,마트,1123066000
570,261,노브랜드 동대문 장안점,서울특별시 동대문구 한천로 42 ,서울,동대문구,장안동,그 밖의 대규모점포,127.061727185544,37.5659490042311,마트,1123065000
571,216,롯데쇼핑(주) 롯데슈퍼 전농점,서울특별시 동대문구 사가정로 148 ,서울,동대문구,전농동,그 밖의 대규모점포,127.061567688813,37.5766590358858,마트,1123057000
572,218,롯데쇼핑(주)롯데마트 청량리점,서울특별시 동대문구 왕산로 214 ,서울,동대문구,전농동,대형마트,127.05114503929,37.584197400389,마트,1123056000
575,64,노브랜드 경동시장점,서울특별시 동대문구 고산자로36길 3,서울,동대문구,제기동,그 밖의 대규모점포,127.039142935818,37.5790377655561,마트,1123054500
577,258,홈플러스 익스프레스 서울회기점,서울특별시 동대문구 경희대로 20 ,서울,동대문구,회기동,그 밖의 대규모점포,127.052916011546,37.5933617852346,마트,1123071000
578,260,(주)이마트에브리데이 답십리점,서울특별시 동대문구 고미술로 49 ,서울,동대문구,답십리동,그 밖의 대규모점포,127.05348752395,37.567459850145,마트,1123060000
580,19,GS THE FRESH 신촌이대역점,서울특별시 서대문구 이화여대길 50-12,서울,서대문구,대현동,그 밖의 대규모점포,126.946519557644,37.5594539604684,마트,1141058500
584,87,롯데슈퍼 창천점,서울특별시 서대문구 신촌로 13,서울,서대문구,창천동,그 밖의 대규모점포,126.928532956302,37.5584060442027,마트,1141058500
586,36,롯데프레시 홍은점,서울특별시 서대문구 가좌로 99,서울,서대문구,홍은동,그 밖의 대규모점포,126.926538623756,37.5815985096182,마트,1141068500
587,387,이마트에브리데이 홍은점,서울특별시 서대문구 홍은중앙로 89,서울,서대문구,홍은동,그 밖의 대규모점포,126.947351976886,37.5990276988425,마트,1141066000
588,8,롯데슈퍼 홍제2점,서울특별시 서대문구 통일로 397,서울,서대문구,홍제동,그 밖의 대규모점포,126.947398082336,37.5851683009936,마트,1141062000
589,10,롯데슈퍼 유진점,서울특별시 서대문구 통일로 484,서울,서대문구,홍제동,그 밖의 대규모점포,126.94304229044,37.5916315313704,마트,1141064000
591,21,이마트에브리데이 명지대점,서울특별시 서대문구 거북골로 34,서울,서대문구,남가좌동,그 밖의 대규모점포,126.921348530876,37.5803770223812,마트,1141070000
592,48,이마트에브리데이 남가좌점,서울특별시 서대문구 수색로2길 39,서울,서대문구,남가좌동,그 밖의 대규모점포,126.915904667901,37.5713138623933,마트,1141069000
593,74,롯데슈퍼 남가좌점,서울특별시 서대문구 거북골로 120,서울,서대문구,남가좌동,그 밖의 대규모점포,126.916097519773,37.5754832622486,마트,1141070000
594,388,GS THE FRESH 남가좌디엠씨점,서울특별시 서대문구 거북골로 100,서울,서대문구,남가좌동,그 밖의 대규모점포,126.918353630124,37.5757256799627,마트,1141070000
595,385,(주)GS리테일 북가좌점,서울특별시 서대문구 응암로 54 ,서울,서대문구,북가좌동,그 밖의 대규모점포,126.910204528429,37.5778922395463,마트,1141072000
596,390,홈플러스(주) 익스프레스 북가좌점,서울특별시 서대문구 응암로 112 ,서울,서대문구,북가좌동,그 밖의 대규모점포,126.913589367782,37.5824489279945,마트,1141072000
601,535,롯데슈퍼 대림점,서울특별시 영등포구 대림로 251 ,서울,영등포구,대림동,그 밖의 대규모점포,126.896021583773,37.5030089776784,마트,1156072000
603,530,홈플러스(주) 익스프레스 도림점,서울특별시 영등포구 도신로 75 ,서울,영등포구,도림동,그 밖의 대규모점포,126.90077330066,37.5067177269855,마트,1156058500
604,78,GS THE FRESH 신길사러가점,서울특별시 영등포구 신길로 162,서울,영등포구,신길동,그 밖의 대규모점포,126.911367078154,37.5066614586993,마트,1156066000
607,526,홈플러스(주) 익스프레스 신길점,서울특별시 영등포구 여의대방로 65 ,서울,영등포구,신길동,그 밖의 대규모점포,126.913152385065,37.4973605331995,마트,1156068000
608,531,홈플러스(주) 익스프레스 신길3점,서울특별시 영등포구 가마산로69가길 12 ,서울,영등포구,신길동,그 밖의 대규모점포,126.90960664156,37.5061324962321,마트,1156065000
609,532,홈플러스(주) 익스프레스 신길2점,서울특별시 영등포구 영등포로 364 ,서울,영등포구,신길동,그 밖의 대규모점포,126.918360951993,37.5141215891197,마트,1156051500
610,75,(주)이마트 여의도점,서울특별시 영등포구 여의동로3길 10 ,서울,영등포구,여의도동,대형마트,126.925195988034,37.5181172905531,마트,1156054000
612,524,신세계 이마트 여의도점,서울특별시 영등포구 여의동로3길 10 ,서울,영등포구,여의도동,대형마트,126.925195988034,37.5181172905531,마트,1156054000
619,101,(주)이마트에브리데이 영등포구청점,서울특별시 영등포구 당산로 83,서울,영등포구,당산동2가,그 밖의 대규모점포,126.89528677963,37.522057531502,마트,1156055000
623,504,홈플러스(주) 영등포점,서울특별시 영등포구  당산로  42 ,서울,영등포구,문래동3가,대형마트,126.895880210522,37.5182396969791,마트,1156060500
625,18,GS THE FRESH 문래점,서울특별시 영등포구 문래북로 8,서울,영등포구,문래동6가,그 밖의 대규모점포,126.885753536197,37.5213427594044,마트,1156060500
627,506,코스트코 홀세일,서울특별시 영등포구 선유로 156 ,서울,영등포구,양평동3가,대형마트,126.892185701933,37.5276672625119,마트,1156061000
629,708,롯데쇼핑(주) 롯데마트 양평점,서울특별시 영등포구 선유로 138 ,서울,영등포구,양평동3가,대형마트,126.891572019703,37.5260658911576,마트,1156061000
638,715,롯데쇼핑(주) VIC마켓 영등포점,서울특별시 영등포구 영중로 125 ,서울,영등포구,영등포동8가,그 밖의 대규모점포,126.904683469106,37.5278167645388,마트,1156053500
