No,name,park_type,park_area,address,given_co,city_name,county_name,town_name,x,y
11170-00044,신용산가로공원,기타,2410.0,서울특별시 용산구 한강로2가 424-1,서울특별시 용산구,서울,용산구,한강로2가,126.969082823979,37.529477309028
11200-00042,뉴타운2구역,기타,2517.0,서울특별시 성동구 상왕십리동 811-3,서울특별시 성동구,서울,성동구,상왕십리동,127.025801602563,37.5689061451172
11200-00043,뉴타운1구역,기타,2452.4,서울특별시 성동구 하왕십리동 1066-1,서울특별시 성동구,서울,성동구,하왕십리동,127.025969983309,37.568757804326
11305-00009,북한산도시자연공원,기타,84448.4,서울특별시 강북구 미아동 산108-19,서울특별시 강북구,서울,강북구,미아동,127.008412429346,37.6210804928705
11305-00056,오동도시자연공원,기타,327925.6,서울특별시 강북구 번동 산27-5,서울특별시 강북구,서울,강북구,번동,127.034338080153,37.6240457211559
11320-00001,북한산 국립공원,기타,8703000.0,서울특별시 도봉구 도봉1동 산29-2,서울특별시 도봉구,서울,도봉구,도봉동,127.012580147523,37.6792858854548
11320-00051,방학3동,기타,874.0,서울특별시 도봉구 방학동 306-24,서울특별시 도봉구,서울,도봉구,방학동,127.029241502718,37.6633405428897
11320-00052,도봉1동(1),기타,489.0,서울특별시 도봉구 도봉동 282-275,서울특별시 도봉구,서울,도봉구,도봉동,127.042807881866,37.6875140867979
11320-00053,쌍문1동,기타,180.0,서울특별시 도봉구 쌍문동 490-27,서울특별시 도봉구,서울,도봉구,쌍문동,127.016304666737,37.6545827044531
11320-00054,창5동,기타,262.0,서울특별시 도봉구 창동 700-87,서울특별시 도봉구,서울,도봉구,창동,127.038697666529,37.6520019351109
11320-00055,도봉2동,기타,316.0,서울특별시 도봉구 도봉동 630-1,서울특별시 도봉구,서울,도봉구,도봉동,127.049042171352,37.6768097502879
11320-00056,방학1동,기타,203.0,서울특별시 도봉구 방학동 265-4,서울특별시 도봉구,서울,도봉구,방학동,127.03712518184,37.6614403180132
11320-00057,도봉1동(2),기타,1583.0,서울특별시 도봉구 도봉동 638-1,서울특별시 도봉구,서울,도봉구,도봉동,127.040438422451,37.6863561759753
11320-00059,쌍문4동(2),기타,793.0,서울특별시 도봉구 쌍문동 245-2,서울특별시 도봉구,서울,도봉구,쌍문동,127.028657858806,37.6590259761491
11320-00060,쌍문2동,기타,585.0,서울특별시 도봉구 쌍문동 69-59,서울특별시 도봉구,서울,도봉구,쌍문동,127.034832182437,37.6553233506572
11320-00061,발바닥공원,기타,13879.0,서울특별시 도봉구 방학동 490-8,서울특별시 도봉구,서울,도봉구,방학동,127.028926455569,37.6593276493742
11320-00062,방학사계광장,기타,15780.0,서울특별시 도봉구 방학동 678,서울특별시 도봉구,서울,도봉구,방학동,127.041957686363,37.6621390308587
11320-00063,도봉산역 만남의광장,기타,5271.0,서울특별시 도봉구 도봉2동 41,서울특별시 도봉구,서울,도봉구,도봉동,127.046798186579,37.6882404704033
11320-00064,창동 공원,기타,792.0,서울특별시 도봉구 창4동 181-38,서울특별시 도봉구,서울,도봉구,창동,127.045362429125,37.6601595759037
11320-00065,방학동 공원,기타,631.0,서울특별시 도봉구 방학1동 714-15,서울특별시 도봉구,서울,도봉구,방학동,127.045468081072,37.6644766768168
11320-00066,방학3동 가로공원,기타,735.0,서울특별시 도봉구 방학3동 443,서울특별시 도봉구,서울,도봉구,방학동,127.027578633669,37.6633697747898
11320-00067,도봉마루공원,기타,1361.0,서울특별시 도봉구 도봉1동 279,서울특별시 도봉구,서울,도봉구,도봉동,127.043917478876,37.6877204531049
11320-00068,한전변전소 자투리땅 휴게공원,기타,606.0,서울특별시 도봉구 쌍문3동 346-3,서울특별시 도봉구,서울,도봉구,쌍문동,127.02683071087,37.6482196602687
11320-00069,원당샘공원,기타,4671.0,서울특별시 도봉구 방학3동 547,서울특별시 도봉구,서울,도봉구,방학동,127.022088126268,37.6606599680206
11320-00071,서울북부지방검찰청주변녹지,기타,314.0,서울특별시 도봉구 도봉2동 626-22,서울특별시 도봉구,서울,도봉구,도봉동,127.046674414624,37.6756283562195
11350-00001,수락산<시공원>,기타,6691885.3,서울특별시 노원구 상계동 산3-1,서울특별시 노원구,서울,노원구,상계동,127.065364973013,37.6920670995472
11350-00002,불암산<시공원>,기타,5332422.0,서울특별시 노원구 중계동 산101-1,서울특별시 노원구,서울,노원구,중계동,127.08682201732,37.6589776842341
11350-00122,간  촌,기타,455.0,서울특별시 노원구 상계5동 154-3,서울특별시 노원구,서울,노원구,상계동,127.070836758403,37.6638470882063
11350-00123,다우리,기타,180.0,서울특별시 노원구 상계5동 430-19,서울특별시 노원구,서울,노원구,상계동,127.06621951198,37.6620818656702
11350-00124,나누리,기타,178.0,서울특별시 노원구 상계5동 456-145,서울특별시 노원구,서울,노원구,상계동,127.066730193514,37.6654934123727
11350-00126,오장골,기타,99.0,서울특별시 노원구 상계5동 445-2,서울특별시 노원구,서울,노원구,상계동,127.069093819876,37.6630797654754
11350-00127,안  산,기타,258.0,서울특별시 노원구 상계5동 169-53,서울특별시 노원구,서울,노원구,상계동,127.071988743668,37.6623429238012
11350-00132,"우체국 옆(엠코, 태릉입구 5번 출구)",기타,487.7,서울특별시 노원구 공릉1동 670-20외,서울특별시 노원구,서울,노원구,공릉동,127.076218870796,37.6185318804274
11350-00134,양지마을마당,기타,563.7,서울특별시 노원구 중계1동 580-2,서울특별시 노원구,서울,노원구,중계동,127.071042936228,37.6505433358473
11350-00135,공릉3동소공원,기타,3000.0,서울특별시 노원구 공릉3동 318-3,서울특별시 노원구,서울,노원구,공릉동,127.070159350992,37.6269965388937
11350-00137,성북역,기타,4216.0,서울특별시 노원구 월계1동 412-1,서울특별시 노원구,서울,노원구,월계동,127.062232239714,37.6218387812769
11350-00138,샘말공원,기타,937.4,서울특별시 노원구 공릉1동 517-11,서울특별시 노원구,서울,노원구,공릉동,127.075219547403,37.6237511307309
11350-00139,산성미소지움 앞,기타,113.0,서울특별시 노원구 공릉2동 224-18,서울특별시 노원구,서울,노원구,공릉동,127.080753901627,37.6254168214259
11350-00140,우남아파트 앞,기타,43.0,서울특별시 노원구 월계1동 494-9,서울특별시 노원구,서울,노원구,월계동,127.062471362401,37.6145301113208
11350-00141,석계역 굴다리,기타,413.0,서울특별시 노원구 월계1동 66-11,서울특별시 노원구,서울,노원구,월계동,127.064676559868,37.6168496889406
11350-00142,월계 현대아파트앞,기타,108.0,서울특별시 노원구 월계1동 76-1,서울특별시 노원구,서울,노원구,월계동,127.063474997084,37.6189421650875
11350-00143,월계 롯데캐슬 옆,기타,764.0,서울특별시 노원구 월계2동 865-5,서울특별시 노원구,서울,노원구,월계동,127.049811698269,37.6253187042134
11350-00144,불암초,기타,412.0,서울특별시 노원구 중계본동 107-8,서울특별시 노원구,서울,노원구,중계동,127.081316490006,37.6514455230039
11350-00145,불암소공원,기타,1198.0,서울특별시 노원구 중계4동 453-38,서울특별시 노원구,서울,노원구,중계동,127.072267174176,37.6585659296619
11350-00146,노원골 만남의광장,기타,800.0,서울특별시 노원구 상계1동 1001,서울특별시 노원구,서울,노원구,상계동,127.061653327075,37.6746513930778
11350-00147,천상병공원,기타,197.0,서울특별시 노원구 상계1동 996-27,서울특별시 노원구,서울,노원구,상계동,127.059177444863,37.6743647984261
11350-00148,비콘과대망사이,기타,231.0,서울특별시 노원구 상계1동 1116-120,서울특별시 노원구,서울,노원구,상계동,127.058184372174,37.6767119827867
11350-00149,중계1동 소공원,기타,1642.0,서울특별시 노원구 중계1동 421-67외4,서울특별시 노원구,서울,노원구,중계동,127.069212287345,37.6499276111387
11350-00150,소방파출소,기타,233.0,서울특별시 노원구 상계2동 197-11,서울특별시 노원구,서울,노원구,상계동,127.071415634979,37.6551556009236
11350-00151,순복음교회 뒤,기타,76.0,서울특별시 노원구 상계2동 178-18,서울특별시 노원구,서울,노원구,상계동,127.068832052717,37.6558809857887
11350-00152,순복음 목재소,기타,77.0,서울특별시 노원구 상계2동 330-41,서울특별시 노원구,서울,노원구,상계동,127.067244477442,37.6562613951064
11350-00153,상계2동 마을숲,기타,1341.0,서울특별시 노원구 상계2동 373-13,서울특별시 노원구,서울,노원구,상계동,127.067506944326,37.6567658852247
11350-00154,현대 초입,기타,110.0,서울특별시 노원구 상계3동 107-1798,서울특별시 노원구,서울,노원구,상계동,127.079186642302,37.6675386816698
11350-00155,간촌 인근,기타,41.0,서울특별시 노원구 상계5동 156-66,서울특별시 노원구,서울,노원구,상계동,127.071902365707,37.6630309656148
11350-00157,계상초 인근,기타,62.0,서울특별시 노원구 상계5동 434-8,서울특별시 노원구,서울,노원구,상계동,127.067353473263,37.6618800345365
11350-00158,석계역문화공원,기타,3900.0,서울특별시 노원구 월계1동 47-45,서울특별시 노원구,서울,노원구,월계동,127.064123463476,37.6151154082312
11350-00159,공릉가로공원,기타,8999.0,서울특별시 노원구 공릉1동 657-8,서울특별시 노원구,서울,노원구,공릉동,127.078213326667,37.6182240593085
11350-00160,상계 5,기타,417.0,서울특별시 노원구 상계5동 155-23,서울특별시 노원구,서울,노원구,상계동,127.071527972962,37.6635773678932
11350-00161,한천가로공원,기타,7145.0,서울특별시 노원구 공릉1동 406-1,서울특별시 노원구,서울,노원구,공릉동,127.070570528476,37.6243232462794
11350-00162,우이천가로공원,기타,8098.0,서울특별시 노원구 월계2동 861-3,서울특별시 노원구,서울,노원구,월계동,127.049199847644,37.6257892760413
11350-00163,월계2동쌈지(신화연립),기타,164.0,서울특별시 노원구 월계2동 912-1,서울특별시 노원구,서울,노원구,월계동,127.042685114341,37.6325144317653
11350-00164,월계2동쌈지(신우빌라),기타,561.0,서울특별시 노원구 월계2동 877-4,서울특별시 노원구,서울,노원구,월계동,127.045014377894,37.6291645109214
11350-00167,상계5동 쌈지마당,기타,137.0,서울특별시 노원구 상계5동 167-18,서울특별시 노원구,서울,노원구,상계동,127.068797985382,37.6620690376168
11350-00168,상계5동 간촌마을 가로공원,기타,1298.2,서울특별시 노원구 상계5동 458-3,서울특별시 노원구,서울,노원구,상계동,127.068069352599,37.6661626163346
11350-00169,힐링숲,기타,862.0,서울특별시 노원구 상계5동 441-3,서울특별시 노원구,서울,노원구,상계동,127.067616373771,37.6614654327649
11650-00001,우면산,기타,3721692.4,서울특별시 서초구 방배동 산 92-1,서울특별시 서초구,서울,서초구,방배동,127.002456948211,37.4712522813797
11650-00002,청계산,기타,3609700.6,서울특별시 서초구 원지동 산 4-13,서울특별시 서초구,서울,서초구,원지동,127.044725153601,37.4368473981011
11650-00003,인능산,기타,2108968.6,서울특별시 서초구 신원동 산 39-1,서울특별시 서초구,서울,서초구,신원동,127.067877260272,37.4420830721343
11650-00005,서리풀,기타,204269.7,서울특별시 서초구 방배동 산24-3,서울특별시 서초구,서울,서초구,방배동,126.99894658701,37.4826980079641
11650-00006,방배,기타,210517.2,서울특별시 서초구 방배동 686-201,서울특별시 서초구,서울,서초구,방배동,126.995297200729,37.4742270790241
11650-00007,말죽거리,기타,280822.6,서울특별시 서초구 서초동 산28,서울특별시 서초구,서울,서초구,서초동,127.030468982507,37.4808847680614
11710-00126,돌무데기놀이터,기타,455.0,서울특별시 송파구 마천동 277-52,서울특별시 송파구,서울,송파구,마천동,127.15719931488,37.4920359018759
11710-00127,풍납타이어,기타,291.0,서울특별시 송파구 풍납동 483-4,서울특별시 송파구,서울,송파구,풍납동,127.121569843339,37.5359753667483
11710-00157,올림픽공원,기타,1447122.3,서울특별시 송파구 방이동 88-3 외,서울특별시 송파구,서울,송파구,방이동,127.121429028749,37.5212103540325
11110-00016,후창공원,소공원,1920.0,서울특별시 종로구 평창동 568-2,서울특별시 종로구,서울,종로구,평창동,126.964602122513,37.61013568236
11110-00017,서린공원,소공원,1398.0,서울특별시 종로구 서린동 82,서울특별시 종로구,서울,종로구,서린동,126.980818874227,37.5697785789471
11110-00018,덕수공원,소공원,869.2,서울특별시 종로구 신문로1가 174-7,서울특별시 종로구,서울,종로구,신문로1가,126.974756996944,37.5692755839476
11110-00025,평창공원,소공원,1117.6,서울특별시 종로구 평창동 108-3,서울특별시 종로구,서울,종로구,평창동,126.977915132232,37.6106094212219
11110-00036,달바위공원,소공원,3317.8,서울특별시 종로구 송월동 145-2,서울특별시 종로구,서울,종로구,송월동,126.965422924916,37.5706559767607
11110-00037,솔빛공원,소공원,1793.3,서울특별시 종로구 송월동 145-3,서울특별시 종로구,서울,종로구,송월동,126.965538937498,37.5699486392484
11110-00038,소담공원,소공원,491.4,서울특별시 종로구 행촌동 211-4,서울특별시 종로구,서울,종로구,행촌동,126.961654547641,37.5721180290395
11110-00039,부암튼튼공원,소공원,1258.0,서울특별시 종로구 부암동 262-1,서울특별시 종로구,서울,종로구,부암동,126.96458691733,37.5922783144261
11110-00040,의주공원,소공원,364.0,서울특별시 종로구 무악동 46-71,서울특별시 종로구,서울,종로구,무악동,126.960234007787,37.5738417930383
11140-00004,저동1소공원,소공원,210.0,서울특별시 중구 을지로2가 203-1,서울특별시 중구,서울,중구,을지로2가,126.989620543402,37.5659697302956
11140-00005,저동2소공원,소공원,200.0,서울특별시 중구 을지로2가 203-4,서울특별시 중구,서울,중구,을지로2가,126.988862281241,37.5652578742896
11140-00006,저동3소공원,소공원,389.2,서울특별시 중구 저동2가 89-1,서울특별시 중구,서울,중구,저동2가,126.989243148148,37.5653370170661
11140-00007,쌍림동소공원,소공원,169.4,서울특별시 중구 쌍림동 292-2,서울특별시 중구,서울,중구,쌍림동,127.003106264502,37.5635134893898
11140-00008,무교1소공원,소공원,570.2,서울특별시 중구 무교동 97-2,서울특별시 중구,서울,중구,무교동,126.979058062561,37.5683858812176
11140-00009,무교2소공원,소공원,1245.4,서울특별시 중구 태평로1가 2-2,서울특별시 중구,서울,중구,태평로1가,126.977612569549,37.568828545402
11140-00011,진달래소공원,소공원,713.0,서울특별시 중구 정동 1-73,서울특별시 중구,서울,중구,정동,126.974795387426,37.5678795895459
11140-00012,마루소공원,소공원,337.0,서울특별시 중구 다산동 432-1918,서울특별시 중구,서울,중구,신당동,127.004411924978,37.5511796049381
11140-00013,만리소공원(만리2구역1),소공원,1204.2,서울특별시 중구 만리동2가 285(231-2),서울특별시 중구,서울,중구,만리동2가,126.963161838678,37.5524732703421
11140-00014,만리소공원(만리2구역2),소공원,3394.5,서울특별시 중구 만리동2가 281(211),서울특별시 중구,서울,중구,만리동2가,126.963665821584,37.5530861051473
11140-00016,서소문구역 제5지구(가칭),소공원,397.5,서울특별시 중구 서소문동 116,서울특별시 중구,서울,중구,서소문동,126.975428075204,37.5628823480327
11140-00017,신당제11구역1(가칭),소공원,284.7,서울특별시 중구 신당동 856-6,서울특별시 중구,서울,중구,신당동,127.02427070344,37.5627678936849
11140-00018,신당제11구역2(가칭),소공원,79.7,서울특별시 중구 신당동 856-2,서울특별시 중구,서울,중구,신당동,127.025087035268,37.5635793406423
11140-00019,다동소공원,소공원,1929.0,서울특별시 중구 다동51-1,서울특별시 중구,서울,중구,다동,126.980522593948,37.5677927361547
11170-00011,꿈나무공원,소공원,1412.0,서울특별시 용산구 이촌동 301-86,서울특별시 용산구,서울,용산구,이촌동,126.971885671518,37.5208681221348
11170-00018,이촌공원,소공원,1736.0,서울특별시 용산구 이촌동 301-60,서울특별시 용산구,서울,용산구,이촌동,126.979733679616,37.5187582287783
11170-00019,새푸리공원,소공원,231.0,서울특별시 용산구 이촌동 399,서울특별시 용산구,서울,용산구,이촌동,126.967847950243,37.5216042925237
11170-00021,강변공원,소공원,1766.0,서울특별시 용산구 이촌동 408,서울특별시 용산구,서울,용산구,이촌동,126.975042386487,37.5213357310496
11170-00029,비상공원,소공원,889.0,서울특별시 용산구 이촌동 417,서울특별시 용산구,서울,용산구,이촌동,126.97137934357,37.5223433024983
11170-00030,청탑공원,소공원,546.0,서울특별시 용산구 이촌동 425,서울특별시 용산구,서울,용산구,이촌동,126.977376929218,37.5178050799803
11170-00031,사촌공원,소공원,1500.0,서울특별시 용산구 이촌동 429,서울특별시 용산구,서울,용산구,이촌동,126.970920051558,37.5206235363435
11170-00032,강변복지공원,소공원,377.0,서울특별시 용산구 이촌동 421,서울특별시 용산구,서울,용산구,이촌동,126.965898510818,37.5211165735298
11170-00033,이촌한우리공원,소공원,4325.0,서울특별시 용산구 이촌동 437,서울특별시 용산구,서울,용산구,이촌동,126.9810996484,37.5171357481926
11170-00034,해님공원,소공원,1255.0,서울특별시 용산구 문배동 45,서울특별시 용산구,서울,용산구,문배동,126.970127836301,37.5391402714588
11170-00035,달님공원,소공원,1195.0,서울특별시 용산구 문배동 46,서울특별시 용산구,서울,용산구,문배동,126.969596440995,37.5384249219129
11170-00036,별님공원,소공원,1137.0,서울특별시 용산구 문배동 11-1,서울특별시 용산구,서울,용산구,문배동,126.969192152632,37.5381788440691
11170-00037,이태원마을숲,소공원,867.0,서울특별시 용산구 이태원동 260-87,서울특별시 용산구,서울,용산구,이태원동,126.991493802648,37.5412815459788
11170-00038,독서당공원,소공원,469.0,서울특별시 용산구 한남동 1-32,서울특별시 용산구,서울,용산구,한남동,127.012481906491,37.5345082831293
11170-00039,한남공원,소공원,432.0,서울특별시 용산구 한남동 15-5,서울특별시 용산구,서울,용산구,한남동,127.013869079527,37.5372527564914
11170-00040,이태원어린이놀이터,소공원,278.0,서울특별시 용산구 이태원동 190-11,서울특별시 용산구,서울,용산구,이태원동,126.989943469405,37.5356704451454
11170-00041,한강대로공원,소공원,466.0,서울특별시 용산구 한강로동 65-587,서울특별시 용산구,서울,용산구,한강로3가,126.963576145298,37.5241036949588
11170-00047,우정소공원,소공원,806.1,서울특별시 용산구 효창동 287-2,서울특별시 용산구,서울,용산구,효창동,126.96409422812,37.5404592768456
11170-00048,녹색소공원,소공원,1569.9,서울특별시 용산구 효창동 287-6,서울특별시 용산구,서울,용산구,효창동,126.962518807604,37.5393757853533
11200-00032,도장골,소공원,678.3,서울특별시 성동구 행당동 346-2,서울특별시 성동구,서울,성동구,행당동,127.027087662201,37.5547074112931
11200-00033,동부,소공원,251.0,서울특별시 성동구 성수동1가 656-1735,서울특별시 성동구,서울,성동구,성수동1가,127.047432695002,37.5449808398636
11200-00034,청송,소공원,798.7,서울특별시 성동구 성수동2가 277-23,서울특별시 성동구,서울,성동구,성수동2가,127.058531941103,37.5455140265634
11200-00035,향림,소공원,987.8,서울특별시 성동구 성수동2가 289-28,서울특별시 성동구,서울,성동구,성수동2가,127.053442183443,37.5467690986446
11200-00036,장미,소공원,485.4,서울특별시 성동구 송정동 107,서울특별시 성동구,서울,성동구,송정동,127.068856389143,37.552275586828
11200-00037,금옥,소공원,1230.0,서울특별시 성동구 금호동2가 1213,서울특별시 성동구,서울,성동구,금호동2가,127.021171208289,37.5533810901548
11200-00038,금남,소공원,834.0,서울특별시 성동구 금호동3가 701,서울특별시 성동구,서울,성동구,금호동3가,127.021776503605,37.5493118917489
11200-00039,옥정,소공원,711.76,서울특별시 성동구 옥수동 562-1,서울특별시 성동구,서울,성동구,옥수동,127.015412584797,37.5458996400164
11200-00040,매봉,소공원,2006.7,서울특별시 성동구 옥수동 561-1,서울특별시 성동구,서울,성동구,옥수동,127.011854074049,37.5451716831483
11200-00041,왕십리 KCC스위첸,소공원,1514.1,서울특별시 성동구 하왕십리동 1002-1,서울특별시 성동구,서울,성동구,하왕십리동,127.025662922731,37.5606061983707
11200-00046,트리마제,소공원,2762.8,서울특별시 성동구 성수동1가 718,서울특별시 성동구,서울,성동구,성수동1가,127.045045893181,37.5388239825147
11200-00047,하왕1-5구역,소공원,1451.1,서울특별시 성동구 하왕십리동 1071-2,서울특별시 성동구,서울,성동구,하왕십리동,127.024770443582,37.5594424811605
11215-10543,화양동정자마당소공원,소공원,2382.0,서울특별시 광진구 화양동 110-34,서울특별시 광진구,서울,광진구,화양동,127.071809558098,37.5465330264295
11215-10544,능동정자마당소공원,소공원,1518.0,서울특별시 광진구 능동 369-12,서울특별시 광진구,서울,광진구,능동,127.079346871456,37.5534357954249
11215-10545,구의가로휴식소공원,소공원,95.2,서울특별시 광진구 구의동 589-4,서울특별시 광진구,서울,광진구,구의동,127.09328516484,37.5364659228492
11215-10546,약초원소공원,소공원,1337.0,서울특별시 광진구 자양동 553-22,서울특별시 광진구,서울,광진구,자양동,127.06795018097,37.5349959365748
11215-10547,세모꼴소공원,소공원,862.0,서울특별시 광진구 자양동 859-1,서울특별시 광진구,서울,광진구,자양동,127.081579154835,37.5383784029393
11215-10548,능동소공원,소공원,1062.0,서울특별시 광진구 능동 242-26,서울특별시 광진구,서울,광진구,능동,127.08294192313,37.5524907009207
11215-10549,홍련산의소공원,소공원,1291.1,서울특별시 광진구 구의동 668-5,서울특별시 광진구,서울,광진구,구의동,127.088617287863,37.5461369725335
11215-10550,뚝섬유원지역쉼터소공원,소공원,802.3,서울특별시 광진구 자양동 854-1,서울특별시 광진구,서울,광진구,자양동,127.067311196684,37.5318978506904
11215-10551,중곡역소공원(가칭),소공원,1276.7,서울특별시 광진구 중곡동 30-79,서울특별시 광진구,서울,광진구,중곡동,127.084911199835,37.565877663388
11230-00031,장령당,소공원,1424.1,서울특별시 동대문구 답십리동 1004-4,서울특별시 동대문구,서울,동대문구,답십리동,127.053505470185,37.5697618855911
11230-00034,작은언덕,소공원,400.0,서울특별시 동대문구 회기동 351-6,서울특별시 동대문구,서울,동대문구,회기동,127.054042106517,37.5893115860422
11230-00037,내길,소공원,514.9,서울특별시 동대문구 휘경동 368-4,서울특별시 동대문구,서울,동대문구,휘경동,127.065099454211,37.5902902495037
11230-00039,솔바람,소공원,1763.2,서울특별시 동대문구 용두동 794-1,서울특별시 동대문구,서울,동대문구,용두동,127.030406134769,37.5798586219573
11230-00043,장이,소공원,1403.6,서울특별시 동대문구 장안동 587-1,서울특별시 동대문구,서울,동대문구,장안동,127.070566425123,37.5744181821049
11230-00044,휘경마당,소공원,654.0,서울특별시 동대문구 휘경동 375-1,서울특별시 동대문구,서울,동대문구,휘경동,127.061130055906,37.5910821816849
11260-00054,묵동소공원,소공원,165.9,서울특별시 중랑구 묵동 164-52,서울특별시 중랑구,서울,중랑구,묵동,127.078096097168,37.6153032238014
11260-00055,묵1동소공원,소공원,854.6,서울특별시 중랑구 묵동 396-2,서울특별시 중랑구,서울,중랑구,묵동,127.082454654617,37.6147294827942
11260-00056,코오롱하늘채앞소공원,소공원,1221.8,서울특별시 중랑구 면목동 1537-1,서울특별시 중랑구,서울,중랑구,면목동,127.086450666302,37.571933757487
11290-00035,길음골,소공원,1244.0,서울특별시 성북구 길음1동 1285-9,서울특별시 성북구,서울,성북구,길음동,127.020079343604,37.6090317868143
11290-00036,길섶,소공원,383.0,서울특별시 성북구 길음1동 1285-10,서울특별시 성북구,서울,성북구,길음동,127.018637883889,37.6105679397516
11290-00037,잔월,소공원,481.0,서울특별시 성북구 하월곡동 230-1,서울특별시 성북구,서울,성북구,하월곡동,127.031516633541,37.6040689774338
11290-00038,행복한,소공원,1173.0,서울특별시 성북구 길음1동 1284-13,서울특별시 성북구,서울,성북구,길음동,127.019532339976,37.6082253128204
11290-00039,두레,소공원,287.0,서울특별시 성북구 길음1동 1284-8,서울특별시 성북구,서울,성북구,길음동,127.017674030224,37.6065782362134
11290-00040,돌마루,소공원,877.0,서울특별시 성북구 삼선동3가 116-1,서울특별시 성북구,서울,성북구,삼선동3가,127.012363958443,37.5882871685199
11290-00041,되너미,소공원,1069.0,서울특별시 성북구 돈암동 644-1,서울특별시 성북구,서울,성북구,돈암동,127.013702654075,37.5984917443056
11290-00042,꿈빛,소공원,719.0,서울특별시 성북구 정릉동 1039,서울특별시 성북구,서울,성북구,정릉동,127.011656112923,37.6022408065466
11290-00048,돌이음,소공원,1103.4,서울특별시 성북구 석관동 410-3,서울특별시 성북구,서울,성북구,석관동,127.065217329383,37.606904276284
11290-00049,도란도란,소공원,426.0,서울특별시 성북구 석관동 410-4,서울특별시 성북구,서울,성북구,석관동,127.06536358963,37.6056704701524
11305-00014,소망,소공원,320.0,서울특별시 강북구 삼양동 791-1467,서울특별시 강북구,서울,강북구,미아동,127.015419102099,37.6258159148164
11305-00015,미래,소공원,564.0,서울특별시 강북구 삼양동 791-1712,서울특별시 강북구,서울,강북구,미아동,127.014495412119,37.6246225845756
11305-00016,늘푸른,소공원,646.0,서울특별시 강북구 삼양동 797-9,서울특별시 강북구,서울,강북구,미아동,127.019684559282,37.6254375866315
11305-00017,폭포,소공원,1238.0,서울특별시 강북구 삼각산동 813-6,서울특별시 강북구,서울,강북구,미아동,127.021698782591,37.6125845509086
11305-00018,꼭지,소공원,746.0,서울특별시 강북구 삼각산동 811-7,서울특별시 강북구,서울,강북구,미아동,127.017332923497,37.618797948426
11305-00037,흰구름,소공원,214.0,서울특별시 강북구 수유2동 252-16,서울특별시 강북구,서울,강북구,수유동,127.02047635583,37.6459845128175
11305-00050,미아12-1,소공원,1637.0,서울특별시 강북구 미아동 812-5,서울특별시 강북구,서울,강북구,미아동,127.019610802444,37.6163362724955
11305-00051,미아12-2,소공원,1920.0,서울특별시 강북구 미아동 812-3,서울특별시 강북구,서울,강북구,미아동,127.021451721491,37.6167778869561
11305-00053,어울림,소공원,1923.0,서울특별시 강북구 송중동 4-1,서울특별시 강북구,서울,강북구,미아동,127.035546593695,37.6168209739644
11305-00054,미아5구역,소공원,856.0,서울특별시 강북구 송천동 476-252,서울특별시 강북구,서울,강북구,미아동,127.026151342949,37.6125114790049
11320-00045,창2 마을공원,소공원,3104.0,서울특별시 도봉구 창동 582-22,서울특별시 도봉구,서울,도봉구,창동,127.03628700415,37.6412633366263
11320-00046,무수울 소공원,소공원,161.0,서울특별시 도봉구 도봉동 470,서울특별시 도봉구,서울,도봉구,도봉동,127.033876120247,37.6778968868832
11320-00047,무수골 소공원,소공원,854.0,서울특별시 도봉구 도봉동 429-3,서울특별시 도봉구,서울,도봉구,도봉동,127.039916812475,37.6789785141871
11320-00048,쌍문1구역 소공원,소공원,1188.0,서울특별시 도봉구 쌍문동 732-1,서울특별시 도봉구,서울,도봉구,쌍문동,127.02193224055,37.6489211872117
11350-00116,벼루말,소공원,990.2,서울특별시 노원구 월계동 949-3,서울특별시 노원구,서울,노원구,월계동,127.05425724698,37.6206704428988
11350-00117,중계,소공원,1358.2,서울특별시 노원구 중계동 514-8,서울특별시 노원구,서울,노원구,중계동,127.067016465464,37.6451646589913
11350-00170,중계소공원2,소공원,700.0,서울특별시 노원구 중계동 514-8,서울특별시 노원구,서울,노원구,중계동,127.067016465464,37.6451646589913
11350-00171,상계소공원1,소공원,2471.0,서울특별시 노원구 상계동 680,서울특별시 노원구,서울,노원구,상계동,127.062361991012,37.6640544136641
11350-00172,상계소공원2,소공원,1530.0,서울특별시 노원구 상계동 677,서울특별시 노원구,서울,노원구,상계동,127.062459439567,37.6614579148175
11350-00173,상계소공원3,소공원,574.2,서울특별시 노원구 상계3·4동 1355-6,서울특별시 노원구,서울,노원구,상계동,127.075551543006,37.6666911712967
11350-00174,상계소공원4,소공원,670.0,서울특별시 노원구 상계3·4동 1355-8,서울특별시 노원구,서울,노원구,상계동,127.073323958214,37.6653487646165
11380-00059,거북이소공원,소공원,250.0,서울특별시 은평구 구산동 309-38,서울특별시 은평구,서울,은평구,구산동,126.90533010741,37.6181545214274
11380-00060,요  산소공원,소공원,805.0,서울특별시 은평구 불광동 13-33외 3,서울특별시 은평구,서울,은평구,불광동,126.93285727832,37.618376567324
11380-00061,응암9구역소공원,소공원,880.8,서울특별시 은평구 응암동 761-7,서울특별시 은평구,서울,은평구,응암동,126.925746473089,37.5876396224577
11380-00062,불광3구역소공원,소공원,7274.1,서울특별시 은평구 불광동641-1일대,서울특별시 은평구,서울,은평구,불광동,126.935307882795,37.6195102976742
11380-00063,불광6구역소공원,소공원,1919.0,서울특별시 은평구 불광동 638-3 일대,서울특별시 은평구,서울,은평구,불광동,126.939338250384,37.6122836293385
11380-00064,불광7구역소공원,소공원,3120.0,서울특별시 은평구 불광동 643-3,서울특별시 은평구,서울,은평구,불광동,126.928902689158,37.6168728446414
11380-00065,응암3주택 재개발구역내소공원,소공원,1641.6,서울특별시 은평구 응암동 762-4,서울특별시 은평구,서울,은평구,응암동,126.925938034502,37.5986186868865
11380-00066,폭포동소공원,소공원,1087.8,서울특별시 은평구 진관동 158-14일원,서울특별시 은평구,서울,은평구,진관동,126.929780897244,37.630182841322
11380-00067,잿말소공원,소공원,245.1,서울특별시 은평구 진관동 195-16,서울특별시 은평구,서울,은평구,진관동,126.939016292218,37.6414924572737
11380-00068,한옥마을소공원,소공원,58.7,서울특별시 은평구 진관동 211-34,서울특별시 은평구,서울,은평구,진관동,126.939613829582,37.6426451234951
11380-00069,신사동(새절)소공원,소공원,782.6,서울특별시 은평구 신사동372-1,서울특별시 은평구,서울,은평구,신사동,126.907869918144,37.5985091095383
11380-00070,녹번1-2지구 주택재개발정비구역내소공원,소공원,5804.2,서울특별시 은평구 녹번동 283-7,서울특별시 은평구,서울,은평구,녹번동,126.935548675184,37.6040478385058
11410-00031,기차길옆소공원,소공원,381.3,서울특별시 서대문구 합동 118-1,서울특별시 서대문구,서울,서대문구,합동,126.965348150098,37.5622444371334
11410-00036,아름다운소공원,소공원,441.5,서울특별시 서대문구 홍제동 469-1,서울특별시 서대문구,서울,서대문구,홍제동,126.947188738695,37.5848519589678
11410-00040,홍은3소공원,소공원,747.0,서울특별시 서대문구 홍은동 산1-549,서울특별시 서대문구,서울,서대문구,홍은동,126.943399559243,37.5996593562375
11410-00042,문화소공원,소공원,1456.0,서울특별시 서대문구 홍제동 280-2,서울특별시 서대문구,서울,서대문구,홍제동,126.948846497391,37.5945792613794
11410-00043,한울소공원,소공원,1006.0,서울특별시 서대문구 남가좌동 382-5,서울특별시 서대문구,서울,서대문구,남가좌동,126.916571221883,37.5708648289158
11410-00053,남가좌동소공원,소공원,402.0,서울특별시 서대문구 남가좌동 388-7,서울특별시 서대문구,서울,서대문구,남가좌동,126.919687933672,37.580709452099
11440-00060,공덕소공원,소공원,1310.0,서울특별시 마포구 공덕동 475-1일대,서울특별시 마포구,서울,마포구,공덕동,126.95464475809,37.5485392502345
11440-00061,만리재소공원,소공원,883.0,서울특별시 마포구 신공덕동 176,서울특별시 마포구,서울,마포구,신공덕동,126.955197405283,37.5444471240148
11440-00062,단풍소공원,소공원,274.0,서울특별시 마포구 공덕동 470-3,서울특별시 마포구,서울,마포구,공덕동,126.953345530955,37.5487269626555
11440-00063,아현새싹소공원,소공원,613.0,서울특별시 마포구 아현동 786,서울특별시 마포구,서울,마포구,아현동,126.95441290981,37.5518468160874
11440-00064,아현초록소공원,소공원,1035.0,서울특별시 마포구 아현동 776,서울특별시 마포구,서울,마포구,아현동,126.95321342975,37.5544027483042
11440-00065,용강나루소공원,소공원,1088.0,서울특별시 마포구 용강동 506,서울특별시 마포구,서울,마포구,용강동,126.942275766343,37.541866638301
11440-00066,용강소공원,소공원,951.0,서울특별시 마포구 용강동 507,서울특별시 마포구,서울,마포구,용강동,126.940310625298,37.5430223645029
11440-00067,대흥소공원,소공원,1820.0,서울특별시 마포구 대흥동 804-4,서울특별시 마포구,서울,마포구,대흥동,126.941191835514,37.5485439483184
11440-00068,복자기소공원,소공원,707.0,서울특별시 마포구 신수동 460,서울특별시 마포구,서울,마포구,신수동,126.936618092525,37.5459157110614
11440-00069,상수나루소공원,소공원,1359.0,서울특별시 마포구 상수동 402-2,서울특별시 마포구,서울,마포구,상수동,126.926339932167,37.5459647077927
11440-00070,상수소공원,소공원,1413.0,서울특별시 마포구 상수동 399,서울특별시 마포구,서울,마포구,상수동,126.927152213353,37.5459380916331
11440-00071,산사나무소공원,소공원,714.0,서울특별시 마포구 상암동 1618-1,서울특별시 마포구,서울,마포구,상암동,126.896302790218,37.5752781449265
11440-00072,현석소공원,소공원,6038.0,서울특별시 마포구 현석동 225-2일대,서울특별시 마포구,서울,마포구,현석동,126.934497800092,37.5429794590284
11440-00073,노고산소공원,소공원,1510.0,서울특별시 마포구 노고산동 57-53,서울특별시 마포구,서울,마포구,노고산동,126.935013025638,37.5550632144851
11440-00076,아소정소공원,소공원,1454.8,서울특별시 마포구 공덕동 479-1,서울특별시 마포구,서울,마포구,공덕동,126.948169438567,37.5454701260202
11440-00077,큰우물소공원,소공원,547.4,서울특별시 마포구 공덕동 479-4,서울특별시 마포구,서울,마포구,공덕동,126.94963933233,37.5455177942072
11440-00078,소금동네소공원,소공원,1217.9,서울특별시 마포구 염리동 532-8,서울특별시 마포구,서울,마포구,염리동,126.946281312655,37.5540968825309
11440-00079,쌍룡산소공원,소공원,885.9,서울특별시 마포구 염리동 533-1,서울특별시 마포구,서울,마포구,염리동,126.950134209425,37.5517494006382
11470-00031,신월2동소공원,소공원,3001.0,서울특별시 양천구 신월2동 1063-3,서울특별시 양천구,서울,양천구,신월동,126.848292942402,37.5176492714149
11500-00141,푸른수명산,소공원,822.9,서울특별시 강서구 화곡동 1091-15,서울특별시 강서구,서울,강서구,화곡동,126.829903113011,37.5443408622157
11500-00142,마곡,소공원,1085.2,서울특별시 강서구 마곡동 737-16,서울특별시 강서구,서울,강서구,마곡동,126.821965003854,37.5675857709433
11500-00143,염창,소공원,1229.2,서울특별시 강서구염창동 309-1,서울특별시 강서구,서울,강서구,염창동,126.870646176254,37.5498075224633
11500-00144,염창2,소공원,272.5,서울특별시 강서구염창동 306-1,서울특별시 강서구,서울,강서구,염창동,126.873863043533,37.5517276952987
11530-00050,와룡,소공원,250010.0,서울특별시 구로구 온수동 155-3,서울특별시 구로구,서울,구로구,온수동,126.821466548002,37.4980832323876
11530-00051,갈매,소공원,320010.0,서울특별시 구로구 온수동 155-4,서울특별시 구로구,서울,구로구,온수동,126.822787343935,37.4966231596191
11530-00052,개봉동과장미,소공원,657.2,서울특별시 구로구 개봉동 345-14,서울특별시 구로구,서울,구로구,개봉동,126.854746801211,37.4881014495782
11530-00053,무궁화,소공원,116600.0,서울특별시 구로구 고척동 341-2,서울특별시 구로구,서울,구로구,고척동,126.865225048936,37.5048935725245
11530-00054,구로동(다울),소공원,243.39,서울특별시 구로구 구로동 1286-1,서울특별시 구로구,서울,구로구,구로동,126.888328397174,37.4925780367629
11530-00055,현화,소공원,720.0,서울특별시 구로구 고척동 342-1,서울특별시 구로구,서울,구로구,고척동,126.860095790417,37.5042735743188
11530-00057,천왕역,소공원,171160.0,서울특별시 구로구 천왕동 13-56,서울특별시 구로구,서울,구로구,천왕동,126.840742707023,37.4841378011389
11530-00058,개명,소공원,541500.0,서울특별시 구로구 개봉동 314-14,서울특별시 구로구,서울,구로구,개봉동,126.848169039556,37.4829294153329
11530-00059,오류동(대체공원),소공원,895.0,서울특별시 구로구 오류동 332-36,서울특별시 구로구,서울,구로구,오류동,126.843011476047,37.4934877033929
11530-00060,연지마을,소공원,431.0,서울특별시 구로구 천왕동 7-36,서울특별시 구로구,서울,구로구,천왕동,126.843714923546,37.4822085677048
11545-00050,도하,소공원,3057.7,서울특별시 금천구 독산동 1149,서울특별시 금천구,서울,금천구,독산동,126.89539774322,37.4587348437482
11545-00051,박미사랑,소공원,2162.6,서울특별시 금천구 시흥동 963-1,서울특별시 금천구,서울,금천구,시흥동,126.90454203217,37.4376298501822
11560-00027,문래소공원,소공원,1954.0,서울특별시 영등포구 문래동6가 25-1,서울특별시 영등포구,서울,영등포구,문래동6가,126.88690246843,37.5197990963467
11560-00028,인스빌1 소공원,소공원,1194.0,서울특별시 영등포구 문래동4가 67-1,서울특별시 영등포구,서울,영등포구,문래동4가,126.888334756758,37.5145053542912
11560-00029,인스빌2 소공원,소공원,1007.0,서울특별시 영등포구 문래동4가 68-1,서울특별시 영등포구,서울,영등포구,문래동4가,126.890581856955,37.5136338442413
11560-00030,꽃담 소공원,소공원,2582.0,서울특별시 영등포구 당산동5가 4-23,서울특별시 영등포구,서울,영등포구,당산동5가,126.90012031996,37.5312013890446
11560-00031,(가칭)신길14재정비촉진구역 소공원,소공원,1732.0,서울특별시 영등포구 신길동 4955-3,서울특별시 영등포구,서울,영등포구,신길동,126.906021964163,37.5043358878726
11560-00032,당산역 소공원,소공원,417.0,서울특별시 영등포구 당산동5가 9-29,서울특별시 영등포구,서울,영등포구,당산동5가,126.900650207485,37.5335379509314
11560-00033,파밀리에 소공원,소공원,395.0,서울특별시 영등포구 대림1동 1124-3,서울특별시 영등포구,서울,영등포구,대림동,126.903374992031,37.4949998724707
11560-00034,도리미 소공원,소공원,1859.0,서울특별시 영등포구 도림동 821-3,서울특별시 영등포구,서울,영등포구,도림동,126.901890676061,37.5094347385124
11560-00035,새말소공원,소공원,1642.0,서울특별시 영등포구 당산동4가 85,서울특별시 영등포구,서울,영등포구,당산동4가,126.897513083163,37.5312857414388
11560-00036,이음소공원,소공원,732.0,서울특별시 영등포구 당산동4가 98-1,서울특별시 영등포구,서울,영등포구,당산동4가,126.902456224037,37.5274877022362
11560-00037,당산나루소공원,소공원,1339.0,서울특별시 영등포구 당산동5가 9-3,서울특별시 영등포구,서울,영등포구,당산동5가,126.900104529658,37.5327765054228
11560-00038,(가칭)모아미래도 소공원,소공원,1505.0,서울특별시 영등포구 문래동5가 67-2,서울특별시 영등포구,서울,영등포구,문래동5가,126.887090958534,37.5165489087588
11560-00039,(가칭)당산4구역 소공원,소공원,396.0,서울특별시 영등포구 당산동4가 99-1,서울특별시 영등포구,서울,영등포구,당산동4가,126.903728905492,37.528841600249
11560-00040,(가칭)신길7재정비촉진구역 소공원,소공원,1024.1,서울특별시 영등포구 신길동 4950-1,서울특별시 영등포구,서울,영등포구,신길동,126.916289092012,37.5012653247112
11560-00041,(가칭)신길11재정비촉진구역 소공원,소공원,1661.4,서울특별시 영등포구 신길동 4945-1,서울특별시 영등포구,서울,영등포구,신길동,126.906645785628,37.5046218209383
11590-00032,비계,소공원,298.4,서울특별시 동작구 흑석동 335-7,서울특별시 동작구,서울,동작구,흑석동,126.96640993958,37.5054542062161
11590-00034,서달,소공원,254.8,서울특별시 동작구 흑석동 339-4,서울특별시 동작구,서울,동작구,흑석동,126.959922907132,37.5011597929691
11590-00036,남성,소공원,924.1,서울특별시 동작구 사당동 1131-17(영아),서울특별시 동작구,서울,동작구,사당동,126.972117688535,37.4849667960347
11590-00037,충효,소공원,1081.8,서울특별시 동작구 본동 494-9,서울특별시 동작구,서울,동작구,본동,126.950072114925,37.5140196869033
11590-00039,빙수골,소공원,822.0,서울특별시 동작구 상도동 296-6,서울특별시 동작구,서울,동작구,상도동,126.932216395275,37.4966935609883
11590-00040,국화원,소공원,757.0,서울특별시 동작구 상도동 529-1 상도두산위브아파트,서울특별시 동작구,서울,동작구,상도동,126.94332525587,37.5046327696867
11590-00041,흐리목,소공원,1869.7,서울특별시 동작구 상도동 531-2,서울특별시 동작구,서울,동작구,상도동,126.953042072563,37.4945044973982
11590-00044,영도,소공원,1737.0,서울특별시 동작구 상도동 535-6,서울특별시 동작구,서울,동작구,상도동,126.941198058276,37.5034329422921
11590-00045,나비,소공원,564.1,서울특별시 동작구 상도동 535-3,서울특별시 동작구,서울,동작구,상도동,126.943512983765,37.5032982903987
11590-00047,흑석,소공원,442.0,서울특별시 동작구 흑석동 186-135,서울특별시 동작구,서울,동작구,흑석동,126.957846460922,37.509162519907
11590-00048,칸나,소공원,241.0,서울특별시 동작구 신대방동 698,서울특별시 동작구,서울,동작구,신대방동,126.904476195421,37.4855793853597
11590-00050,새빛,소공원,1680.0,서울특별시 동작구 사당동 164-1,서울특별시 동작구,서울,동작구,사당동,126.974411235209,37.4873357052391
11620-00014,장군봉,소공원,175.0,서울특별시 관악구 신림동 94-252,서울특별시 관악구,서울,관악구,신림동,126.938992832605,37.4781174804148
11620-00037,연주대,소공원,251.0,서울특별시 관악구 신림동 231-6,서울특별시 관악구,서울,관악구,신림동,126.941985280701,37.4692571935708
11620-00068,미성,소공원,159.0,서울특별시 관악구 신림동 762-2,서울특별시 관악구,서울,관악구,신림동,126.913766143149,37.4771582253693
11620-00070,삼육,소공원,119.0,서울특별시 관악구 봉천동 661-118,서울특별시 관악구,서울,관악구,봉천동,126.934308184794,37.4879706509194
11620-00073,행운동,소공원,401.0,서울특별시 관악구 봉천동 28-82,서울특별시 관악구,서울,관악구,봉천동,126.959755350867,37.4833725013757
11620-00075,까치산,소공원,964.0,서울특별시 관악구 봉천동 1728-2,서울특별시 관악구,서울,관악구,봉천동,126.960375413764,37.4831263751953
11620-00076,남태령제2,소공원,1310.0,서울특별시 관악구 남현동 612-52,서울특별시 관악구,서울,관악구,남현동,126.982157614257,37.471991770649
11620-00077,남현,소공원,1607.0,서울특별시 관악구 남현동 1063-1,서울특별시 관악구,서울,관악구,남현동,126.979277387828,37.4756934610787
11650-00115,꽃마을1,소공원,2440.6,서울특별시 서초구 서초동 1500-6,서울특별시 서초구,서울,서초구,서초동,127.007104519796,37.4904880058339
11650-00116,꽃마을2,소공원,380.7,서울특별시 서초구 서초동 1499-17,서울특별시 서초구,서울,서초구,서초동,127.005637402142,37.4909416521472
11650-00117,잠원,소공원,1500.0,서울특별시 서초구 잠원동 158-1,서울특별시 서초구,서울,서초구,잠원동,127.011874989931,37.5157977720891
11650-00118,잠원성심,소공원,2000.0,서울특별시 서초구 잠원동 161-1,서울특별시 서초구,서울,서초구,잠원동,127.013561426226,37.5178265603911
11650-00119,오솔길,소공원,2802.8,서울특별시 서초구 반포동 30-28,서울특별시 서초구,서울,서초구,반포동,127.014707962638,37.503351605709
11650-00120,달님,소공원,259.5,서울특별시 서초구 방배동 424-30,서울특별시 서초구,서울,서초구,방배동,126.986443634532,37.4835850889221
11650-00121,큰마을,소공원,1964.4,서울특별시 서초구 우면동 669,서울특별시 서초구,서울,서초구,우면동,127.021242550857,37.4669334744091
11650-00122,솔말,소공원,2720.0,서울특별시 서초구 우면동 793,서울특별시 서초구,서울,서초구,우면동,127.02599202965,37.4597466865163
11650-00123,느티나무,소공원,396.0,서울특별시 서초구 염곡동 56-3,서울특별시 서초구,서울,서초구,염곡동,127.054466331745,37.4638601138041
11650-00124,언남,소공원,306.0,서울특별시 서초구 염곡동 53-3,서울특별시 서초구,서울,서초구,염곡동,127.054730503346,37.4638717049006
11650-00125,햇살,소공원,1094.5,서울특별시 서초구 내곡동 184-1,서울특별시 서초구,서울,서초구,염곡동,127.04973673909,37.4613370235126
11650-00129,누에,소공원,1720.0,서울특별시 서초구 잠원동 160-3,서울특별시 서초구,서울,서초구,잠원동,127.008430052991,37.5091712723006
11650-00130,새봄,소공원,1471.8,서울특별시 서초구 방배동 3278-1,서울특별시 서초구,서울,서초구,방배동,127.002358622778,37.4792377540178
11650-00133,우면산트러스트,소공원,4679.0,서울특별시 서초구 서초동 431-5,서울특별시 서초구,서울,서초구,서초동,127.020518322831,37.4822998772805
11680-00050,다솜소공원,소공원,604.1,서울특별시 강남구 역삼동 763-18,서울특별시 강남구,서울,강남구,역삼동,127.047905568593,37.4957745364973
11680-00051,도곡단비소공원,소공원,896.5,서울특별시 강남구 도곡동 539-6,서울특별시 강남구,서울,강남구,도곡동,127.047211091419,37.4939256797477
11680-00052,도곡동 426-9(로덴하우스)소공원,소공원,80.0,서울특별시 강남구 도곡동 462-9,서울특별시 강남구,서울,강남구,도곡동,127.046058780284,37.4856037975832
11680-00053,역삼나들이소공원,소공원,650.0,서울특별시 강남구 역삼동 716-5,서울특별시 강남구,서울,강남구,역삼동,127.050448635241,37.5007249580277
11680-00054,아크로힐스소공원,소공원,800.0,서울특별시 강남구 논현동 276-2,서울특별시 강남구,서울,강남구,논현동,127.039568550289,37.5100010780875
11680-00126,쉼표소공원,소공원,1199.2,서울특별시 강남구 세곡동 549,서울특별시 강남구,서울,강남구,세곡동,127.099833158331,37.4675612218954
11680-00129,역삼미소공원,소공원,576.0,서울특별시 강남구 역삼동 711-5,서울특별시 강남구,서울,강남구,역삼동,127.043988173799,37.5014247386907
11680-00130,도곡햇살소공원,소공원,558.5,서울특별시 강남구 도곡동 538-4,서울특별시 강남구,서울,강남구,도곡동,127.052490738655,37.4957516848425
11680-00133,대치에스케이뷰1 소공원,소공원,302.0,서울특별시 강남구 대치동 1029-2,서울특별시 강남구,서울,강남구,대치동,127.059501797901,37.4957691749051
11680-00134,대치에스케이뷰2 소공원,소공원,481.0,서울특별시 강남구 대치동 1029-3,서울특별시 강남구,서울,강남구,대치동,127.061473645708,37.4960641459688
11680-00135,래미안대치팰리스소공원1,소공원,3845.0,서울특별시 강남구 대치동 1027-1,서울특별시 강남구,서울,강남구,대치동,127.059841507087,37.4943609099649
11680-00136,래미안대치팰리스소공원2,소공원,990.0,서울특별시 강남구 대치동 1028-1,서울특별시 강남구,서울,강남구,대치동,127.061662919314,37.4949292294162
11680-00137,방죽소공원,소공원,5704.0,서울특별시 강남구 율현동 354,서울특별시 강남구,서울,강남구,율현동,127.106618161887,37.4727080825704
11680-00138,솔밭소공원,소공원,692.0,서울특별시 강남구 율현동 431,서울특별시 강남구,서울,강남구,율현동,127.10823407925,37.473807737545
11710-00122,늘푸른,소공원,921.0,서울특별시 송파구 마천동 578,서울특별시 송파구,서울,송파구,마천동,127.15566899616,37.4986084241566
11710-00123,평화,소공원,1651.3,서울특별시 송파구 방이동 42-2,서울특별시 송파구,서울,송파구,방이동,127.111980278302,37.5162596699176
11710-00144,거여2(거마재정비),소공원,1501.0,서울특별시 송파구 마천동 327-7 일대,서울특별시 송파구,서울,송파구,마천동,127.156777501949,37.4910458958034
11710-00145,거여3(거마재정비),소공원,591.0,서울특별시 송파구 마천동 363-2 일대,서울특별시 송파구,서울,송파구,마천동,127.155473355836,37.4948996015075
11710-00146,거여4(거마재정비),소공원,5420.0,서울특별시 송파구 마천동 364-8 일대,서울특별시 송파구,서울,송파구,마천동,127.156246929466,37.4944561869511
11710-00147,거여5(거마재정비),소공원,7682.0,서울특별시 송파구 마천동 276 일대,서울특별시 송파구,서울,송파구,마천동,127.157786728424,37.4911643861029
11710-00148,거여6(거마재정비),소공원,612.0,서울특별시 송파구 마천동 586 일대,서울특별시 송파구,서울,송파구,마천동,127.154845541603,37.4975363186567
11710-00149,문정동136 소공원,소공원,407.5,서울특별시 송파구 문정동 123 일대,서울특별시 송파구,서울,송파구,문정동,127.133288754192,37.487974185318
11710-00150,잠실주공5단지 소공원,소공원,8228.0,서울특별시 송파구 잠실동 27 일원,서울특별시 송파구,서울,송파구,잠실동,127.09298211452,37.5143684588228
11740-00058,암사동공원,소공원,1022.0,서울특별시 강동구 암사동 518-1,서울특별시 강동구,서울,강동구,암사동,127.123303716561,37.5488581264823
11500-00151,가로공원1호,가로공원,2618.5,서울특별시 강서구 마곡동 797-5,서울특별시 강서구,서울,강서구,마곡동,126.83723788757,37.5590800726503
11110-00007,원서공원,근린공원,10004.6,서울특별시 종로구 원서동 181,서울특별시 종로구,서울,종로구,원서동,126.988617833503,37.5783917471587
11110-00008,탑골공원,근린공원,14808.7,서울특별시 종로구 종로2가 38-1,서울특별시 종로구,서울,종로구,종로2가,126.988357675419,37.5711583562702
11110-00010,연지공원,근린공원,2827.6,서울특별시 종로구 연지동 1-38,서울특별시 종로구,서울,종로구,연지동,127.000809861832,37.5757368826025
11110-00011,내수어울공원,근린공원,2392.1,서울특별시 종로구 내수동 71-2,서울특별시 종로구,서울,종로구,내수동,126.970548878427,37.5736083058277
11110-00012,내수공원,근린공원,2192.2,서울특별시 종로구 내수동 73-3,서울특별시 종로구,서울,종로구,내수동,126.971653733704,37.5723736726355
11110-00013,사직공원,근린공원,168099.8,서울특별시 종로구 사직동 1-28,서울특별시 종로구,서울,종로구,사직동,126.967263789945,37.575936511748
11110-00014,월암공원,근린공원,10662.0,서울특별시 종로구 송월동 1-2,서울특별시 종로구,서울,종로구,송월동,126.965745705068,37.5707779755172
11110-00022,삼청공원,근린공원,468348.2,서울특별시 종로구 삼청동 산2-1,서울특별시 종로구,서울,종로구,삼청동,126.982823962243,37.592167680872
11110-00023,와룡공원,근린공원,204369.0,서울특별시 종로구 명륜3가 53-52,서울특별시 종로구,서울,종로구,명륜3가,126.989381438518,37.5894344821271
11110-00024,숭인공원,근린공원,45615.0,서울특별시 종로구 숭인동 58,서울특별시 종로구,서울,종로구,숭인동,127.017547609345,37.576055524349
11110-00026,흥인지문공원,근린공원,11519.7,서울특별시 종로구 종로6가 70,서울특별시 종로구,서울,종로구,종로6가,127.008874226703,37.5723203399466
11110-00027,수송공원,근린공원,3567.2,서울특별시 종로구 수송동 80-7,서울특별시 종로구,서울,종로구,수송동,126.981147699385,37.573845814026
11110-00031,인왕산공원,근린공원,201704.0,서울특별시 종로구 옥인동 179-1,서울특별시 종로구,서울,종로구,옥인동,126.963488360425,37.5830232533011
11110-00033,창덕공원,근린공원,491328.0,서울특별시 종로구 와룡동 2-71,서울특별시 종로구,서울,종로구,와룡동,126.991322772069,37.5827695454415
11110-00034,청진공원,근린공원,2802.0,서울특별시 종로구 청진동 146-3,서울특별시 종로구,서울,종로구,청진동,126.979895558786,37.5714017485799
11110-00035,북한산공원,근린공원,19902.4,서울특별시 종로구 평창동 산6-17,서울특별시 종로구,서울,종로구,평창동,126.980052220663,37.6015383653528
11140-00001,훈련원공원,근린공원,17927.9,서울특별시 중구 을지로5가 40-3,서울특별시 중구,서울,중구,을지로5가,127.003544929278,37.5673947880932
11140-00002,응봉근린공원,근린공원,110176.5,서울특별시 중구 신당동 산 2-6,서울특별시 중구,서울,중구,신당동,127.025005185082,37.5625126682963
11170-00001,효창공원,근린공원,171277.0,서울특별시 용산구 효창동 255,서울특별시 용산구,서울,용산구,효창동,126.960221399119,37.5451826970622
11170-00014,응봉공원,근린공원,187834.0,서울특별시 용산구 한남동 산8-1,서울특별시 용산구,서울,용산구,한남동,127.00505708917,37.5444744360235
11170-00015,동빙고공원,근린공원,55740.0,서울특별시 용산구 용산동6가 69-163,서울특별시 용산구,서울,용산구,용산동6가,126.984311088527,37.5172374912137
11170-00024,서빙고공원,근린공원,11879.0,서울특별시 용산구 용산동5가 24-2,서울특별시 용산구,서울,용산구,용산동5가,126.971257366633,37.5247804846211
11170-00025,기와터공원,근린공원,2225.0,서울특별시 용산구 한강로3가 63-388,서울특별시 용산구,서울,용산구,한강로3가,126.969699880418,37.5257843523983
11200-00002,달맞이,근린공원,63411.43,서울특별시 성동구 금호동4가 산 27,서울특별시 성동구,서울,성동구,금호동4가,127.02144249833,37.5431831772298
11200-00003,무학봉,근린공원,28843.0,서울특별시 성동구 하왕십리동 890-243,서울특별시 성동구,서울,성동구,하왕십리동,127.026985353125,37.5616079020121
11200-00004,금호,근린공원,13467.8,서울특별시 성동구 금호동3가 1266,서울특별시 성동구,서울,성동구,금호동3가,127.018993419483,37.549600601651
11200-00005,용답휴식,근린공원,6046.9,서울특별시 성동구 용답동 128-3,서울특별시 성동구,서울,성동구,용답동,127.04745568427,37.5699942262646
11200-00006,성수,근린공원,5197.7,서울특별시 성동구 성수동2가 302-25,서울특별시 성동구,서울,성동구,성수동2가,127.052421806499,37.5448139376614
11230-00001,청량,근린공원,242864.0,서울특별시 동대문구 청량리동 산1-1,서울특별시 동대문구,서울,동대문구,청량리동,127.04402714382,37.5958125287434
11230-00011,장안,근린공원,14744.8,서울특별시 동대문구 장안동 300,서울특별시 동대문구,서울,동대문구,장안동,127.071410359511,37.5773956410927
11230-00012,장평,근린공원,15698.4,서울특별시 동대문구 장안동 356,서울특별시 동대문구,서울,동대문구,장안동,127.073954648545,37.5671787748874
11230-00017,홍릉,근린공원,102920.0,서울특별시 동대문구 청량리동 산1-145,서울특별시 동대문구,서울,동대문구,청량리동,127.043537625987,37.5895837930767
11230-00018,답십리,근린공원,160720.0,서울특별시 동대문구 답십리동 산2-9,서울특별시 동대문구,서울,동대문구,답십리동,127.063557866963,37.5737600225103
11230-00019,배봉산,근린공원,265582.0,서울특별시 동대문구 전농동 산32-20,서울특별시 동대문구,서울,동대문구,전농동,127.064358844049,37.5806921980698
11230-00028,용두,근린공원,17182.0,서울특별시 동대문구 용두동 34-1,서울특별시 동대문구,서울,동대문구,용두동,127.040095529989,37.573225401116
11230-00029,텃골,근린공원,5282.7,서울특별시 동대문구 전농동 690-1,서울특별시 동대문구,서울,동대문구,전농동,127.051663754651,37.5775798265793
11230-00030,새샘,근린공원,8910.1,서울특별시 동대문구 답십리동 1004-7,서울특별시 동대문구,서울,동대문구,답십리동,127.055204889928,37.5694865698647
11260-00001,용마산근린공원,근린공원,588871.2,서울특별시 중랑구 망우동 산69-1,서울특별시 중랑구,서울,중랑구,망우동,127.106237858773,37.5942580012942
11260-00002,봉화산근린공원,근린공원,556451.3,서울특별시 중랑구 묵동 산 46-19,서울특별시 중랑구,서울,중랑구,묵동,127.086821527038,37.6089928188007
11260-00003,신내공원,근린공원,18698.7,서울특별시 중랑구 신내동 652,서울특별시 중랑구,서울,중랑구,신내동,127.089177841342,37.6137825202342
11260-00004,신내어울공원,근린공원,12915.6,서울특별시 중랑구 신내동 315-5,서울특별시 중랑구,서울,중랑구,신내동,127.098545609049,37.6139605828602
11260-00005,능산공원,근린공원,12350.6,서울특별시 중랑구 신내동 317-2,서울특별시 중랑구,서울,중랑구,신내동,127.097388969284,37.6117825023209
11260-00006,구릉공원,근린공원,25600.7,서울특별시 중랑구 신내동 234,서울특별시 중랑구,서울,중랑구,신내동,127.112341583997,37.6186986244112
11260-00009,청남공원,근린공원,223100.0,서울특별시 중랑구 신내동 산2-45,서울특별시 중랑구,서울,중랑구,신내동,127.110459454946,37.6201198168039
11290-00002,오동,근린공원,233989.7,서울특별시 성북구 하월곡동 산2-1,서울특별시 성북구,서울,성북구,하월곡동,127.042022353943,37.6095493080024
11290-00003,개운산,근린공원,208618.0,서울특별시 성북구 돈암동 산3-15 일대,서울특별시 성북구,서울,성북구,돈암동,127.026327302409,37.6008128083299
11290-00005,모랫말,근린공원,1740.0,서울특별시 성북구 하월곡동 90-206,서울특별시 성북구,서울,성북구,하월곡동,127.032803015956,37.6048655526506
11290-00006,아름드리,근린공원,3782.0,서울특별시 성북구 하월곡동 225-2,서울특별시 성북구,서울,성북구,하월곡동,127.038096943935,37.6098066115327
11290-00007,숭인,근린공원,5332.6,서울특별시 성북구 보문동 6가 458-4,서울특별시 성북구,서울,성북구,보문동6가,127.018116599124,37.5780226694205
11290-00043,길음2구역,근린공원,5207.4,"서울특별시 성북구 길음동 1284, 일대",서울특별시 성북구,서울,성북구,길음동,127.01794878542,37.6075574804896
11290-00044,정릉동,근린공원,5779.1,서울특별시 성북구 정릉동 1021-2,서울특별시 성북구,서울,성북구,정릉동,127.0038379008,37.6187322155734
11290-00051,북악산,근린공원,87616.5,서울특별시 성북동 산 25-52일대,서울특별시 성북구,서울,성북구,성북동,126.987632996635,37.5930040428502
11290-00052,북한산,근린공원,93472.9,서울특별시 정릉동 산12-1,서울특별시 성북구,서울,성북구,정릉동,127.005454903691,37.6229941838061
11290-00053,삼청,근린공원,73.6,서울특별시 성북동 산25-52,서울특별시 성북구,서울,성북구,성북동,126.987632996635,37.5930040428502
11305-00026,오동근린공원,근린공원,1025284.1,서울특별시 강북구 번동 산20-1,서울특별시 강북구,서울,강북구,번동,127.033052305279,37.6292422588766
11305-00045,솔밭근린공원,근린공원,34955.0,서울특별시 강북구 우이동 80,서울특별시 강북구,서울,강북구,우이동,127.011901217642,37.65296173252
11305-00048,북한산근린공원,근린공원,123527.6,서울특별시 강북구 미아동 산108-19,서울특별시 강북구,서울,강북구,미아동,127.008412429346,37.6210804928705
11320-00002,초안산근린공원,근린공원,664905.0,서울특별시 도봉구 창동 산24 초안산근린공원,서울특별시 도봉구,서울,도봉구,창동,127.041384128711,37.6474940352509
11320-00003,쌍문근린공원,근린공원,328018.0,서울특별시 도봉구 쌍문동 산80,서울특별시 도봉구,서울,도봉구,쌍문동,127.028796610408,37.6535418440106
11320-00004,월천근린공원,근린공원,10712.0,서울특별시 도봉구 창동 28,서울특별시 도봉구,서울,도봉구,창동,127.05088353713,37.6475682555549
11350-00003,상  계,근린공원,30479.4,서울특별시 노원구 상계동 620,서울특별시 노원구,서울,노원구,상계동,127.050264880761,37.6686290614896
11350-00005,갈  울,근린공원,9668.9,서울특별시 노원구 상계동 644,서울특별시 노원구,서울,노원구,상계동,127.061035709127,37.6668223794557
11350-00006,원  터,근린공원,10121.4,서울특별시 노원구 상계동753-2,서울특별시 노원구,서울,노원구,상계동,127.065176807244,37.6507770138786
11350-00007,느티울,근린공원,10000.1,서울특별시 노원구 상계동 741,서울특별시 노원구,서울,노원구,상계동,127.057892863866,37.6493361770687
11350-00008,당현천,근린공원,9652.5,서울특별시 노원구 상계동 762-1,서울특별시 노원구,서울,노원구,상계동,127.063428695377,37.6477625563479
11350-00013,양  지,근린공원,10508.1,서울특별시 노원구 중계동 362,서울특별시 노원구,서울,노원구,중계동,127.075591040969,37.6471833559554
11350-00015,골마을,근린공원,9808.1,서울특별시 노원구 하계동 251-8,서울특별시 노원구,서울,노원구,하계동,127.074017526827,37.6386740186113
11350-00016,공릉동,근린공원,11540.0,서울특별시 노원구 공릉동 63,서울특별시 노원구,서울,노원구,공릉동,127.086349084983,37.6206967330434
11350-00017,가재울,근린공원,10483.9,서울특별시 노원구 중계동 515-4,서울특별시 노원구,서울,노원구,중계동,127.066419813429,37.6486394590552
11350-00018,초안산<시공원>,근린공원,950643.0,서울특별시 노원구 월계동 산1,서울특별시 노원구,서울,노원구,월계동,127.050615608395,37.6444788076319
11350-00019,한글비,근린공원,13614.5,서울특별시 노원구 하계동 288-2,서울특별시 노원구,서울,노원구,하계동,127.074221648116,37.6447792299275
11380-00037,북한산,근린공원,60789.0,서울특별시 은평구 불광동 산42-5,서울특별시 은평구,서울,은평구,불광동,126.939998927584,37.6112532357986
11380-00038,봉산,근린공원,173394.2,서울특별시 은평구 구산동 산136-5,서울특별시 은평구,서울,은평구,구산동,126.90324165585,37.6172012942711
11380-00039,서오능,근린공원,58509.5,서울특별시 은평구 진관동 산63-4,서울특별시 은평구,서울,은평구,진관동,126.913579056276,37.6382475283605
11380-00040,불  광,근린공원,118314.2,서울특별시 은평구 불광동 산33-1,서울특별시 은평구,서울,은평구,불광동,126.931016569475,37.6211745138157
11380-00041,백  련,근린공원,205090.9,서울특별시 은평구응암동 산1-27,서울특별시 은평구,서울,은평구,응암동,126.935017371825,37.5996925200025
11380-00042,진  관,근린공원,585480.1,서울특별시 은평구 진관동 산95 일대,서울특별시 은평구,서울,은평구,진관동,126.932619469204,37.6471743658377
11380-00043,향   림,근린공원,202993.0,서울특별시 은평구진관동 산52,서울특별시 은평구,서울,은평구,진관동,126.927957257858,37.6291944413811
11380-00044,신  사,근린공원,71848.1,서울특별시 은평구 신사동 산80-64일대,서울특별시 은평구,서울,은평구,신사동,126.909508912935,37.5913249718017
11380-00046,기 자 촌,근린공원,128953.7,서울특별시 은평구 진관동 106-17,서울특별시 은평구,서울,은평구,진관동,126.914295405743,37.6339412522918
11380-00047,녹번서,근린공원,29945.0,서울특별시 은평구 녹번동 85-1,서울특별시 은평구,서울,은평구,녹번동,126.927222864694,37.6037091812532
11380-00048,녹번동,근린공원,25854.7,서울특별시 은평구 녹번동 산27,서울특별시 은평구,서울,은평구,녹번동,126.932156341166,37.6034489411474
11380-00049,거 북 골,근린공원,43812.6,서울특별시 은평구구산동 산37-4,서울특별시 은평구,서울,은평구,구산동,126.90707249304,37.6100705269331
11380-00050,구  산,근린공원,12445.7,서울특별시 은평구구산동 산48-7,서울특별시 은평구,서울,은평구,구산동,126.907768196036,37.6074341476456
11380-00051,상림,근린공원,4749.8,서울특별시 은평구진관동 5-3,서울특별시 은평구,서울,은평구,진관동,126.929533900461,37.6486907200577
11380-00053,덕수천,근린공원,5569.1,서울특별시 은평구진관동 14-3,서울특별시 은평구,서울,은평구,진관동,126.923966569797,37.6447551911944
11380-00054,마고정,근린공원,4551.6,서울특별시 은평구진관동 101-2,서울특별시 은평구,서울,은평구,진관동,126.919114133264,37.6325201059478
11380-00057,마실길,근린공원,45170.5,서울특별시 은평구진관동 125-22,서울특별시 은평구,서울,은평구,진관동,126.942867269042,37.6411847166565
11410-00002,궁동근린공원,근린공원,126026.0,서울특별시 서대문구 연희동 산118-1,서울특별시 서대문구,서울,서대문구,연희동,126.923934371639,37.5705960804443
11410-00008,백련근린공원,근린공원,993724.0,서울특별시 서대문구 홍은동 산11-313,서울특별시 서대문구,서울,서대문구,홍은동,126.932359094991,37.5915173231346
11410-00026,독립근린공원,근린공원,113021.7,서울특별시 서대문구 현저동 101,서울특별시 서대문구,서울,서대문구,현저동,126.956039075033,37.5744817235807
11410-00029,창천근린공원,근린공원,6322.0,서울특별시 서대문구 창천동 4-55,서울특별시 서대문구,서울,서대문구,창천동,126.940253813938,37.5579181799284
11410-00030,홍제근린공원,근린공원,9888.0,서울특별시 서대문구 홍제동 454-2,서울특별시 서대문구,서울,서대문구,홍제동,126.953047253148,37.5948548185391
11410-00037,중앙근린공원,근린공원,15466.0,서울특별시 서대문구 북가좌동 480,서울특별시 서대문구,서울,서대문구,북가좌동,126.91307953105,37.5748813768452
11440-00002,매봉산공원,근린공원,13137.0,서울특별시 마포구 상암동 1631,서울특별시 마포구,서울,마포구,상암동,126.895580003316,37.5738071751528
11440-00003,구룡공원,근린공원,14287.0,서울특별시 마포구 상암동 1583,서울특별시 마포구,서울,마포구,상암동,126.883694159063,37.5830227791094
11440-00005,부엉이공원,근린공원,17640.0,서울특별시 마포구 상암동1735,서울특별시 마포구,서울,마포구,상암동,126.88353481229,37.5853097921455
11440-00007,쌍룡산공원,근린공원,5791.0,서울특별시 마포구 아현동 768,서울특별시 마포구,서울,마포구,아현동,126.950343556503,37.55296340351
11470-00001,오목,근린공원,21470.4,서울특별시 양천구 목1동 921,서울특별시 양천구,서울,양천구,목동,126.873284854273,37.5280010575491
11470-00003,용왕산,근린공원,213552.0,서울특별시 양천구 목2동 199-51,서울특별시 양천구,서울,양천구,목동,126.87752068543,37.5421447426774
11470-00004,목동,근린공원,13366.0,서울특별시 양천구 목2동 517 외 37,서울특별시 양천구,서울,양천구,목동,126.878713447615,37.5466060080138
11470-00005,달마을,근린공원,35214.0,서울특별시 양천구 목2동 946-1,서울특별시 양천구,서울,양천구,목동,126.868148965734,37.5432564842916
11470-00015,목마,근린공원,12816.8,서울특별시 양천구 목5동 910,서울특별시 양천구,서울,양천구,목동,126.885522688095,37.5381989150464
11470-00046,한울,근린공원,15465.4,서울특별시 양천구 신월7동 956,서울특별시 양천구,서울,양천구,신월동,126.832569716162,37.5199141426632
11470-00047,오솔길,근린공원,18047.2,서울특별시 양천구 신월7동 977,서울특별시 양천구,서울,양천구,신월동,126.83653054767,37.5211293763329
11470-00049,독서,근린공원,19380.8,서울특별시 양천구 신월7동 987,서울특별시 양천구,서울,양천구,신월동,126.834902505163,37.5197429925078
11470-00050,신월,근린공원,33058.0,서울특별시 양천구 신월7동 987-2,서울특별시 양천구,서울,양천구,신월동,126.833832248042,37.5180246318481
11470-00051,곰달래,근린공원,12234.0,서울특별시 양천구 신월7동 904-1,서울특별시 양천구,서울,양천구,신월동,126.832390966122,37.5248287633083
11470-00052,양지,근린공원,9013.4,서울특별시 양천구 신월7동 936,서울특별시 양천구,서울,양천구,신월동,126.830979540327,37.5221949264466
11470-00056,신트리,근린공원,16409.3,서울특별시 양천구 신정1동 310-7,서울특별시 양천구,서울,양천구,신정동,126.856503753534,37.5146108986665
11470-00069,넘은들,근린공원,16159.6,서울특별시 양천구 신정3동 1286,서울특별시 양천구,서울,양천구,신정동,126.840441720931,37.513000383223
11470-00085,양천,근린공원,33797.9,서울특별시 양천구 신정6동 320,서울특별시 양천구,서울,양천구,신정동,126.868162966876,37.5180124391585
11470-00092,갈산,근린공원,139576.0,서울특별시 양천구 신정7동 162-56,서울특별시 양천구,서울,양천구,신정동,126.868518506279,37.5062050924777
11500-00001,우장,근린공원,359435.2,서울특별시 강서구 화곡동 산60-1,서울특별시 강서구,서울,강서구,화곡동,126.843553181181,37.5504023690235
11500-00002,궁산,근린공원,135002.7,서울특별시 강서구 가양동 산4-7,서울특별시 강서구,서울,강서구,가양동,126.840805446203,37.5741611064862
11500-00003,염창,근린공원,112070.0,서울특별시 강서구 염창동 산24-1,서울특별시 강서구,서울,강서구,염창동,126.868791941346,37.5577647064341
11500-00004,꿩고개,근린공원,180000.0,서울특별시 강서구 방화동 산97-1,서울특별시 강서구,서울,강서구,방화동,126.816929402045,37.5781491596109
11500-00005,봉제산,근린공원,917190.0,서울특별시 강서구 화곡동 산1,서울특별시 강서구,서울,강서구,화곡동,126.858825808741,37.540730657679
11500-00006,개화,근린공원,386500.0,서울특별시 강서구 개화동 산17,서울특별시 강서구,서울,강서구,개화동,126.805797363476,37.5880427342845
11500-00007,등마루,근린공원,74299.0,서울특별시 강서구 화곡동 산199,서울특별시 강서구,서울,강서구,화곡동,126.855152179012,37.5525211767719
11500-00008,공암나루,근린공원,25680.4,서울특별시 강서구 가양동 1459-9,서울특별시 강서구,서울,강서구,가양동,126.850343059518,37.5698974637918
11500-00009,구암,근린공원,29843.8,서울특별시 강서구 가양동 1471,서울특별시 강서구,서울,강서구,가양동,126.852659575603,37.5677824992104
11500-00010,황금내,근린공원,22002.9,서울특별시 강서구 가양동 1485-5,서울특별시 강서구,서울,강서구,가양동,126.864444008424,37.5617117447519
11500-00011,원당,근린공원,10096.4,서울특별시 강서구 등촌동 690-5,서울특별시 강서구,서울,강서구,등촌동,126.842029075419,37.559780617624
11500-00012,등촌,근린공원,10051.6,서울특별시 강서구 등촌동 687-4,서울특별시 강서구,서울,강서구,등촌동,126.841769347381,37.5634105621616
11500-00013,서낭당,근린공원,10248.8,서울특별시 강서구 등촌동 706,서울특별시 강서구,서울,강서구,등촌동,126.850018913422,37.5585835222461
11500-00014,방화,근린공원,72132.0,서울특별시 강서구 방화동 855,서울특별시 강서구,서울,강서구,방화동,126.814464335297,37.5808753190034
11500-00015,옹기골,근린공원,9723.6,서울특별시 강서구 방화동 842,서울특별시 강서구,서울,강서구,방화동,126.821001102477,37.5739078508799
11500-00017,까치산,근린공원,27658.0,서울특별시 강서구 화곡동 산162-1,서울특별시 강서구,서울,강서구,화곡동,126.844066778476,37.5367410265095
11500-00018,수명산,근린공원,83807.1,서울특별시 강서구 내발산동 748,서울특별시 강서구,서울,강서구,내발산동,126.827698333601,37.5496185043989
11500-00019,발산,근린공원,17825.5,서울특별시 강서구 내발산동 739,서울특별시 강서구,서울,강서구,내발산동,126.825371400204,37.5549738559793
11500-00140,마곡지구4호,근린공원,35884.0,서울특별시 강서구 마곡동 811-5,서울특별시 강서구,서울,강서구,마곡동,126.836651653557,37.5721800927538
11530-00001,온수(잣절지구),근린공원,7732060.0,서울특별시 구로구 개봉동 45-2,서울특별시 구로구,서울,구로구,개봉동,126.838345252559,37.5020867341653
11530-00002,온수(반달지구),근린공원,152920.0,서울특별시 구로구 오류동 18-141,서울특별시 구로구,서울,구로구,오류동,126.842030650189,37.4995949447057
11530-00003,온수(궁동지구),근린공원,868.0,서울특별시 구로구 오류동 산4,서울특별시 구로구,서울,구로구,오류동,126.837869631507,37.4978808208458
11530-00004,온수(벽산지구),근린공원,2607470.0,서울특별시 구로구 온수동 9-44,서울특별시 구로구,서울,구로구,온수동,126.824468786194,37.4945979566306
11530-00005,온수(온수골지구),근린공원,798530.0,서울특별시 구로구 온수동 산4-25,서울특별시 구로구,서울,구로구,온수동,126.821843962029,37.4941611842705
11530-00006,온수(온수체육지구),근린공원,1741320.0,서울특별시 구로구 온수동 산10-4,서울특별시 구로구,서울,구로구,온수동,126.81966652695,37.4931542500784
11530-00007,고척,근린공원,108120.0,서울특별시 구로구 고척동 산9-14,서울특별시 구로구,서울,구로구,고척동,126.852006942702,37.5059338194411
11530-00008,계남,근린공원,158814.0,서울특별시 구로구 고척동 산8,서울특별시 구로구,서울,구로구,고척동,126.850121566119,37.5092839886885
11530-00009,개웅산,근린공원,411972.0,서울특별시 구로구 개봉동 산53-3,서울특별시 구로구,서울,구로구,개봉동,126.847125950849,37.4869061990194
11530-00010,천왕(시)(천왕골),근린공원,990800.0,서울특별시 구로구 천왕동 173,서울특별시 구로구,서울,구로구,천왕동,126.83412037535,37.482537509559
11530-00011,천왕(시)(항골),근린공원,5203240.0,서울특별시 구로구 항동 147-2,서울특별시 구로구,서울,구로구,항동,126.829090347599,37.4785489661755
11530-00012,천왕(구),근린공원,33677.0,서울특별시 구로구 천왕동 276,서울특별시 구로구,서울,구로구,천왕동,126.841509327117,37.4757168372006
11530-00013,연지,근린공원,44478.0,서울특별시 구로구 천왕동 274-2,서울특별시 구로구,서울,구로구,천왕동,126.837963502929,37.4796591663082
11530-00014,봉화대,근린공원,60975.0,서울특별시 구로구 천왕동 산13-1,서울특별시 구로구,서울,구로구,천왕동,126.84121487012,37.483870116554
11530-00015,구로,근린공원,7901.0,서울특별시 구로구 구로동 102,서울특별시 구로구,서울,구로구,구로동,126.889555987604,37.4969472702116
11530-00016,신도림테크노,근린공원,10482.0,서울특별시 구로구 구로동 3-33,서울특별시 구로구,서울,구로구,구로동,126.890926686339,37.5079895530212
11530-00017,덕의,근린공원,5565.0,서울특별시 구로구 고척동 339-4,서울특별시 구로구,서울,구로구,고척동,126.856274026386,37.5068822597549
11530-00018,항동 2호,근린공원,1442560.0,서울특별시 구로구 항동 76-1,서울특별시 구로구,서울,구로구,항동,126.826832606341,37.4819250898006
11530-00019,항동 3호,근린공원,1254950.0,서울특별시 구로구 항동 산50-2,서울특별시 구로구,서울,구로구,항동,126.815441239068,37.4751248753167
11530-00025,개봉,근린공원,368460.0,서울특별시 구로구 개봉동 492-1,서울특별시 구로구,서울,구로구,개봉동,126.849574071677,37.4995688409359
11530-00061,푸른수목원,근린공원,100809.0,서울특별시 구로구 항동 31,서울특별시 구로구,서울,구로구,항동,126.824051110888,37.4835381089528
11545-00001,감로천생태공원,근린공원,15000.0,서울특별시 금천구 독산동 373,서울특별시 금천구,서울,금천구,독산동,126.90791394038,37.4696150596404
11545-00002,산기슭공원,근린공원,8412.0,서울특별시 금천구 시흥동 산138-3,서울특별시 금천구,서울,금천구,시흥동,126.907415467422,37.4632495683843
11545-00003,금천체육공원,근린공원,18083.0,서울특별시 금천구 독산동 산118-4,서울특별시 금천구,서울,금천구,독산동,126.908534104168,37.468311598807
11545-00004,삼성산시민휴식공원,근린공원,10118.0,서울특별시 금천구 시흥동 산116,서울특별시 금천구,서울,금천구,시흥동,126.910049014631,37.4547875847787
11545-00005,독산자연공원,근린공원,7650.0,서울특별시 금천구 독산동 산89-5,서울특별시 금천구,서울,금천구,독산동,126.907298483001,37.4735892045254
11545-00006,독산근린공원,근린공원,18005.5,서울특별시 금천구 독산동 1086,서울특별시 금천구,서울,금천구,독산동,126.884143444726,37.4636741435755
11545-00007,금천폭포공원,근린공원,4835.2,서울특별시 금천구 시흥동 937-2,서울특별시 금천구,서울,금천구,시흥동,126.904201940369,37.4466512544143
11560-00002,자매근린공원,근린공원,16458.0,서울특별시 영등포구 여의도동 56,서울특별시 영등포구,서울,영등포구,여의도동,126.930460204563,37.5175286381863
11560-00003,문래근린공원,근린공원,23611.0,서울특별시 영등포구 문래동3가 66,서울특별시 영등포구,서울,영등포구,문래동3가,126.894276800137,37.5175008016938
11560-00004,신길근린공원,근린공원,19604.0,서울특별시 영등포구 신길동 341-3,서울특별시 영등포구,서울,영등포구,신길동,126.905894870559,37.5015214964502
11560-00005,당산근린공원,근린공원,11154.0,서울특별시 영등포구 당산동3가 385,서울특별시 영등포구,서울,영등포구,당산동3가,126.895769419966,37.5255122202678
11560-00006,메낙골근린공원,근린공원,17229.0,서울특별시 영등포구 신길동 4934-4,서울특별시 영등포구,서울,영등포구,신길동,126.915259562805,37.507019581411
11560-00021,양화폭포근린공원,근린공원,12404.0,서울특별시 영등포구 양평동 153-2,서울특별시 영등포구,서울,영등포구,양평동,126.89859344396,37.5390436566197
11560-00022,영등포근린공원,근린공원,61544.0,서울특별시 영등포구 영등포동 582-3,서울특별시 영등포구,서울,영등포구,영등포동,126.910733323543,37.5150673504649
11560-00025,중마루근린공원,근린공원,6456.0,서울특별시 영등포구 영등포동2가 222,서울특별시 영등포구,서울,영등포구,영등포동2가,126.911368630536,37.5197916984597
11590-00005,현충,근린공원,1106402.2,서울특별시 동작구 사당동 산24-17,서울특별시 동작구,서울,동작구,사당동,126.974624516111,37.4859101761481
11590-00012,까치산,근린공원,384026.0,서울특별시 동작구 흑석동141-2일대,서울특별시 동작구,서울,동작구,흑석동,126.962880093328,37.510605636072
11590-00024,동작주차,근린공원,42220.0,서울특별시 동작구 동작동 326외 1,서울특별시 동작구,서울,동작구,동작동,126.977896605176,37.5023984508385
11620-00001,상도근린공원,근린공원,87458.0,서울특별시 관악구 봉천동 산 103-52,서울특별시 관악구,서울,관악구,봉천동,126.941786431205,37.4915633755667
11620-00025,장군봉근린공원,근린공원,128100.0,서울특별시 관악구 신림동 산1-1,서울특별시 관악구,서울,관악구,신림동,126.939087814508,37.4786569636841
11620-00047,까치산근린공원,근린공원,64534.0,서울특별시 관악구 봉천동 산66-1,서울특별시 관악구,서울,관악구,봉천동,126.966885806691,37.4779015355386
11650-00008,서리풀,근린공원,465938.3,서울특별시 서초구 방배동 산23-1,서울특별시 서초구,서울,서초구,방배동,127.000419589733,37.4846544620362
11650-00009,방배,근린공원,74847.6,서울특별시 서초구 방배동 산 43-7,서울특별시 서초구,서울,서초구,방배동,126.996005471135,37.4783383224853
11650-00010,말죽거리,근린공원,132020.3,서울특별시 서초구 양재동 산57-34,서울특별시 서초구,서울,서초구,양재동,127.029303948355,37.4792946915203
11650-00011,청계산,근린공원,19622.8,서울특별시 서초구 원지동 421,서울특별시 서초구,서울,서초구,원지동,127.053299727271,37.442561595271
11650-00012,우면산,근린공원,63411.2,서울특별시 서초구 우면동 71,서울특별시 서초구,서울,서초구,우면동,127.029045743109,37.4732123089183
11650-00013,인능산,근린공원,49839.4,서울특별시 서초구 신원동 156-1,서울특별시 서초구,서울,서초구,신원동,127.061333704686,37.4432804032538
11650-00014,용허리,근린공원,4641.9,서울특별시 서초구 서초동 1324-1,서울특별시 서초구,서울,서초구,서초동,127.022940734383,37.4942567076018
11650-00015,명달,근린공원,5466.4,서울특별시 서초구 서초동 1313-17,서울특별시 서초구,서울,서초구,서초동,127.021134499511,37.4982953564724
11650-00016,사평리,근린공원,1913.7,서울특별시 서초구 잠원동 51-3,서울특별시 서초구,서울,서초구,잠원동,127.014759056287,37.5198820556912
11650-00017,잠원,근린공원,2373.5,서울특별시 서초구 잠원동 62-5,서울특별시 서초구,서울,서초구,잠원동,127.010133875882,37.5127575866116
11650-00018,신동,근린공원,6648.4,서울특별시 서초구 잠원동 58-14,서울특별시 서초구,서울,서초구,잠원동,127.014273380018,37.5142548979703
11650-00019,명주,근린공원,4952.6,서울특별시 서초구 잠원동 50-4,서울특별시 서초구,서울,서초구,잠원동,127.015149117809,37.5172083691673
11650-00020,세빛,근린공원,3452.2,서울특별시 서초구 반포동 2-15번지,서울특별시 서초구,서울,서초구,반포동,126.992185568729,37.5048349575133
11650-00021,원촌,근린공원,9941.7,서울특별시 서초구 반포동 20-46,서울특별시 서초구,서울,서초구,반포동,127.010236099616,37.5059359811672
11650-00022,반포,근린공원,26092.2,서울특별시 서초구 반포동 114-3,서울특별시 서초구,서울,서초구,반포동,126.99092921763,37.4988744437927
11650-00023,신반포,근린공원,13606.8,서울특별시 서초구 반포동 18-5,서울특별시 서초구,서울,서초구,반포동,126.998903013817,37.5011521700225
11650-00024,서래골,근린공원,4690.8,서울특별시 서초구 반포동 63-2,서울특별시 서초구,서울,서초구,반포동,127.002983029255,37.5016166060011
11650-00025,도구머리,근린공원,69578.4,서울특별시 서초구 방배동 산75-1,서울특별시 서초구,서울,서초구,방배동,126.988236571944,37.4795473193737
11650-00026,방배동,근린공원,7003.0,서울특별시 서초구 방배동 산102-20,서울특별시 서초구,서울,서초구,방배동,126.985021919159,37.4747106062867
11650-00027,방아다리1,근린공원,2870.8,서울특별시 서초구 양재동 62,서울특별시 서초구,서울,서초구,양재동,127.035588636318,37.4783353729973
11650-00028,방아다리2,근린공원,2934.3,서울특별시 서초구 양재동 72,서울특별시 서초구,서울,서초구,양재동,127.03520162617,37.4780598701507
11650-00029,바우뫼,근린공원,16386.1,서울특별시 서초구 양재동 105,서울특별시 서초구,서울,서초구,양재동,127.034460180092,37.4745665136897
11650-00030,태봉,근린공원,26555.7,서울특별시 서초구 우면동 694,서울특별시 서초구,서울,서초구,우면동,127.022656768819,37.4638610331586
11650-00031,섬들,근린공원,15590.3,서울특별시 서초구 우면동 729,서울특별시 서초구,서울,서초구,우면동,127.025472443984,37.4631038802626
11650-00032,망루,근린공원,56497.1,서울특별시 서초구 우면동 703,서울특별시 서초구,서울,서초구,우면동,127.020474226038,37.4640562301674
11650-00033,송동,근린공원,27472.8,서울특별시 서초구 우면동 777,서울특별시 서초구,서울,서초구,우면동,127.019944951147,37.458788193566
11650-00034,양재천,근린공원,19258.0,서울특별시 서초구 양재동 261-22,서울특별시 서초구,서울,서초구,양재동,127.04170683757,37.4761171586196
11650-00035,마방,근린공원,6546.6,서울특별시 서초구 양재동 237,서울특별시 서초구,서울,서초구,양재동,127.03824015123,37.4725468178804
11650-00036,양재,근린공원,32523.4,서울특별시 서초구 양재동 311,서울특별시 서초구,서울,서초구,양재동,127.042357547618,37.4716629641491
11650-00037,고인돌,근린공원,4579.0,서울특별시 서초구 양재동 390,서울특별시 서초구,서울,서초구,양재동,127.046680483106,37.4713344488785
11680-00001,도산근린공원,근린공원,29816.5,서울특별시 강남구 신사동 649-9,서울특별시 강남구,서울,강남구,신사동,127.035117384097,37.5243907896015
11680-00002,신사근린공원,근린공원,6800.0,서울특별시 강남구 압구정동 422,서울특별시 강남구,서울,강남구,압구정동,127.021476587486,37.5267155800625
11680-00003,대청근린공원,근린공원,14089.1,서울특별시 강남구 일원동 621,서울특별시 강남구,서울,강남구,일원동,127.082653315996,37.4925798275855
11680-00004,늘푸른근린공원,근린공원,11410.3,서울특별시 강남구 일원동 690,서울특별시 강남구,서울,강남구,일원동,127.07745322613,37.4899968297223
11680-00005,개포서근린공원,근린공원,11219.2,서울특별시 강남구 개포동 180,서울특별시 강남구,서울,강남구,개포동,127.063953447669,37.4887584547774
11680-00006,개포동근린공원,근린공원,9705.6,서울특별시 강남구 개포동 182-1,서울특별시 강남구,서울,강남구,개포동,127.068211226043,37.4897836724314
11680-00007,대치근린공원,근린공원,10408.9,서울특별시 강남구 대치동 512,서울특별시 강남구,서울,강남구,대치동,127.069893760153,37.4951124163567
11680-00008,늘벗근린공원,근린공원,19812.3,서울특별시 강남구 대치동 501,서울특별시 강남구,서울,강남구,대치동,127.057159870172,37.4895710417903
11680-00009,독골근린공원,근린공원,10022.9,서울특별시 강남구 도곡동 461,서울특별시 강남구,서울,강남구,도곡동,127.047057084303,37.4851067684218
11680-00010,포이근린공원,근린공원,16811.4,서울특별시 강남구 개포동 1239-21,서울특별시 강남구,서울,강남구,개포동,127.045472658997,37.4802310396597
11680-00011,청룡근린공원,근린공원,9367.0,서울특별시 강남구 개포동 649-1,서울특별시 강남구,서울,강남구,개포동,127.054374933131,37.4856153097922
11680-00012,배밭근린공원,근린공원,11627.2,서울특별시 강남구 개포동 181,서울특별시 강남구,서울,강남구,개포동,127.062356769125,37.4887830047937
11680-00013,학여울근린공원,근린공원,12505.6,서울특별시 강남구 개포동 183-1,서울특별시 강남구,서울,강남구,개포동,127.069021099264,37.4904370631882
11680-00014,청수근린공원,근린공원,17402.0,서울특별시 강남구 청담동 134-13,서울특별시 강남구,서울,강남구,청담동,127.058450878742,37.5232815129768
11680-00015,청담근린공원,근린공원,59347.0,서울특별시 강남구 청담동 66,서울특별시 강남구,서울,강남구,청담동,127.051232687748,37.5210712813721
11680-00016,한티근린공원,근린공원,19200.0,서울특별시 강남구 대치동 212-1,서울특별시 강남구,서울,강남구,대치동,127.06221333276,37.4952543844763
11680-00017,개포근린공원,근린공원,90063.9,서울특별시 강남구 개포동 139,서울특별시 강남구,서울,강남구,개포동,127.066133951051,37.482613279696
11680-00018,달터근린공원,근린공원,232078.2,서울특별시 강남구 개포동 156,서울특별시 강남구,서울,강남구,개포동,127.061055459365,37.4853635483097
11680-00019,대진근린공원,근린공원,13568.4,서울특별시 강남구 개포동 13-1,서울특별시 강남구,서울,강남구,개포동,127.078603507681,37.4955834847639
11680-00020,탄천근린공원,근린공원,10011.0,서울특별시 강남구 수서동 722,서울특별시 강남구,서울,강남구,수서동,127.106322924906,37.4874224524657
11680-00021,한솔근린공원,근린공원,12878.4,서울특별시 강남구 일원동 732,서울특별시 강남구,서울,강남구,일원동,127.078078765039,37.4809894902532
11680-00022,학동근린공원,근린공원,29947.0,서울특별시 강남구 논현동 26,서울특별시 강남구,서울,강남구,논현동,127.025203723398,37.5154898793588
11680-00023,삼성은행나무근린공원,근린공원,1500.0,서울특별시 강남구 삼성동 14,서울특별시 강남구,서울,강남구,삼성동,127.045752452797,37.5165127434207
11680-00024,도곡근린공원,근린공원,254648.0,서울특별시 강남구 도곡동 산31-1,서울특별시 강남구,서울,강남구,도곡동,127.044002076108,37.4894611658449
11680-00025,싸리고개근린공원,근린공원,15072.5,서울특별시 강남구 도곡동 550,서울특별시 강남구,서울,강남구,도곡동,127.036337567702,37.4896282057284
11680-00026,갈매기근린공원,근린공원,7732.0,서울특별시 강남구 압구정동 480,서울특별시 강남구,서울,강남구,압구정동,127.03452011863,37.5313560701548
11680-00027,도성근린공원,근린공원,1988.8,서울특별시 강남구 역삼동 713-15,서울특별시 강남구,서울,강남구,역삼동,127.048832068625,37.5003037863355
11680-00028,송운근린공원,근린공원,1175.0,서울특별시 강남구 역삼동 755-9,서울특별시 강남구,서울,강남구,역삼동,127.049048895484,37.499317184963
11680-00029,언주근린공원,근린공원,1110.8,서울특별시 강남구 역삼동 754-7,서울특별시 강남구,서울,강남구,역삼동,127.047643720399,37.4987053461217
11680-00030,영동근린공원,근린공원,1293.6,서울특별시 강남구 역삼동 755-7,서울특별시 강남구,서울,강남구,역삼동,127.048650573028,37.4980592746595
11680-00031,길섶근린공원,근린공원,1580.6,서울특별시 강남구 역삼동 757-1,서울특별시 강남구,서울,강남구,역삼동,127.048903014818,37.4975885748001
11680-00032,매봉근린공원,근린공원,6146.9,서울특별시 강남구 도곡동 527-7,서울특별시 강남구,서울,강남구,도곡동,127.050395905352,37.4920983831028
11680-00033,봉은근린공원,근린공원,1147.7,서울특별시 강남구 역삼동 754-4,서울특별시 강남구,서울,강남구,역삼동,127.048249944504,37.4979419477401
11680-00034,배꽃근린공원,근린공원,1592.9,서울특별시 강남구 삼성동 11-3,서울특별시 강남구,서울,강남구,삼성동,127.044598551703,37.5162893754737
11680-00035,반달근린공원,근린공원,679.3,서울특별시 강남구 삼성동 7-4,서울특별시 강남구,서울,강남구,삼성동,127.042871940846,37.5162266742463
11680-00036,샘터근린공원,근린공원,1799.5,서울특별시 강남구 삼성동 16-4,서울특별시 강남구,서울,강남구,삼성동,127.047466802,37.5154182485412
11680-00037,학봉근린공원,근린공원,1343.0,서울특별시 강남구 삼성동 50-3,서울특별시 강남구,서울,강남구,삼성동,127.051875802713,37.5129295336643
11680-00038,큰골근린공원,근린공원,1688.1,서울특별시 강남구 대치동 888-3,서울특별시 강남구,서울,강남구,대치동,127.054631715949,37.4938517522042
11680-00039,새뜰근린공원,근린공원,427.6,서울특별시 강남구 역삼동 765-30,서울특별시 강남구,서울,강남구,역삼동,127.051019087244,37.4966025194031
11680-00040,수서제2근린공원,근린공원,44587.5,서울특별시 강남구 수서동 749,서울특별시 강남구,서울,강남구,수서동,127.089364379917,37.4832558192964
11680-00041,수서택지개발(대모산부근),근린공원,11588.6,서울특별시 강남구 일원동 732-3,서울특별시 강남구,서울,강남구,일원동,127.080511548377,37.4809318148166
11680-00042,수서택지개발(광평부근),근린공원,7569.1,서울특별시 강남구 수서동 737-1,서울특별시 강남구,서울,강남구,수서동,127.097119868321,37.4868007518691
11680-00043,세곡동 근린공원1,근린공원,10310.4,서울특별시 강남구 세곡동 525-1,서울특별시 강남구,서울,강남구,세곡동,127.103407120961,37.4603880811121
11680-00045,돌산공원,근린공원,98417.0,서울특별시 강남구 세곡동 산1,서울특별시 강남구,서울,강남구,세곡동,127.111493972823,37.4667167294256
11680-00046,광평공원,근린공원,519782.0,서울특별시 강남구 수서동 산10-1,서울특별시 강남구,서울,강남구,수서동,127.093225474436,37.4881270188254
11680-00117,세천근린공원,근린공원,18856.7,서울특별시 강남구 세곡동 603,서울특별시 강남구,서울,강남구,세곡동,127.095568119182,37.4665736362859
11680-00118,세명근린공원,근린공원,5236.8,서울특별시 강남구 자곡동 625,서울특별시 강남구,서울,강남구,자곡동,127.090439670677,37.469223851016
11680-00119,숲자락근린공원,근린공원,38003.6,서울특별시 강남구 자곡동 615,서울특별시 강남구,서울,강남구,자곡동,127.092915531007,37.4728673274944
11680-00120,못골위근린공원,근린공원,24247.1,서울특별시 강남구 자곡동 608,서울특별시 강남구,서울,강남구,자곡동,127.096886421818,37.474311700698
11680-00121,못골아래근린공웡,근린공원,21560.9,서울특별시 강남구 자곡동 607,서울특별시 강남구,서울,강남구,자곡동,127.097831506788,37.4729951773675
11680-00122,안개근린공원,근린공원,19739.5,서울특별시 강남구 자곡동 647,서울특별시 강남구,서울,강남구,자곡동,127.101974339866,37.4721121989054
11680-00123,해찬솔근린공원,근린공원,12093.0,서울특별시 강남구 자곡동 627,서울특별시 강남구,서울,강남구,자곡동,127.092398562548,37.4703903153505
11710-00001,가락,근린공원,27648.2,서울특별시 송파구 가락동 37,서울특별시 송파구,서울,송파구,가락동,127.124437797251,37.4979538381128
11710-00002,개나리,근린공원,6669.1,서울특별시 송파구 잠실동 44-6,서울특별시 송파구,서울,송파구,잠실동,127.094114564719,37.5076867064596
11710-00003,개롱,근린공원,21544.4,서울특별시 송파구 가락동 195,서울특별시 송파구,서울,송파구,가락동,127.130824172588,37.493700226089
11710-00004,거여,근린공원,16185.1,서울특별시 송파구 거여동 11,서울특별시 송파구,서울,송파구,거여동,127.141458317395,37.4972894731129
11710-00005,건너말,근린공원,11327.8,서울특별시 송파구 가락동 110,서울특별시 송파구,서울,송파구,가락동,127.123947688741,37.491800570033
11710-00007,글샘작은,근린공원,10209.9,서울특별시 송파구 문정동 631,서울특별시 송파구,서울,송파구,문정동,127.121700232019,37.4774120076387
11710-00009,누에머리,근린공원,18607.5,서울특별시 송파구 오금동 110,서울특별시 송파구,서울,송파구,오금동,127.142406134718,37.5030910792504
11710-00010,동산,근린공원,5660.8,서울특별시 송파구 송파동 120,서울특별시 송파구,서울,송파구,송파동,127.114500561713,37.506256200069
11710-00012,마천,근린공원,10962.5,서울특별시 송파구 마천동 11,서울특별시 송파구,서울,송파구,마천동,127.145769033253,37.501658794342
11710-00013,매미,근린공원,8012.3,서울특별시 송파구 잠실동 35-4,서울특별시 송파구,서울,송파구,잠실동,127.088887886198,37.5093641007683
11710-00014,목련,근린공원,8127.4,서울특별시 송파구 오금동 156,서울특별시 송파구,서울,송파구,오금동,127.139167507428,37.49897518255
11710-00015,문정,근린공원,49972.0,서울특별시 송파구 문정동 18-4 외,서울특별시 송파구,서울,송파구,문정동,127.128966800378,37.4865125024037
11710-00016,방이,근린공원,6930.1,서울특별시 송파구 방이동 52,서울특별시 송파구,서울,송파구,방이동,127.113905874258,37.5142862531595
11710-00017,백토,근린공원,10024.1,서울특별시 송파구 오금동 6,서울특별시 송파구,서울,송파구,오금동,127.132581189771,37.5082076069993
11710-00019,뽕나무,근린공원,11704.9,서울특별시 송파구 잠실동 19-3,서울특별시 송파구,서울,송파구,잠실동,127.082036245234,37.5139741800112
11710-00020,삼전,근린공원,6607.6,서울특별시 송파구 삼전동 62-1,서울특별시 송파구,서울,송파구,삼전동,127.092706408302,37.5022525970934
11710-00024,송파,근린공원,6621.2,서울특별시 송파구 송파동 113,서울특별시 송파구,서울,송파구,송파동,127.110001506701,37.5063491342363
11710-00025,송파나루,근린공원,285757.6,"서울특별시 송파구 신천동 32, 잠실동 47",서울특별시 송파구,서울,송파구,신천동,127.105138547809,37.5113239532932
11710-00026,숯내,근린공원,10206.5,서울특별시 송파구 문정동 150-8,서울특별시 송파구,서울,송파구,문정동,127.11061722018,37.4895605649807
11710-00027,아시아,근린공원,66027.8,서울특별시 송파구 잠실동 84,서울특별시 송파구,서울,송파구,잠실동,127.076397521085,37.510269158664
11710-00028,연화,근린공원,14318.2,서울특별시 송파구 문정동 92,서울특별시 송파구,서울,송파구,문정동,127.128880732304,37.4851830693711
11710-00029,오금,근린공원,219167.4,서울특별시 송파구 오금동 51,서울특별시 송파구,서울,송파구,오금동,127.130453032248,37.5024046229492
11710-00030,온조마루,근린공원,6734.2,서울특별시 송파구 신천동 20-1,서울특별시 송파구,서울,송파구,신천동,127.110090106696,37.5199316822072
11710-00031,웃말,근린공원,11098.2,서울특별시 송파구 가락동 21,서울특별시 송파구,서울,송파구,가락동,127.123018054118,37.5023316892837
11710-00032,잠실,근린공원,6613.3,서울특별시 송파구 잠실동 230,서울특별시 송파구,서울,송파구,잠실동,127.083774714988,37.506144673722
11710-00033,장수,근린공원,9949.0,서울특별시 송파구 장지동 846,서울특별시 송파구,서울,송파구,장지동,127.130746658699,37.4806286756699
11710-00034,장지,근린공원,133122.1,서울특별시 송파구 장지동 산 11 외,서울특별시 송파구,서울,송파구,장지동,127.136165542059,37.4899814121246
11710-00035,천마,근린공원,182420.0,서울특별시 송파구 마천동 산 2 외,서울특별시 송파구,서울,송파구,마천동,127.157292163041,37.5006682247205
11710-00036,태양,근린공원,6611.6,서울특별시 송파구 풍납동 389-2,서울특별시 송파구,서울,송파구,풍납동,127.115215661324,37.5254429090682
11710-00037,풍납,근린공원,23746.0,서울특별시 송파구 풍납동 74,서울특별시 송파구,서울,송파구,풍납동,127.121751737592,37.5381770429794
11710-00038,하늘가람,근린공원,6612.0,서울특별시 송파구 신천동 17-10,서울특별시 송파구,서울,송파구,신천동,127.106707758308,37.5194051770394
11710-00039,한양,근린공원,4842.4,서울특별시 송파구 송파동 152,서울특별시 송파구,서울,송파구,송파동,127.115513275335,37.5039970256048
11710-00041,훼밀리,근린공원,10528.6,서울특별시 송파구 문정동 150-5,서울특별시 송파구,서울,송파구,문정동,127.113835772582,37.4906907944568
11710-00042,오금지구 근린공원,근린공원,11488.0,서울특별시 송파구 오금동 106-1 일원,서울특별시 송파구,서울,송파구,오금동,127.140529180282,37.5055418975582
11710-00129,문이,근린공원,20856.2,서울특별시 송파구 문정동 481,서울특별시 송파구,서울,송파구,문정동,127.11370483882,37.4848769892623
11710-00131,위례 근린공원1호,근린공원,200327.0,서울특별시 송파구 거여동 491임 일원,서울특별시 송파구,서울,송파구,거여동,127.144583455348,37.4822236467256
11710-00132,위례 근린공원3호,근린공원,42448.0,서울특별시 송파구 거여동 산26-7임 일원,서울특별시 송파구,서울,송파구,거여동,127.138596146566,37.4903862913834
11710-00134,잠실주공5단지 근린공원,근린공원,10741.0,서울특별시 송파구 잠실동 27 일원,서울특별시 송파구,서울,송파구,잠실동,127.09298211452,37.5143684588228
11710-00152,신천어린이교통,근린공원,12755.5,서울특별시 송파구 신천동 7-15,서울특별시 송파구,서울,송파구,신천동,127.102022716206,37.5159165784861
11740-00002,일자산공원,근린공원,632733.0,서울특별시 강동구 둔촌동 산140,서울특별시 강동구,서울,강동구,둔촌동,127.151356340452,37.5330196344931
11740-00003,명일공원,근린공원,649709.6,서울특별시 강동구 상일동 135,서울특별시 강동구,서울,강동구,상일동,127.163128152914,37.5512497256061
11740-00031,성내공원,근린공원,8929.0,서울특별시 강동구 성내1동 533,서울특별시 강동구,서울,강동구,성내동,127.126708235548,37.529734591151
11740-00032,샛마을공원,근린공원,11467.0,서울특별시 강동구 명일1동 288,서울특별시 강동구,서울,강동구,명일동,127.14710389039,37.5503003119836
11740-00047,원터공원,근린공원,24508.5,서울특별시 강동구 명일2동 37,서울특별시 강동구,서울,강동구,명일동,127.150652851002,37.5532129965652
11740-00048,송림공원,근린공원,11491.0,서울특별시 강동구 고덕동 310,서울특별시 강동구,서울,강동구,고덕동,127.15385486024,37.5556257920114
11740-00049,까치공원,근린공원,19464.8,서울특별시 강동구 고덕1동 493,서울특별시 강동구,서울,강동구,고덕동,127.14971758575,37.5569884621897
11740-00050,두레공원,근린공원,13460.2,서울특별시 강동구 고덕1동 497,서울특별시 강동구,서울,강동구,고덕동,127.152270166558,37.5579987288072
11740-00051,동자공원,근린공원,6416.6,서울특별시 강동구 고덕1동 648,서울특별시 강동구,서울,강동구,고덕동,127.152441303478,37.5597273396652
11740-00052,샘터공원,근린공원,63320.9,서울특별시 강동구 고덕2동 287,서울특별시 강동구,서울,강동구,고덕동,127.159075467841,37.5615475193549
11740-00053,방죽공원,근린공원,87748.6,서울특별시 강동구 고덕2동 296,서울특별시 강동구,서울,강동구,고덕동,127.158083566107,37.5581329952736
11740-00054,동명공원,근린공원,99599.9,서울특별시 강동구 고덕2동 229 외1,서울특별시 강동구,서울,강동구,고덕동,127.164932597739,37.5614676731183
11740-00055,상일공원,근린공원,9704.0,서울특별시 강동구 상일동 188,서울특별시 강동구,서울,강동구,상일동,127.168394426637,37.5475507653787
11740-00059,솔말소공원,근린공원,1108.6,서울특별시 강동구 암사3동 400-1,서울특별시 강동구,서울,강동구,암사동,127.139143656539,37.5564765662045
11740-00060,솜다래공원,근린공원,3993.8,서울특별시 강동구 암사1동 413-4,서울특별시 강동구,서울,강동구,암사동,127.141270029531,37.5536823020089
11740-00061,암사공원,근린공원,7047.0,서울특별시 강동구 암사3동 414-20,서울특별시 강동구,서울,강동구,암사동,127.141720657976,37.5564224146389
11740-00069,강일공원,근린공원,34591.6,서울특별시 강동구 강일동 332-5,서울특별시 강동구,서울,강동구,강일동,127.174504378583,37.569549804543
11380-00076,대조마을마당,기타공원,183.5,서울특별시 은평구 대조 48-42,서울특별시 은평구,서울,은평구,대조동,126.918902820183,37.6105424479823
11380-00077,자투리(녹번)마을마당,기타공원,165.0,서울특별시 은평구 녹번 103-23,서울특별시 은평구,서울,은평구,녹번동,126.926897749635,37.6058922590593
11380-00079,불광동마을마당,기타공원,324.0,서울특별시 은평구 불광 331-106,서울특별시 은평구,서울,은평구,불광동,126.927116809553,37.6187384219202
11380-00080,역촌동마을마당,기타공원,230.1,서울특별시 은평구 역촌 2-108,서울특별시 은평구,서울,은평구,역촌동,126.919502565947,37.6083932786833
11380-00081,갈현동마을마당,기타공원,249.9,서울특별시 은평구 갈현 526-6,서울특별시 은평구,서울,은평구,갈현동,126.910339537052,37.6150202026158
11380-00082,신사2동마을마당,기타공원,175.0,서울특별시 은평구 신사 200-170,서울특별시 은평구,서울,은평구,신사동,126.908124908859,37.5939224526746
11380-00084,응암1동마을마당,기타공원,635.3,서울특별시 은평구 응암 97-17,서울특별시 은평구,서울,은평구,응암동,126.926012816935,37.5999456228579
11380-00086,대조동청사옆마을마당,기타공원,130.3,서울특별시 은평구 대조 214-8,서울특별시 은평구,서울,은평구,대조동,126.920545579504,37.6140837303122
11380-00088,구산동마을공원,기타공원,2811.0,서울특별시 은평구 구산동 340-1,서울특별시 은평구,서울,은평구,구산동,126.908350731654,37.6145675499745
11380-00089,도원극장옆마을마당,기타공원,48.8,서울특별시 은평구 녹번동 74-5,서울특별시 은평구,서울,은평구,녹번동,126.929932299375,37.6015205136147
11380-00090,응암3동마을마당,기타공원,518.0,서울특별시 은평구 응암3동 337-52,서울특별시 은평구,서울,은평구,응암동,126.919630773813,37.5889125032665
11380-00091,구현초교 앞마을마당,기타공원,541.0,서울특별시 은평구 구산동 산41-19,서울특별시 은평구,서울,은평구,구산동,126.906582414813,37.6093616022378
11380-00092,녹번동마을마당,기타공원,754.0,서울특별시 은평구 녹번동 104-7,서울특별시 은평구,서울,은평구,녹번동,126.927616108784,37.6061092997656
11380-00093,연신초교옆마을마당,기타공원,711.0,서울특별시 은평구 불광3동 69,서울특별시 은평구,서울,은평구,불광동,126.928788650651,37.6268263430276
11380-00094,구산동청사앞소공원,기타공원,335.9,서울특별시 은평구 구산동 27-7,서울특별시 은평구,서울,은평구,구산동,126.910257938666,37.6114791656267
11380-00095,구산동마을공원확대,기타공원,157.0,서울특별시 은평구 구산동 345-6,서울특별시 은평구,서울,은평구,구산동,126.907778456997,37.6148999292082
11380-00096,구산초교앞마을마당,기타공원,135.0,서울특별시 은평구 구산동 153-2,서울특별시 은평구,서울,은평구,구산동,126.910036027201,37.6117933516445
11380-00097,팜스퀘어 소공원,기타공원,268.8,서울특별시 은평구 대조동 240-3,서울특별시 은평구,서울,은평구,대조동,126.929379318226,37.6090833630399
11380-00098,신사2동 공공공지,기타공원,1848.0,서울특별시 은평구 신사2동 163-51,서울특별시 은평구,서울,은평구,신사동,126.908224995108,37.5900582670003
11380-00099,오손길마을마당,기타공원,139.0,서울특별시 은평구 응암동 365-30,서울특별시 은평구,서울,은평구,응암동,126.918266471374,37.591872586759
11380-00100,평화공원,기타공원,5700.1,서울특별시 은평구 녹번동 153-1,서울특별시 은평구,서울,은평구,녹번동,126.923140000525,37.6053518906412
11380-00101,물빛공원,기타공원,2051.0,서울특별시 은평구 갈현동 397,서울특별시 은평구,서울,은평구,갈현동,126.920853043578,37.6189326042759
11110-00021,마로니에공원,문화공원,5802.0,서울특별시 종로구 동숭동 1-124,서울특별시 종로구,서울,종로구,동숭동,127.002711409252,37.5804820301789
11140-00037,순화문화공원,문화공원,2102.5,서울특별시 중구 순화동 216-2,서울특별시 중구,서울,중구,순화동,126.971578135641,37.5601095676804
11140-00038,명동문화공원,문화공원,2117.0,서울특별시 중구 저동1가 91-2,서울특별시 중구,서울,중구,저동1가,126.986918137574,37.5647431159588
11140-00039,남대문로5가문화공원,문화공원,1576.2,서울특별시 중구 남대문로5가 831-1,서울특별시 중구,서울,중구,남대문로5가,126.975080920951,37.5574962059163
11170-00004,청파문화공원,문화공원,4296.4,서울특별시 용산구 서계동 226-3,서울특별시 용산구,서울,용산구,서계동,126.96826450577,37.5535490119483
11305-00055,우이동가족캠핑장,문화공원,11561.0,서울특별시 강북구 우이동 316,서울특별시 강북구,서울,강북구,우이동,127.011431097535,37.6658501424475
11350-00118,한무리,문화공원,1963.7,서울특별시 노원구 공릉동 481-2,서울특별시 노원구,서울,노원구,공릉동,127.073517625413,37.6305998807902
11410-00001,창천문화공원,문화공원,2326.9,서울특별시 서대문구 창천동 57-18,서울특별시 서대문구,서울,서대문구,창천동,126.935520675591,37.5568207080743
11410-00004,대현문화공원,문화공원,3063.9,서울특별시 서대문구 대현동 146,서울특별시 서대문구,서울,서대문구,대현동,126.94548718575,37.5576755508256
11440-00080,밤섬문화공원,문화공원,1638.0,서울특별시 마포구 신정동 76-1,서울특별시 마포구,서울,마포구,신정동,126.931887225643,37.54284103018
11440-00081,서강나루문화공원,문화공원,2429.0,서울특별시 마포구 창전동 165-5,서울특별시 마포구,서울,마포구,창전동,126.931088833903,37.5452727242542
11440-00082,당인동문화공원,문화공원,301.0,서울특별시 마포구 당인동 27-9,서울특별시 마포구,서울,마포구,당인동,126.920123468675,37.5453978123065
11440-00083,가온문화공원,문화공원,4631.0,서울특별시 마포구 상암동 1594,서울특별시 마포구,서울,마포구,상암동,126.887624489057,37.5818462852626
11440-00084,DMC문화공원,문화공원,3829.0,서울특별시 마포구 상암동 1611,서울특별시 마포구,서울,마포구,상암동,126.892362257537,37.5780575178823
11440-00087,홍익문화공원,문화공원,2230.0,서울특별시 마포구 서교동 359,서울특별시 마포구,서울,마포구,서교동,126.923324015073,37.5522650915886
11470-00014,파리,문화공원,29619.3,서울특별시 양천구 목5동 906,서울특별시 양천구,서울,양천구,목동,126.877023696848,37.5347848605796
11500-00145,탑산(가양동),문화공원,3783.8,서울특별시 강서구가양동 1499,서울특별시 강서구,서울,강서구,가양동,126.846316233651,37.5662173125244
11500-00146,새개,문화공원,3836.6,서울특별시 강서구마곡동 800-7,서울특별시 강서구,서울,강서구,마곡동,126.830125210061,37.5582649231446
11500-00147,놋다리,문화공원,2574.7,서울특별시 강서구마곡동 790-6,서울특별시 강서구,서울,강서구,마곡동,126.836313904966,37.5619733347606
11500-00148,똘고랑,문화공원,3089.9,서울특별시 강서구 마곡동 756-4,서울특별시 강서구,서울,강서구,마곡동,126.827907242805,37.5707256283611
11500-00149,선두암,문화공원,2581.3,서울특별시 강서구 마곡동 778-4,서울특별시 강서구,서울,강서구,마곡동,126.838209075956,37.5672964144181
11530-00021,대성디큐브시티,문화공원,3322.0,서울특별시 구로구 신도림동 692-1,서울특별시 구로구,서울,구로구,신도림동,126.890182242837,37.5093079336703
11530-00022,오류역,문화공원,7510.0,서울특별시 구로구 오류동 299-29,서울특별시 구로구,서울,구로구,오류동,126.845521862955,37.4946320468431
11530-00023,고척,문화공원,373300.0,서울특별시 구로구 고척동 100,서울특별시 구로구,서울,구로구,고척동,126.858571081056,37.4981309575889
11545-00049,금나래중앙,문화공원,16331.3,서울특별시 금천구 독산동 1151,서울특별시 금천구,서울,금천구,독산동,126.89511127007,37.4577269879886
11545-00052,독산,문화공원,1011.1,서울특별시 금천구 독산동 1160-2,서울특별시 금천구,서울,금천구,독산동,126.892688869463,37.4639172863938
11620-00057,도덕,문화공원,394.0,서울특별시 관악구 신림동 241-13,서울특별시 관악구,서울,관악구,신림동,126.938151653021,37.4693835531554
11680-00049,역삼문화공원,문화공원,33974.9,서울특별시 강남구 역삼동 635,서울특별시 강남구,서울,강남구,역삼동,127.029974397827,37.5022483202241
11650-00134,우면,수변공원,21609.1,서울특별시 서초구 우면동 749,서울특별시 서초구,서울,서초구,우면동,127.015252925275,37.4558724945825
11650-00135,신원천,수변공원,11854.0,서울특별시 서초구 내곡동 139,서울특별시 서초구,서울,서초구,신원동,127.062672213717,37.4413529710437
11650-00136,청계산,수변공원,98587.0,서울특별시 서초구 신원동 482-2,서울특별시 서초구,서울,서초구,신원동,127.052424073071,37.4543939212677
11680-00125,물굽이공원,수변공원,3713.3,서울특별시 강남구 세곡동 537,서울특별시 강남구,서울,강남구,세곡동,127.093985402803,37.4652660069861
11110-00019,경희궁공원,역사공원,100930.0,서울특별시 종로구 신문로2가 2-1,서울특별시 종로구,서울,종로구,신문로2가,126.968856070517,37.5708963268069
11110-00020,동묘공원,역사공원,8450.0,서울특별시 종로구 숭인동 238-1,서울특별시 종로구,서울,종로구,숭인동,127.018327513118,37.5729759861035
11110-00041,도렴공원,역사공원,832.8,서울특별시 종로구 신문로1가 240-2,서울특별시 종로구,서울,종로구,신문로1가,126.97396441521,37.570888373751
11110-00042,공평공원,역사공원,219.9,서울특별시 종로구 인사동 275,서울특별시 종로구,서울,종로구,인사동,126.985513133738,37.5712155249752
11140-00034,서소문역사공원,역사공원,21363.0,서울특별시 중구 의주로2가 16-2,서울특별시 중구,서울,중구,의주로2가,126.969811193234,37.56087650812
11140-00035,한빛미디어파크,역사공원,2105.7,서울특별시 중구 삼각동 118,서울특별시 중구,서울,중구,삼각동,126.985068674512,37.5680485606302
11140-00036,정동역사공원,역사공원,8160.0,서울특별시 중구 정동 15-1,서울특별시 중구,서울,중구,정동,126.971358818434,37.5680230552622
11170-00009,신계공원,역사공원,15000.0,서울특별시 용산구 신계동 55,서울특별시 용산구,서울,용산구,신계동,126.966412226616,37.5354289535223
11170-00042,이태원부군당,역사공원,2020.0,서울특별시 용산구 이태원동 191-3,서울특별시 용산구,서울,용산구,이태원동,126.989731728112,37.5360341608823
11170-00043,이봉창역사공원,역사공원,484.4,서울특별시 용산구 효창동 286-7,서울특별시 용산구,서울,용산구,효창동,126.960830519767,37.5400070186308
11230-00036,선농단,역사공원,3933.0,서울특별시 동대문구 제기동 274-1,서울특별시 동대문구,서울,동대문구,제기동,127.032103645221,37.5809954969672
11440-00088,양화진역사공원,역사공원,4804.0,서울특별시 마포구 합정동 139-21 일대,서울특별시 마포구,서울,마포구,합정동,126.911080423128,37.5457901310441
11560-00042,아크로타워 역사공원,역사공원,2962.0,서울특별시 영등포구 영등포동7가 205-1,서울특별시 영등포구,서울,영등포구,영등포동7가,126.90775703419,37.5225741122588
11680-00048,봉은역사공원,역사공원,75635.7,서울특별시 강남구 삼성동 75,서울특별시 강남구,서울,강남구,삼성동,127.055491837043,37.5139124172416
11710-00154,방이동고분,역사공원,30293.7,서울특별시 송파구 방이동 125,서울특별시 송파구,서울,송파구,방이동,127.11809126512,37.5079306958477
11710-00155,백제초기적석총,역사공원,45137.8,서울특별시 송파구 석촌동 248,서울특별시 송파구,서울,송파구,석촌동,127.102279625209,37.5019279928974
11380-00072,제각말문화공원 (은평뉴타운제2호 문화공원),주제공원,55721.8,서울특별시 은평구 진관동 135-26,서울특별시 은평구,서울,은평구,진관동,126.937354173935,37.6399514435891
11140-00033,손기정체육공원,체육공원,29682.2,서울특별시 중구 만리동2가 6-1,서울특별시 중구,서울,중구,만리동2가,126.964583684813,37.5555977351091
11320-00049,다락원 체육공원,체육공원,49830.0,서울특별시 도봉구 도봉동 8번지,서울특별시 도봉구,서울,도봉구,도봉동,127.04680966238,37.6917073351519
11350-00012,노  해,체육공원,34646.8,서울특별시 노원구 중계동 360-18,서울특별시 노원구,서울,노원구,중계동,127.071093498316,37.6486649359111
11530-00024,항동,체육공원,1281300.0,서울특별시 구로구 항동 162,서울특별시 구로구,서울,구로구,항동,126.821619280825,37.4765614712021
11650-00137,서초종합,체육공원,20923.0,서울특별시 서초구 원지동 28번지,서울특별시 서초구,서울,서초구,원지동,127.041683665073,37.4590217440816
11110-00001,참샘골공원,어린이공원,2737.0,서울특별시 종로구 평창동 470,서울특별시 종로구,서울,종로구,평창동,126.974605479822,37.6151144204213
11110-00002,감나무골공원,어린이공원,2403.0,서울특별시 종로구 평창동 495-4,서울특별시 종로구,서울,종로구,평창동,126.9703230111,37.6127522001677
11110-00003,옥인공원,어린이공원,472.1,서울특별시 종로구 옥인동 187-2,서울특별시 종로구,서울,종로구,옥인동,126.962355645976,37.5823438187616
11110-00004,명륜공원,어린이공원,1149.5,서울특별시 종로구 명륜1가 23-9,서울특별시 종로구,서울,종로구,명륜1가,126.998102160224,37.5880821942834
11110-00005,새마을공원,어린이공원,397.0,서울특별시 종로구 평창동 327-1,서울특별시 종로구,서울,종로구,평창동,126.964640680465,37.6064397448283
11110-00006,인왕공원,어린이공원,1745.8,서울특별시 종로구 무악동 55-1,서울특별시 종로구,서울,종로구,무악동,126.956993471454,37.5774532844918
11110-00009,연지1공원,어린이공원,474.2,서울특별시 종로구 연지동 136-92,서울특별시 종로구,서울,종로구,연지동,127.001043379868,37.5741646450856
11110-00015,경학공원,어린이공원,3269.0,서울특별시 종로구 명륜3가 53-2,서울특별시 종로구,서울,종로구,명륜3가,126.996524106532,37.5846789279355
11110-00028,지봉골공원,어린이공원,2508.0,서울특별시 종로구 창신동 산6-25,서울특별시 종로구,서울,종로구,창신동,127.014621370826,37.5788767559093
11110-00029,낙산공원,어린이공원,660.0,서울특별시 종로구 창신동 611-19,서울특별시 종로구,서울,종로구,창신동,127.009897843694,37.5797115669013
11110-00030,창신공원,어린이공원,710.0,서울특별시 종로구 창신동 23-362,서울특별시 종로구,서울,종로구,창신동,127.012957736088,37.5780430801884
11110-00032,무악공원,어린이공원,5136.0,서울특별시 종로구 무악동 산2-83,서울특별시 종로구,서울,종로구,무악동,126.960571028837,37.5774516504458
11110-00043,신문로공원,어린이공원,665.0,서울특별시 종로구 신문로2가 160-1,서울특별시 종로구,서울,종로구,신문로2가,126.972410446575,37.5690582793672
11140-00021,묵정어린이공원,어린이공원,3907.4,서울특별시 중구 충무로5가 21,서울특별시 중구,서울,중구,충무로5가,126.999800113588,37.5637804953142
11140-00023,황학어린이공원,어린이공원,1087.0,서울특별시 중구 황학동 755,서울특별시 중구,서울,중구,황학동,127.018124132041,37.56753166289
11140-00024,배재어린이공원,어린이공원,2877.0,서울특별시 중구 정동 34-31,서울특별시 중구,서울,중구,정동,126.972344618613,37.5643280355028
11140-00025,청구어린이공원,어린이공원,1655.7,서울특별시 중구 청구동 842-1,서울특별시 중구,서울,중구,신당동,127.013812614608,37.5556235924615
11140-00027,다산어린이공원,어린이공원,3678.6,서울특별시 중구 신당5동 123-1,서울특별시 중구,서울,중구,신당동,127.018754145459,37.5638748719665
11140-00028,늘푸른어린이공원,어린이공원,423.0,서울특별시 중구 다산동 432-917,서울특별시 중구,서울,중구,신당동,127.005677916317,37.5510895411173
11140-00029,저동어린이공원,어린이공원,1050.0,서울특별시 중구 저동1가 1-14,서울특별시 중구,서울,중구,저동1가,126.988191602652,37.564784786122
11140-00030,꿈누리어린이공원,어린이공원,2568.7,서울특별시 중구 신당동 851-9,서울특별시 중구,서울,중구,신당동,127.020519752255,37.5606345044677
11140-00031,동화어린이공원,어린이공원,3070.9,서울특별시 중구 신당동 852-4,서울특별시 중구,서울,중구,신당동,127.018131314772,37.5602724243742
11140-00032,순화어린이공원,어린이공원,1457.8,서울특별시 중구 순화동 217-6,서울특별시 중구,서울,중구,순화동,126.971268079546,37.5634947172247
11170-00002,새나라어린이공원,어린이공원,2340.0,서울특별시 용산구 후암동 190-1,서울특별시 용산구,서울,용산구,후암동,126.976553297973,37.5478979950964
11170-00003,늘푸른어린이공원,어린이공원,2300.0,서울특별시 용산구 원효로3가 1-139,서울특별시 용산구,서울,용산구,원효로3가,126.956761695282,37.5348257479928
11170-00005,동자어린이공원,어린이공원,712.0,서울특별시 용산구 동자동 24-11,서울특별시 용산구,서울,용산구,동자동,126.973844557684,37.5501160451344
11170-00006,이태원어린이공원,어린이공원,2858.0,서울특별시 용산구 이태원동 286-1,서울특별시 용산구,서울,용산구,이태원동,126.989331769914,37.5383754651509
11170-00007,새꿈어린이공원,어린이공원,1828.0,서울특별시 용산구 동자동 8,서울특별시 용산구,서울,용산구,동자동,126.974480849225,37.5525477083465
11170-00008,돌모루어린이공원,어린이공원,3447.0,서울특별시 용산구 청파동3가 118-102,서울특별시 용산구,서울,용산구,청파동3가,126.96845718281,37.5429311541513
11170-00010,소월길어린이공원,어린이공원,1630.0,서울특별시 용산구 이태원동 463,서울특별시 용산구,서울,용산구,이태원동,126.989245030342,37.5435791819445
11170-00012,새싹어린이공원,어린이공원,480.0,서울특별시 용산구 이촌동 206-1,서울특별시 용산구,서울,용산구,이촌동,126.954465183252,37.5269305814871
11170-00013,삼각지어린이공원,어린이공원,803.0,서울특별시 용산구 용산동3가 1-96,서울특별시 용산구,서울,용산구,용산동3가,126.975427796901,37.5344281795033
11170-00016,두텁바위어린이공원,어린이공원,2623.0,서울특별시 용산구 동자동 50,서울특별시 용산구,서울,용산구,동자동,126.972940343926,37.5520579431867
11170-00017,효창어린이공원,어린이공원,525.0,서울특별시 용산구 효창동 5-712,서울특별시 용산구,서울,용산구,효창동,126.958556351011,37.5428088020707
11170-00020,도원어린이공원,어린이공원,1500.0,서울특별시 용산구 도원동 21,서울특별시 용산구,서울,용산구,도원동,126.954778585981,37.5371840048933
11170-00022,솔밭어린이공원,어린이공원,2090.0,서울특별시 용산구 한강로1가 30-3,서울특별시 용산구,서울,용산구,한강로1가,126.973661013213,37.5372230630011
11170-00023,신창동어린이공원,어린이공원,257.0,서울특별시 용산구 신창동 100,서울특별시 용산구,서울,용산구,신창동,126.954092320353,37.5366901720856
11170-00026,문배어린이공원,어린이공원,842.0,서울특별시 용산구 문배동 24-1,서울특별시 용산구,서울,용산구,문배동,126.969804679502,37.536625046934
11170-00027,서계가로어린이공원,어린이공원,183.0,서울특별시 용산구 서계동 276-7,서울특별시 용산구,서울,용산구,서계동,126.96424780625,37.5512903232924
11170-00028,후암어린이공원,어린이공원,182.0,서울특별시 용산구 후암동 406-80,서울특별시 용산구,서울,용산구,후암동,126.983703133631,37.5472045282327
11170-00046,한마음어린이공원,어린이공원,2998.5,서울특별시 용산구 용산동5가 30-4,서울특별시 용산구,서울,용산구,용산동5가,126.969675733583,37.5284242819086
11200-00007,성원,어린이공원,982.5,서울특별시 성동구 성수동1가 13-21,서울특별시 성동구,서울,성동구,성수동1가,127.050059293384,37.550205548376
11200-00008,동마장,어린이공원,1090.9,서울특별시 성동구 마장동 780-1,서울특별시 성동구,서울,성동구,마장동,127.045774281479,37.5661115088528
11200-00009,응봉새말,어린이공원,311.0,서울특별시 성동구 응봉동 228-23,서울특별시 성동구,서울,성동구,응봉동,127.035811041166,37.5517645008118
11200-00010,사근,어린이공원,496.0,서울특별시 성동구 사근동 291-10,서울특별시 성동구,서울,성동구,사근동,127.047595037878,37.5634278025726
11200-00011,마장,어린이공원,911.0,서울특별시 성동구 마장동 399-102,서울특별시 성동구,서울,성동구,마장동,127.041347643678,37.562177860812
11200-00012,성삼,어린이공원,1812.2,서울특별시 성동구 성수동2가 273-11,서울특별시 성동구,서울,성동구,성수동2가,127.060192025581,37.5420599320005
11200-00013,은행나무터,어린이공원,675.4,서울특별시 성동구 성수동2가 316-9,서울특별시 성동구,서울,성동구,성수동2가,127.053506089722,37.5437199986362
11200-00014,아남,어린이공원,984.1,서울특별시 성동구 성수동2가 280-12,서울특별시 성동구,서울,성동구,성수동2가,127.064725050148,37.5469004950536
11200-00015,열림,어린이공원,198.0,서울특별시 성동구 성수2가1동 327-3,서울특별시 성동구,서울,성동구,성수동2가,127.056792902519,37.5395189042429
11200-00016,응봉개나리,어린이공원,462.0,서울특별시 성동구 응봉동 270,서울특별시 성동구,서울,성동구,응봉동,127.031946423097,37.5484623692299
11200-00017,서마장,어린이공원,350.3,서울특별시 성동구 마장동 450-67,서울특별시 성동구,서울,성동구,마장동,127.03733459113,37.5716685763073
11200-00018,송정,어린이공원,236.4,서울특별시 성동구 송정동 90-4,서울특별시 성동구,서울,성동구,송정동,127.070512761911,37.555198707323
11200-00019,미소,어린이공원,3411.0,서울특별시 성동구 하왕십리동 1055,서울특별시 성동구,서울,성동구,하왕십리동,127.023454234125,37.5600171355306
11200-00020,응삼,어린이공원,1646.7,서울특별시 성동구 응봉동 15-1,서울특별시 성동구,서울,성동구,응봉동,127.035202079802,37.5546400386721
11200-00021,상원,어린이공원,2636.0,서울특별시 성동구 성수동1가 715-1,서울특별시 성동구,서울,성동구,성수동1가,127.047231343973,37.5476017463657
11200-00022,보람,어린이공원,823.3,서울특별시 성동구 마장동 827,서울특별시 성동구,서울,성동구,마장동,127.038749650326,37.5661526761674
11200-00023,무지개,어린이공원,2143.0,서울특별시 성동구 성수동2가 844,서울특별시 성동구,서울,성동구,성수동2가,127.052940910086,37.5418459041508
11200-00024,도선,어린이공원,2332.5,서울특별시 성동구 홍익동 370,서울특별시 성동구,서울,성동구,홍익동,127.031569056104,37.5654368108638
11200-00025,살구골,어린이공원,1573.9,서울특별시 성동구 행당동 376-3,서울특별시 성동구,서울,성동구,행당동,127.031824257819,37.5552350251859
11200-00026,금동,어린이공원,2591.0,서울특별시 성동구 금호동2가 1218,서울특별시 성동구,서울,성동구,금호동2가,127.025609517623,37.5497405385392
11200-00027,푸른,어린이공원,1681.8,서울특별시 성동구 금호동4가 235-3,서울특별시 성동구,서울,성동구,금호동4가,127.023525311511,37.5470567168397
11200-00028,청계꿈나무,어린이공원,1705.0,서울특별시 성동구 하왕십리동 1068,서울특별시 성동구,서울,성동구,하왕십리동,127.027804681509,37.5676960135892
11200-00029,논골새싹,어린이공원,2837.1,서울특별시 성동구 행당동 347-2,서울특별시 성동구,서울,성동구,행당동,127.025047459183,37.5569335960045
11200-00030,꽃재,어린이공원,2810.0,서울특별시 성동구 하왕십리동 1069,서울특별시 성동구,서울,성동구,하왕십리동,127.028332528521,37.5674849649863
11200-00031,전관원,어린이공원,4760.0,서울특별시 성동구 행당동 90-2,서울특별시 성동구,서울,성동구,행당동,127.039897091388,37.5541264184471
11200-00044,견우,어린이공원,1500.0,서울특별시 성동구 상왕십리동 816-3,서울특별시 성동구,서울,성동구,상왕십리동,127.024813055156,37.5664370880645
11200-00045,직녀,어린이공원,1500.0,서울특별시 성동구 하왕십리동 1070-5,서울특별시 성동구,서울,성동구,하왕십리동,127.02790736352,37.5668313036827
11215-10510,성화공원,어린이공원,253.0,서울특별시 광진구 자양동 199-4,서울특별시 광진구,서울,광진구,자양동,127.061828588686,37.5362035775298
11215-10511,양마장공원,어린이공원,1113.0,서울특별시 광진구 자양동 689-6,서울특별시 광진구,서울,광진구,자양동,127.088671308575,37.5308857057355
11215-10512,자양공원,어린이공원,494.8,서울특별시 광진구 자양동 792-1,서울특별시 광진구,서울,광진구,자양동,127.069833152011,37.5335986474303
11215-10513,가중나무공원,어린이공원,971.6,서울특별시 광진구 화양동 32-1,서울특별시 광진구,서울,광진구,화양동,127.067901334171,37.5463841508625
11215-10514,한아름공원,어린이공원,936.2,서울특별시 광진구 화양동 12-55,서울특별시 광진구,서울,광진구,화양동,127.070550346167,37.5444045446597
11215-10515,햇님공원,어린이공원,1002.3,서울특별시 광진구 화양동 45-3,서울특별시 광진구,서울,광진구,화양동,127.066882903116,37.5427173051521
11215-10516,화양공원,어린이공원,996.4,서울특별시 광진구 화양동 8-36,서울특별시 광진구,서울,광진구,화양동,127.069681700719,37.5415490726089
11215-10517,남일공원,어린이공원,238.0,서울특별시 광진구 군자동 159-1,서울특별시 광진구,서울,광진구,군자동,127.073709994641,37.555986208603
11215-10518,군자공원,어린이공원,642.0,서울특별시 광진구 군자동 115-1,서울특별시 광진구,서울,광진구,군자동,127.072871167861,37.554379620052
11215-10519,중곡공원,어린이공원,995.7,서울특별시 광진구 중곡동 232-44,서울특별시 광진구,서울,광진구,중곡동,127.079237322657,37.5646579652202
11215-10520,배나무터공원,어린이공원,971.9,서울특별시 광진구 중곡동 695,서울특별시 광진구,서울,광진구,중곡동,127.080256698288,37.5684664162558
11215-10521,해오름공원,어린이공원,840.0,서울특별시 광진구 중곡동 100-16,서울특별시 광진구,서울,광진구,중곡동,127.092081930998,37.5568450248114
11215-10522,한마음공원,어린이공원,897.8,서울특별시 광진구 중곡동 51-6,서울특별시 광진구,서울,광진구,중곡동,127.084018320612,37.5595900689503
11215-10523,긴고랑공원,어린이공원,633.0,서울특별시 광진구 중곡동 68-19,서울특별시 광진구,서울,광진구,중곡동,127.090973789537,37.5589525949641
11215-10524,개나리공원,어린이공원,988.8,서울특별시 광진구 구의동 216-5,서울특별시 광진구,서울,광진구,구의동,127.092371307133,37.5380345616128
11215-10525,목련공원,어린이공원,989.8,서울특별시 광진구 구의동 223-4,서울특별시 광진구,서울,광진구,구의동,127.090510425887,37.5406012391249
11215-10526,무궁화공원,어린이공원,1041.7,서울특별시 광진구 구의동 206-10,서울특별시 광진구,서울,광진구,구의동,127.094393247889,37.5412689033157
11215-10527,장미공원,어린이공원,986.5,서울특별시 광진구 구의동 590-2,서울특별시 광진구,서울,광진구,구의동,127.090209573703,37.5363880331762
11215-10528,푸른동산공원,어린이공원,933.2,서울특별시 광진구 구의동 227-13,서울특별시 광진구,서울,광진구,구의동,127.09108233861,37.5428732100946
11215-10529,구둘공원,어린이공원,788.1,서울특별시 광진구 구의동 60-8,서울특별시 광진구,서울,광진구,구의동,127.092210415151,37.5482350797848
11215-10531,구의공원,어린이공원,10464.0,서울특별시 광진구 구의동 546-2,서울특별시 광진구,서울,광진구,구의동,127.094616151652,37.5369663606691
11215-10532,명성공원,어린이공원,548.4,서울특별시 광진구 구의동 249-25,서울특별시 광진구,서울,광진구,구의동,127.086722322843,37.541447777815
11215-10533,온달공원,어린이공원,1012.0,서울특별시 광진구 광장동 242-1,서울특별시 광진구,서울,광진구,광장동,127.103901524237,37.5459241309014
11215-10534,평강공원,어린이공원,325.0,서울특별시 광진구 광장동 387-1,서울특별시 광진구,서울,광진구,광장동,127.100678354679,37.5480640015178
11215-10535,약초원공원,어린이공원,826.0,서울특별시 광진구 자양동 74-21,서울특별시 광진구,서울,광진구,자양동,127.066393779432,37.5329377647844
11215-10536,정말공원,어린이공원,989.4,서울특별시 광진구 자양동 619-20,서울특별시 광진구,서울,광진구,자양동,127.078341264551,37.533237054181
11215-10537,자마장공원,어린이공원,998.8,서울특별시 광진구 자양동 630,서울특별시 광진구,서울,광진구,자양동,127.082187065074,37.5343290661601
11215-10538,장독골공원,어린이공원,997.4,서울특별시 광진구 자양동 804-10,서울특별시 광진구,서울,광진구,자양동,127.077691651328,37.5357795665112
11215-10539,언덕배기공원,어린이공원,800.4,서울특별시 광진구 자양동 686-52,서울특별시 광진구,서울,광진구,자양동,127.087868121195,37.532014449457
11215-10540,금모래공원,어린이공원,1022.5,서울특별시 광진구 자양동 651-50,서울특별시 광진구,서울,광진구,자양동,127.082401203179,37.5301805283628
11215-10541,동자공원,어린이공원,985.9,서울특별시 광진구 자양동 582-19,서울특별시 광진구,서울,광진구,자양동,127.074383206589,37.5320075848112
11215-10542,노유산공원,어린이공원,993.1,서울특별시 광진구 자양동 5-7,서울특별시 광진구,서울,광진구,자양동,127.068397226314,37.5391054111385
11230-00002,우산각,어린이공원,5294.2,서울특별시 동대문구 신설동 109-4,서울특별시 동대문구,서울,동대문구,신설동,127.024430046061,37.5734473627011
11230-00003,느티나무,어린이공원,1719.0,서울특별시 동대문구 용두동 138-61,서울특별시 동대문구,서울,동대문구,용두동,127.032548504209,37.5790275144782
11230-00004,안골,어린이공원,1652.3,서울특별시 동대문구 장안동 402,서울특별시 동대문구,서울,동대문구,장안동,127.064280105067,37.5653482092613
11230-00005,마로니에,어린이공원,1656.2,서울특별시 동대문구 장안동 325,서울특별시 동대문구,서울,동대문구,장안동,127.07372104401,37.5750102799359
11230-00006,늘푸른,어린이공원,1653.1,서울특별시 동대문구 장안동 303,서울특별시 동대문구,서울,동대문구,장안동,127.071578016771,37.576211272783
11230-00007,늘봄,어린이공원,1659.2,서울특별시 동대문구 장안동 343,서울특별시 동대문구,서울,동대문구,장안동,127.072424369469,37.5714537751419
11230-00008,한내,어린이공원,1617.2,서울특별시 동대문구 장안동 348,서울특별시 동대문구,서울,동대문구,장안동,127.071151185327,37.5678300254814
11230-00009,이삭,어린이공원,354.2,서울특별시 동대문구 전농동 675,서울특별시 동대문구,서울,동대문구,전농동,127.049503219592,37.5788031310286
11230-00010,쉼터,어린이공원,1695.0,서울특별시 동대문구 답십리동 952-5,서울특별시 동대문구,서울,동대문구,답십리동,127.059554645958,37.5648297316108
11230-00013,미나리,어린이공원,1636.3,서울특별시 동대문구 장안동 449,서울특별시 동대문구,서울,동대문구,장안동,127.068084450739,37.5637019389784
11230-00014,장미,어린이공원,1652.8,서울특별시 동대문구 장안동 386,서울특별시 동대문구,서울,동대문구,장안동,127.069181695967,37.5716807884734
11230-00015,샛별,어린이공원,1652.9,서울특별시 동대문구 장안동 379,서울특별시 동대문구,서울,동대문구,장안동,127.067363911887,37.5679779382122
11230-00016,천장,어린이공원,1656.0,서울특별시 동대문구 이문동 264-181,서울특별시 동대문구,서울,동대문구,이문동,127.05378237959,37.5986087672081
11230-00020,미리내,어린이공원,833.0,서울특별시 동대문구 장안동 93-29,서울특별시 동대문구,서울,동대문구,장안동,127.07169338395,37.5808280758851
11230-00021,이슬,어린이공원,336.0,서울특별시 동대문구 장안동 190-62,서울특별시 동대문구,서울,동대문구,장안동,127.063572722399,37.5677977691663
11230-00022,용머리,어린이공원,738.5,서울특별시 동대문구 용두동 696-8,서울특별시 동대문구,서울,동대문구,용두동,127.036569797804,37.5727681197324
11230-00023,장일,어린이공원,992.0,서울특별시 동대문구 장안동 164-1,서울특별시 동대문구,서울,동대문구,장안동,127.065196270569,37.5699157547337
11230-00024,아름,어린이공원,1116.0,서울특별시 동대문구 휘경동 43-178,서울특별시 동대문구,서울,동대문구,휘경동,127.066564863033,37.5863903873438
11230-00025,동산,어린이공원,1359.2,서울특별시 동대문구 답십리동 998-1,서울특별시 동대문구,서울,동대문구,답십리동,127.057544042523,37.5669677108502
11230-00026,용두희망,어린이공원,1291.0,서울특별시 동대문구 용두동 715,서울특별시 동대문구,서울,동대문구,용두동,127.026739260489,37.5801952198245
11230-00027,방아다리,어린이공원,1537.0,서울특별시 동대문구 제기동 132-1,서울특별시 동대문구,서울,동대문구,제기동,127.034848565482,37.5850853185876
11230-00032,휘봉,어린이공원,1398.0,서울특별시 동대문구 휘경동 43-275,서울특별시 동대문구,서울,동대문구,휘경동,127.069315902649,37.5868959727049
11230-00033,꿈동산,어린이공원,1570.7,서울특별시 동대문구 답십리동 1002-1,서울특별시 동대문구,서울,동대문구,답십리동,127.045837878618,37.5732900748476
11230-00035,아름드리,어린이공원,2626.5,서울특별시 동대문구 전농동 688-7,서울특별시 동대문구,서울,동대문구,전농동,127.059683868618,37.579109626065
11230-00038,진달래,어린이공원,2345.0,서울특별시 동대문구 휘경동 49-384,서울특별시 동대문구,서울,동대문구,휘경동,127.068662566768,37.5844983620868
11230-00040,샛말,어린이공원,2545.0,서울특별시 동대문구 전농동 695-1,서울특별시 동대문구,서울,동대문구,전농동,127.050130534321,37.5774901179178
11230-00041,새움,어린이공원,2107.0,서울특별시 동대문구 답십리동 1009-1,서울특별시 동대문구,서울,동대문구,답십리동,127.048674051574,37.5707602069085
11230-00042,휘경,어린이공원,3426.3,서울특별시 동대문구 휘경동 372-2,서울특별시 동대문구,서울,동대문구,휘경동,127.067802818147,37.593511125114
11260-00010,원  묵,어린이공원,1500.9,서울특별시 중랑구 묵동 20-1,서울특별시 중랑구,서울,중랑구,묵동,127.08812215091,37.617064081586
11260-00011,서  당,어린이공원,2000.1,서울특별시 중랑구 신내동 650-1,서울특별시 중랑구,서울,중랑구,신내동,127.091265173662,37.6156629988308
11260-00013,꽃동산,어린이공원,1004.0,서울특별시 중랑구 망우동 520-6,서울특별시 중랑구,서울,중랑구,망우동,127.095229673431,37.5922216048962
11260-00014,달동산,어린이공원,984.5,서울특별시 중랑구 망우동 416-1,서울특별시 중랑구,서울,중랑구,망우동,127.10083134617,37.5934029277023
11260-00015,샛  별,어린이공원,950.1,서울특별시 중랑구 망우동 474-11,서울특별시 중랑구,서울,중랑구,망우동,127.095148632611,37.5935800952783
11260-00016,햇  님,어린이공원,593.0,서울특별시 중랑구 신내동 474-33,서울특별시 중랑구,서울,중랑구,신내동,127.097861160692,37.6045338334585
11260-00017,안  골,어린이공원,184.0,서울특별시 중랑구 신내동 656-1,서울특별시 중랑구,서울,중랑구,신내동,127.094116552352,37.6132823302571
11260-00018,한아름,어린이공원,2005.7,서울특별시 중랑구 신내동 660-1,서울특별시 중랑구,서울,중랑구,신내동,127.094042998283,37.6083874065352
11260-00019,꽃피울,어린이공원,1500.1,서울특별시 중랑구 상봉동 484-1,서울특별시 중랑구,서울,중랑구,상봉동,127.089748409815,37.6034724284074
11260-00020,신  현,어린이공원,1492.3,서울특별시 중랑구 망우동 583-2,서울특별시 중랑구,서울,중랑구,망우동,127.103833589678,37.6022345393759
11260-00021,망우동,어린이공원,2908.8,서울특별시 중랑구 면목동 127-33,서울특별시 중랑구,서울,중랑구,면목동,127.085930035577,37.5895382894633
11260-00022,면  목,어린이공원,993.0,서울특별시 중랑구 면목동 127-33,서울특별시 중랑구,서울,중랑구,면목동,127.085930035577,37.5895382894633
11260-00023,양  지,어린이공원,979.8,서울특별시 중랑구 면목동 98-20,서울특별시 중랑구,서울,중랑구,면목동,127.089121786077,37.5903424908285
11260-00024,겸  재,어린이공원,975.9,서울특별시 중랑구 면목동 70-3,서울특별시 중랑구,서울,중랑구,면목동,127.093224072577,37.5879743978503
11260-00025,오거리,어린이공원,1357.0,서울특별시 중랑구 면목동 142-15,서울특별시 중랑구,서울,중랑구,면목동,127.080976546766,37.5886916153702
11260-00026,열  매,어린이공원,1192.7,서울특별시 중랑구 면목동 153-6,서울특별시 중랑구,서울,중랑구,면목동,127.081869754096,37.5856809633089
11260-00027,사  랑,어린이공원,1009.9,서울특별시 중랑구 면목동 110-1,서울특별시 중랑구,서울,중랑구,면목동,127.091319123643,37.5856742114143
11260-00028,남  촌,어린이공원,1010.6,서울특별시 중랑구 면목동 110-1,서울특별시 중랑구,서울,중랑구,면목동,127.091319123643,37.5856742114143
11260-00029,햇  살,어린이공원,867.4,서울특별시 중랑구 면목동 137-14,서울특별시 중랑구,서울,중랑구,면목동,127.083209454956,37.5899342425636
11260-00030,까  치,어린이공원,3231.7,서울특별시 중랑구 면목동 570,서울특별시 중랑구,서울,중랑구,면목동,127.087329167474,37.5834425880894
11260-00031,샘  터,어린이공원,1591.7,서울특별시 중랑구 면목동 656,서울특별시 중랑구,서울,중랑구,면목동,127.083293748315,37.5731133569554
11260-00032,송  계,어린이공원,1019.5,서울특별시 중랑구 면목동 42-1,서울특별시 중랑구,서울,중랑구,면목동,127.095720215147,37.5893304656448
11260-00033,소  파,어린이공원,1015.5,서울특별시 중랑구 면목동 86-3,서울특별시 중랑구,서울,중랑구,면목동,127.092545580224,37.5914899722259
11260-00034,섬  들,어린이공원,1005.0,서울특별시 중랑구 면목동 178-19,서울특별시 중랑구,서울,중랑구,면목동,127.076817786686,37.5880867658679
11260-00035,한  신,어린이공원,995.4,서울특별시 중랑구 면목동 30-38,서울특별시 중랑구,서울,중랑구,면목동,127.10037329114,37.5870523158475
11260-00036,이  화,어린이공원,215.0,서울특별시 중랑구 상봉동 114-1,서울특별시 중랑구,서울,중랑구,상봉동,127.084776188985,37.595053553745
11260-00037,면목1(가칭),어린이공원,1578.6,서울특별시 중랑구 상봉동 122-31,서울특별시 중랑구,서울,중랑구,상봉동,127.082367915509,37.5931789441724
11260-00038,봉  황,어린이공원,1013.6,서울특별시 중랑구 상봉동 136-35,서울특별시 중랑구,서울,중랑구,상봉동,127.07393204575,37.5919451253638
11260-00039,상  봉,어린이공원,1057.5,서울특별시 중랑구 중화동 302-57,서울특별시 중랑구,서울,중랑구,중화동,127.077432598789,37.5981530539637
11260-00040,상  리,어린이공원,1005.3,서울특별시 중랑구 중화동 280-16,서울특별시 중랑구,서울,중랑구,중화동,127.08049215166,37.6041218705962
11260-00041,봉  화,어린이공원,824.8,서울특별시 중랑구 중화동 323-14,서울특별시 중랑구,서울,중랑구,중화동,127.072981708648,37.5956455486581
11260-00042,중화리,어린이공원,941.8,서울특별시 중랑구 중화동 332-48,서울특별시 중랑구,서울,중랑구,중화동,127.074930317683,37.6043020367704
11260-00043,초  롱,어린이공원,1433.4,서울특별시 중랑구 중화동 328-14,서울특별시 중랑구,서울,중랑구,중화동,127.073816152141,37.5992199819419
11260-00044,배  꽃,어린이공원,1396.0,서울특별시 중랑구 중화동 131-20,서울특별시 중랑구,서울,중랑구,중화동,127.085776227208,37.6011361413012
11260-00045,세  화,어린이공원,1147.8,서울특별시 중랑구 묵동 240-100,서울특별시 중랑구,서울,중랑구,묵동,127.074888914507,37.6111247155535
11260-00046,본  동,어린이공원,248.0,서울특별시 중랑구 묵동 177-5,서울특별시 중랑구,서울,중랑구,묵동,127.079070186053,37.6114698599148
11260-00047,소  망,어린이공원,1224.5,서울특별시 중랑구 망우동 492-6,서울특별시 중랑구,서울,중랑구,망우동,127.096644935531,37.5976600992691
11260-00048,먹  골,어린이공원,1006.3,서울특별시 중랑구 망우동 155-2,서울특별시 중랑구,서울,중랑구,망우동,127.10334894316,37.5990696054669
11260-00049,등나무,어린이공원,988.1,서울특별시 중랑구 망우동 344-11,서울특별시 중랑구,서울,중랑구,망우동,127.102694834541,37.6024196981147
11260-00051,방  죽,어린이공원,1002.3,서울특별시 중랑구 묵동 396-1,서울특별시 중랑구,서울,중랑구,묵동,127.081355323734,37.6171213782639
11260-00052,새  싹,어린이공원,6793.5,서울특별시 중랑구 면목동 1508-11,서울특별시 중랑구,서울,중랑구,면목동,127.083702522537,37.5828299271887
11260-00053,묵  동,어린이공원,1686.9,서울특별시 중랑구 묵동 396-2,서울특별시 중랑구,서울,중랑구,묵동,127.082454654617,37.6147294827942
11290-00008,삼선,어린이공원,10957.0,서울특별시 성북구 삼선동1가 303,서울특별시 성북구,서울,성북구,삼선동1가,127.008902825053,37.5824354402572
11290-00009,범바위,어린이공원,1514.0,서울특별시 성북구 안암동2가 140-3,서울특별시 성북구,서울,성북구,안암동2가,127.02154131462,37.5853554613805
11290-00010,꿈나라,어린이공원,1564.0,서울특별시 성북구 보문동7가 108-2,서울특별시 성북구,서울,성북구,보문동7가,127.023040168872,37.580059679401
11290-00012,동산,어린이공원,417.0,서울특별시 성북구 하월곡동 96-165,서울특별시 성북구,서울,성북구,하월곡동,127.034543286566,37.6063042974338
11290-00013,밤골,어린이공원,600.0,서울특별시 성북구 하월곡동 산2-140,서울특별시 성북구,서울,성북구,하월곡동,127.039638314266,37.6075984094597
11290-00014,햇살,어린이공원,300.0,서울특별시 성북구 상월곡동 97-37,서울특별시 성북구,서울,성북구,상월곡동,127.048516088234,37.6059130360609
11290-00015,향기,어린이공원,1000.0,서울특별시 성북구 상월곡동 산1-1,서울특별시 성북구,서울,성북구,상월곡동,127.044370998859,37.6098581183423
11290-00016,동방,어린이공원,982.0,서울특별시 성북구 장위1동 219-223,서울특별시 성북구,서울,성북구,장위동,127.043509113977,37.616647299249
11290-00017,샛별,어린이공원,1638.0,서울특별시 성북구 석관동 168-86,서울특별시 성북구,서울,성북구,석관동,127.064264699142,37.6140576610611
11290-00018,돌뫼,어린이공원,350.0,서울특별시 성북구 석관동 산1-77,서울특별시 성북구,서울,성북구,석관동,127.052796456223,37.6050835495105
11290-00019,새소리,어린이공원,1371.0,서울특별시 성북구 돈암1동 626-2,서울특별시 성북구,서울,성북구,돈암동,127.025403910684,37.6007653482898
11290-00020,종암,어린이공원,1514.0,서울특별시 성북구 종암동 104-6,서울특별시 성북구,서울,성북구,종암동,127.037235586757,37.6001684556599
11290-00021,솔향기,어린이공원,4031.0,서울특별시 성북구 길음1동 1190,서울특별시 성북구,서울,성북구,길음동,127.021312434543,37.6081536464052
11290-00022,해맑은,어린이공원,2089.0,서울특별시 성북구 길음1동 591-17,서울특별시 성북구,서울,성북구,길음동,127.02096576246,37.6085423953868
11290-00023,한울,어린이공원,2675.0,서울특별시 성북구 정릉2동 169-6,서울특별시 성북구,서울,성북구,정릉동,127.013708970553,37.6057618358832
11290-00024,솔숲,어린이공원,2922.0,서울특별시 성북구 정릉1동 170-10,서울특별시 성북구,서울,성북구,정릉동,127.014979665778,37.604808614205
11290-00025,동망봉,어린이공원,6730.0,서울특별시 성북구 보문동3가 229-1,서울특별시 성북구,서울,성북구,보문동3가,127.016793583191,37.583746517901
11290-00026,맑은숲,어린이공원,1601.0,서울특별시 성북구 장위동 317-1,서울특별시 성북구,서울,성북구,장위동,127.04653805124,37.6204262383993
11290-00027,화랑,어린이공원,2213.0,서울특별시 성북구 석관동 407-6,서울특별시 성북구,서울,성북구,석관동,127.054812785484,37.6071620245939
11290-00029,고암,어린이공원,1449.0,서울특별시 성북구 종암동 133-5,서울특별시 성북구,서울,성북구,종암동,127.031779876418,37.5999432714108
11290-00030,옛시장,어린이공원,958.0,서울특별시 성북구 종암동 135-4,서울특별시 성북구,서울,성북구,종암동,127.033939353016,37.6023834537438
11290-00031,늘푸른,어린이공원,1580.0,서울특별시 성북구 길음1동 1284-14,서울특별시 성북구,서울,성북구,길음동,127.020422360879,37.6085056402017
11290-00032,아름,어린이공원,2167.0,서울특별시 성북구 길음1동 1284-1,서울특별시 성북구,서울,성북구,길음동,127.016432459647,37.6075975251052
11290-00033,벌집,어린이공원,1788.0,서울특별시 성북구 종암동 134-3,서울특별시 성북구,서울,성북구,종암동,127.036734121522,37.5996390104131
11290-00034,일신,어린이공원,950.0,서울특별시 성북구 종암동 134-8,서울특별시 성북구,서울,성북구,종암동,127.039580488793,37.5999913686786
11290-00045,자주바위,어린이공원,1519.3,서울특별시 성북구 보문동6가 458-3,서울특별시 성북구,서울,성북구,보문동6가,127.017674995493,37.5800182579386
11305-00001,벽오산,어린이공원,1250.0,서울특별시 강북구 미아동 258-56,서울특별시 강북구,서울,강북구,미아동,127.030239916236,37.6276344820719
11305-00002,미아도심소,어린이공원,1127.0,서울특별시 강북구 미아동 258-148,서울특별시 강북구,서울,강북구,미아동,127.031318105879,37.6253904735589
11305-00003,오패,어린이공원,1084.0,서울특별시 강북구 미아동 258-236,서울특별시 강북구,서울,강북구,미아동,127.032320324416,37.6223350460116
11305-00004,한빛,어린이공원,1192.1,서울특별시 강북구 미아동 222-20,서울특별시 강북구,서울,강북구,미아동,127.022878719319,37.6277241653835
11305-00005,운산,어린이공원,995.1,서울특별시 강북구 미아동 165-3,서울특별시 강북구,서울,강북구,미아동,127.025573290505,37.6320956478144
11305-00006,솔샘,어린이공원,1264.1,서울특별시 강북구 송천동 329-15,서울특별시 강북구,서울,강북구,미아동,127.027045746727,37.6184292397479
11305-00007,으뜸,어린이공원,681.0,서울특별시 강북구 미아동 309-43,서울특별시 강북구,서울,강북구,미아동,127.026114478571,37.62368923481
11305-00008,세일,어린이공원,839.7,서울특별시 강북구 미아동 159-71,서울특별시 강북구,서울,강북구,미아동,127.025268805765,37.6338790345229
11305-00010,청암,어린이공원,661.0,서울특별시 강북구 삼양동 776-17,서울특별시 강북구,서울,강북구,미아동,127.017144530201,37.6241086667687
11305-00011,응달마을,어린이공원,866.0,서울특별시 강북구 송천동 707-73,서울특별시 강북구,서울,강북구,미아동,127.024365699238,37.6184428878857
11305-00012,하늘,어린이공원,3367.0,서울특별시 강북구 삼양동 791-1776,서울특별시 강북구,서울,강북구,미아동,127.012877472551,37.624693679919
11305-00013,송월,어린이공원,807.0,서울특별시 강북구 송중동 92-7,서울특별시 강북구,서울,강북구,미아동,127.032108312924,37.6163670506061
11305-00019,테두리,어린이공원,1913.0,서울특별시 강북구 삼각산동 811-8,서울특별시 강북구,서울,강북구,미아동,127.017697043195,37.6186243641012
11305-00020,고갯마루,어린이공원,2185.8,서울특별시 강북구 삼각산동 811-13,서울특별시 강북구,서울,강북구,미아동,127.016973560495,37.6164848938691
11305-00021,미아,어린이공원,992.0,서울특별시 강북구 송중동 8-73,서울특별시 강북구,서울,강북구,미아동,127.037556412042,37.6152862386255
11305-00023,번남,어린이공원,1014.9,서울특별시 강북구 번1동 447-1,서울특별시 강북구,서울,강북구,번동,127.024946671801,37.6357800022269
11305-00024,논골,어린이공원,991.7,서울특별시 강북구 번1동 417-27,서울특별시 강북구,서울,강북구,번동,127.027953143641,37.6386978892766
11305-00025,샛강,어린이공원,858.2,서울특별시 강북구 번1동 472-44,서울특별시 강북구,서울,강북구,번동,127.03298853708,37.639518917642
11305-00027,오얏골,어린이공원,5070.7,서울특별시 강북구 번2동 228,서울특별시 강북구,서울,강북구,번동,127.034284903512,37.6340489374616
11305-00028,벌리,어린이공원,4083.5,서울특별시 강북구 번3동 240,서울특별시 강북구,서울,강북구,번동,127.044428881538,37.6275760234887
11305-00029,벌말,어린이공원,4641.3,서울특별시 강북구 번2동 235,서울특별시 강북구,서울,강북구,번동,127.03982610211,37.6297121035625
11305-00030,오현,어린이공원,3661.0,서울특별시 강북구 번3동 244,서울특별시 강북구,서울,강북구,번동,127.0464688618,37.6237334299142
11305-00031,색동,어린이공원,2341.2,서울특별시 강북구 수유1동 49-7,서울특별시 강북구,서울,강북구,수유동,127.020648550603,37.6331588747122
11305-00032,흰구름,어린이공원,1064.0,서울특별시 강북구 수유2동 252-19,서울특별시 강북구,서울,강북구,수유동,127.02041181135,37.6457259416537
11305-00033,희망,어린이공원,976.9,서울특별시 강북구 수유3동 194-41,서울특별시 강북구,서울,강북구,수유동,127.024402560962,37.6407687795769
11305-00034,은모루,어린이공원,918.0,서울특별시 강북구 수유3동 172-209,서울특별시 강북구,서울,강북구,수유동,127.026819325423,37.6423966942243
11305-00035,소귀,어린이공원,961.0,서울특별시 강북구 수유3동 25-1,서울특별시 강북구,서울,강북구,수유동,127.018681926589,37.6385743044927
11305-00036,상산,어린이공원,972.9,서울특별시 강북구 수유3동 224-4,서울특별시 강북구,서울,강북구,수유동,127.023862119396,37.6383269511423
11305-00038,보등골,어린이공원,869.0,서울특별시 강북구 인수동 605-209,서울특별시 강북구,서울,강북구,수유동,127.018386028855,37.6350587968999
11305-00039,수유일공원,어린이공원,2632.0,서울특별시 강북구 수유1동 605-389,서울특별시 강북구,서울,강북구,수유동,127.017042726221,37.6307002095517
11305-00040,새싹,어린이공원,651.0,서울특별시 강북구 수유3동 134-40,서울특별시 강북구,서울,강북구,수유동,127.019590392018,37.6361048272849
11305-00041,푸른,어린이공원,992.0,서울특별시 강북구 인수동 516-44,서울특별시 강북구,서울,강북구,수유동,127.008463226055,37.6385094378396
11305-00042,무너미,어린이공원,380.0,서울특별시 강북구 수유동 281-2,서울특별시 강북구,서울,강북구,수유동,127.012739296661,37.6460674113203
11305-00043,빨래골,어린이공원,476.0,서울특별시 강북구 수유1동 475-115,서울특별시 강북구,서울,강북구,수유동,127.014876197747,37.6294595742798
11305-00044,장미원,어린이공원,340.0,서울특별시 강북구 수유2동 276-10,서울특별시 강북구,서울,강북구,수유동,127.015723646982,37.6464760078325
11305-00046,송중동,어린이공원,376.9,서울특별시 강북구 송중동 128-8,서울특별시 강북구,서울,강북구,미아동,127.028542056235,37.6226539788286
11305-00047,소귀,어린이공원,961.0,서울특별시 강북구 수유3동 25-1,서울특별시 강북구,서울,강북구,수유동,127.018681926589,37.6385743044927
11305-00049,보등골,어린이공원,869.0,서울특별시 강북구 인수동 605-209,서울특별시 강북구,서울,강북구,수유동,127.018386028855,37.6350587968999
11305-00052,미아9-1,어린이공원,2828.0,서울특별시 강북구 송중동 1369-1,서울특별시 강북구,서울,강북구,미아동,127.033327508478,37.6206908240603
11320-00005,누 원,어린이공원,1515.0,서울특별시 도봉구 도봉동 653,서울특별시 도봉구,서울,도봉구,도봉동,127.050046773652,37.6803963047045
11320-00006,새동네,어린이공원,1289.0,서울특별시 도봉구 도봉동 289-5,서울특별시 도봉구,서울,도봉구,도봉동,127.0431789926,37.6889493884644
11320-00007,무지개,어린이공원,921.0,서울특별시 도봉구 도봉동 570-13,서울특별시 도봉구,서울,도봉구,도봉동,127.045022305863,37.6856522931644
11320-00008,서 원,어린이공원,921.0,서울특별시 도봉구 도봉동 576-13,서울특별시 도봉구,서울,도봉구,도봉동,127.043309007485,37.6838331398561
11320-00009,무 수,어린이공원,1003.0,서울특별시 도봉구 도봉동 585-2,서울특별시 도봉구,서울,도봉구,도봉동,127.042737156697,37.6806332541924
11320-00010,해 태,어린이공원,962.0,서울특별시 도봉구 도봉동 614-37,서울특별시 도봉구,서울,도봉구,도봉동,127.041199801577,37.6719580934334
11320-00011,갈대밭,어린이공원,973.0,서울특별시 도봉구 도봉동 625-123,서울특별시 도봉구,서울,도봉구,도봉동,127.045803732855,37.6743422793575
11320-00012,방 학,어린이공원,305.0,서울특별시 도봉구 방학동 304-20,서울특별시 도봉구,서울,도봉구,방학동,127.032256386725,37.6630961316768
11320-00013,샘 말,어린이공원,1085.0,서울특별시 도봉구 방학동 611-5,서울특별시 도봉구,서울,도봉구,방학동,127.031535095833,37.6684141852559
11320-00014,개나리,어린이공원,960.0,서울특별시 도봉구 방학동 638-12,서울특별시 도봉구,서울,도봉구,방학동,127.037136843555,37.6673316483982
11320-00015,생잇들,어린이공원,970.0,서울특별시 도봉구 방학동 644-28,서울특별시 도봉구,서울,도봉구,방학동,127.039156928499,37.6690046561602
11320-00016,무궁화,어린이공원,1003.0,서울특별시 도봉구 방학동 655-31,서울특별시 도봉구,서울,도봉구,방학동,127.042180668484,37.6678388262701
11320-00017,뒷 말,어린이공원,1000.0,서울특별시 도봉구 방학동 663,서울특별시 도봉구,서울,도봉구,방학동,127.033639065474,37.6637884197181
11320-00018,사 슴,어린이공원,970.0,서울특별시 도봉구 방학동 681-13,서울특별시 도봉구,서울,도봉구,방학동,127.041736620522,37.6644567930056
11320-00019,소 망,어린이공원,973.0,서울특별시 도봉구 방학동 694-9,서울특별시 도봉구,서울,도봉구,방학동,127.036919947531,37.663527505411
11320-00020,학 골,어린이공원,149.0,서울특별시 도봉구 방학동 735-4,서울특별시 도봉구,서울,도봉구,방학동,127.03672812142,37.6617965101403
11320-00021,금성윗들,어린이공원,1289.0,서울특별시 도봉구 방학1동 717-1,서울특별시 도봉구,서울,도봉구,방학동,127.044763322185,37.6676534437299
11320-00022,노 해,어린이공원,1019.0,서울특별시 도봉구 쌍문동 709-32,서울특별시 도봉구,서울,도봉구,쌍문동,127.039673224594,37.660925929145
11320-00023,둥근달,어린이공원,1013.0,서울특별시 도봉구 쌍문동 139-101,서울특별시 도봉구,서울,도봉구,쌍문동,127.030129994171,37.6497051258267
11320-00024,꽃동네,어린이공원,317.0,서울특별시 도봉구 쌍문동 286-32,서울특별시 도봉구,서울,도봉구,쌍문동,127.022972205181,37.6506279920389
11320-00025,샛 별,어린이공원,331.0,서울특별시 도봉구 쌍문동 315-362,서울특별시 도봉구,서울,도봉구,쌍문동,127.029195059875,37.6480652108797
11320-00026,효 자,어린이공원,1573.0,서울특별시 도봉구 창동 27-2,서울특별시 도봉구,서울,도봉구,창동,127.051017362415,37.6500569838287
11320-00027,모 랫,어린이공원,1500.0,서울특별시 도봉구 창동 30-1,서울특별시 도봉구,서울,도봉구,창동,127.051783184557,37.646832391257
11320-00028,유 만,어린이공원,1500.0,서울특별시 도봉구 창동 33-4,서울특별시 도봉구,서울,도봉구,창동,127.05295202688,37.6503866118843
11320-00029,대 창,어린이공원,1500.0,서울특별시 도봉구 창동 38-4,서울특별시 도봉구,서울,도봉구,창동,127.052262463356,37.6443632141358
11320-00030,창 원,어린이공원,2329.0,서울특별시 도봉구 창동 307,서울특별시 도봉구,서울,도봉구,창동,127.04034235885,37.6529936364174
11320-00031,은행나무,어린이공원,3199.0,서울특별시 도봉구 창동 347-3,서울특별시 도봉구,서울,도봉구,창동,127.043763831156,37.6496504008457
11320-00032,반 석,어린이공원,2596.0,서울특별시 도봉구 창동 354,서울특별시 도봉구,서울,도봉구,창동,127.041289105505,37.6471682729043
11320-00033,뱃 골,어린이공원,2319.0,서울특별시 도봉구 창동 367,서울특별시 도봉구,서울,도봉구,창동,127.045008006504,37.6465864090079
11320-00034,밤 골,어린이공원,2279.0,서울특별시 도봉구 창동 368,서울특별시 도봉구,서울,도봉구,창동,127.045708139887,37.6487753494252
11320-00035,창 골,어린이공원,4236.0,서울특별시 도봉구 창동 381,서울특별시 도봉구,서울,도봉구,창동,127.048616392004,37.6430803301
11320-00036,신 창,어린이공원,579.0,서울특별시 도봉구 창동 449-103,서울특별시 도봉구,서울,도봉구,창동,127.040840461322,37.640057682411
11320-00037,물방울,어린이공원,646.0,서울특별시 도봉구 창동 458-6,서울특별시 도봉구,서울,도봉구,창동,127.041339390358,37.6377161194076
11320-00038,장 미,어린이공원,1000.0,서울특별시 도봉구 창동 553-8,서울특별시 도봉구,서울,도봉구,창동,127.036352787584,37.638146359793
11320-00039,창고개,어린이공원,990.0,서울특별시 도봉구 창동 608-5,서울특별시 도봉구,서울,도봉구,창동,127.039322079917,37.6447355680525
11320-00040,다람쥐,어린이공원,988.0,서울특별시 도봉구 창동 624-16,서울특별시 도봉구,서울,도봉구,창동,127.034905983385,37.6452114154268
11320-00041,달 내,어린이공원,1001.0,서울특별시 도봉구 창동 630-4,서울특별시 도봉구,서울,도봉구,창동,127.035264580184,37.6427564876366
11320-00042,꿈동산,어린이공원,1008.0,서울특별시 도봉구 창동 663-1,서울특별시 도봉구,서울,도봉구,창동,127.036861039319,37.6502868715537
11320-00043,미 화,어린이공원,996.0,서울특별시 도봉구 창동 715-17,서울특별시 도봉구,서울,도봉구,창동,127.039691800802,37.6549456555128
11350-00027,돌곶이,어린이공원,954.0,서울특별시 노원구 월계1동 429-4,서울특별시 노원구,서울,노원구,월계동,127.061188827746,37.6199859956694
11350-00029,소곶네,어린이공원,814.0,서울특별시 노원구 월계동 411-47,서울특별시 노원구,서울,노원구,월계동,127.061539234623,37.6210199669672
11350-00030,연천내,어린이공원,152.0,서울특별시 노원구 월계동 411-50,서울특별시 노원구,서울,노원구,월계동,127.061101842493,37.6224857403117
11350-00031,월  계,어린이공원,858.0,서울특별시 노원구 월계동 429-44,서울특별시 노원구,서울,노원구,월계동,127.061181914782,37.6203964892067
11350-00033,해오라기,어린이공원,959.7,서울특별시 노원구 공릉동 503-17,서울특별시 노원구,서울,노원구,공릉동,127.076331191633,37.6254704908717
11350-00034,옹달샘,어린이공원,341.0,서울특별시 노원구 공릉동 270-4,서울특별시 노원구,서울,노원구,공릉동,127.080927796848,37.6206207480971
11350-00035,나  래,어린이공원,996.7,서울특별시 노원구 공릉동 380-4,서울특별시 노원구,서울,노원구,공릉동,127.070641555924,37.6269591305477
11350-00036,씨  알,어린이공원,991.3,서울특별시 노원구 공릉동 371-1,서울특별시 노원구,서울,노원구,공릉동,127.073434088485,37.6277915589223
11350-00037,개  미,어린이공원,973.5,서울특별시 노원구 공릉동 589-4,서울특별시 노원구,서울,노원구,공릉동,127.077813724064,37.6206231129831
11350-00038,별  빛,어린이공원,132.5,서울특별시 노원구 공릉동 690-1,서울특별시 노원구,서울,노원구,공릉동,127.072216621614,37.6191108495724
11350-00040,목  련,어린이공원,112.0,서울특별시 노원구 하계동 167-12,서울특별시 노원구,서울,노원구,하계동,127.074453297619,37.636083683099
11350-00041,전주동,어린이공원,288.0,서울특별시 노원구 중계동 154-9,서울특별시 노원구,서울,노원구,중계동,127.073690861817,37.65952387349
11350-00042,당  현,어린이공원,274.0,서울특별시 노원구 중계동 154-7,서울특별시 노원구,서울,노원구,중계동,127.074921022999,37.6602652370153
11350-00043,무궁화,어린이공원,561.0,서울특별시 노원구 상계동 135-77,서울특별시 노원구,서울,노원구,상계동,127.069465438014,37.6654988609008
11350-00044,샛  말,어린이공원,331.0,서울특별시 노원구 상계동 1116-50,서울특별시 노원구,서울,노원구,상계동,127.057805790635,37.6761685182109
11350-00045,호돌이,어린이공원,1500.1,서울특별시 노원구 상계동 622,서울특별시 노원구,서울,노원구,상계동,127.051018395278,37.6686246835612
11350-00046,산철쭉,어린이공원,1500.0,서울특별시 노원구 상계동 625,서울특별시 노원구,서울,노원구,상계동,127.055533744702,37.6703318032877
11350-00047,삼  들,어린이공원,1500.0,서울특별시 노원구 상계동 623,서울특별시 노원구,서울,노원구,상계동,127.053304300389,37.6679396484436
11350-00049,봉숭아,어린이공원,1499.6,서울특별시 노원구 상계동 628,서울특별시 노원구,서울,노원구,상계동,127.05865258467,37.668130730879
11350-00050,두루미,어린이공원,3580.0,서울특별시 노원구 상계동 656-1,서울특별시 노원구,서울,노원구,상계동,127.053218623839,37.665733366092
11350-00051,참  새,어린이공원,1500.1,서울특별시 노원구 상계동 652-3,서울특별시 노원구,서울,노원구,상계동,127.054718256983,37.6660746021038
11350-00052,햇  빛,어린이공원,1631.2,서울특별시 노원구 상계동 646,서울특별시 노원구,서울,노원구,상계동,127.060320360929,37.6666263337035
11350-00053,종달새,어린이공원,4051.0,서울특별시 노원구 상계동 636,서울특별시 노원구,서울,노원구,상계동,127.062015966672,37.6680008910558
11350-00054,상록수,어린이공원,2130.0,서울특별시 노원구 상계동 663,서울특별시 노원구,서울,노원구,상계동,127.052880354555,37.663091211634
11350-00055,반  디,어린이공원,1500.0,서울특별시 노원구 상계동 665,서울특별시 노원구,서울,노원구,상계동,127.054292362331,37.6628634328454
11350-00056,민들레,어린이공원,1780.2,서울특별시 노원구 상계동 667,서울특별시 노원구,서울,노원구,상계동,127.056176110752,37.6628462430098
11350-00058,용  화,어린이공원,1500.0,서울특별시 노원구 상계동 695-1,서울특별시 노원구,서울,노원구,상계동,127.056721197256,37.6590426694374
11350-00060,한아름,어린이공원,1500.2,서울특별시 노원구 상계동 692-3,서울특별시 노원구,서울,노원구,상계동,127.061337507939,37.6575552711217
11350-00061,채송화,어린이공원,1500.0,서울특별시 노원구 상계동 737-1,서울특별시 노원구,서울,노원구,상계동,127.057132748548,37.6517109080796
11350-00062,기  린,어린이공원,1500.1,서울특별시 노원구 상계동 737-3,서울특별시 노원구,서울,노원구,상계동,127.059289205765,37.6519852744233
11350-00063,엄  지,어린이공원,1500.1,서울특별시 노원구 상계동 720-4,서울특별시 노원구,서울,노원구,상계동,127.062968087125,37.652740463853
11350-00064,소  망,어린이공원,1500.0,서울특별시 노원구 상계동 720-1,서울특별시 노원구,서울,노원구,상계동,127.06506286999,37.6537038289161
11350-00065,까  치,어린이공원,1500.2,서울특별시 노원구 상계동 741-1,서울특별시 노원구,서울,노원구,상계동,127.058095874825,37.6491256076001
11350-00068,물보라,어린이공원,1500.1,서울특별시 노원구 상계동 756,서울특별시 노원구,서울,노원구,상계동,127.066788972879,37.6512748962749
11350-00069,선  녀,어린이공원,1500.2,서울특별시 노원구 상계동 767-2,서울특별시 노원구,서울,노원구,상계동,127.058729878914,37.6466852505064
11350-00070,사  랑,어린이공원,2540.3,서울특별시 노원구 상계동 765-1,서울특별시 노원구,서울,노원구,상계동,127.060231950629,37.6471219206837
11350-00071,들국화,어린이공원,3413.6,서울특별시 노원구 중계동 501,서울특별시 노원구,서울,노원구,중계동,127.061474152383,37.644184974035
11350-00072,백  합,어린이공원,4924.2,서울특별시 노원구 중계동 514-4,서울특별시 노원구,서울,노원구,중계동,127.069603639067,37.6483023676984
11350-00073,해바라기,어린이공원,4504.0,서울특별시 노원구 하계동 277,서울특별시 노원구,서울,노원구,하계동,127.071285636192,37.6348644441214
11350-00074,하  계,어린이공원,6128.9,서울특별시 노원구 하계동 273-3,서울특별시 노원구,서울,노원구,하계동,127.069003693756,37.6321893331534
11350-00075,중  현,어린이공원,7123.5,서울특별시 노원구 하계동 272-1,서울특별시 노원구,서울,노원구,하계동,127.065622750398,37.6318846565231
11350-00076,중  평,어린이공원,5840.5,서울특별시 노원구 하계동 271-1,서울특별시 노원구,서울,노원구,하계동,127.063323298933,37.6370661286158
11350-00077,꿈나라,어린이공원,1623.0,서울특별시 노원구 중계동 358-1,서울특별시 노원구,서울,노원구,중계동,127.076750931592,37.6559061921483
11350-00078,새  싹,어린이공원,1516.9,서울특별시 노원구 중계동 359-2,서울특별시 노원구,서울,노원구,중계동,127.076658095902,37.6531289746492
11350-00080,다람쥐,어린이공원,1500.1,서울특별시 노원구 중계동 360-3,서울특별시 노원구,서울,노원구,중계동,127.074663151098,37.6491328637352
11350-00081,광  석,어린이공원,1603.1,서울특별시 노원구 중계동 364-11,서울특별시 노원구,서울,노원구,중계동,127.079426803306,37.6489092821252
11350-00083,뻐꾸기,어린이공원,1540.2,서울특별시 노원구 하계동 256-3,서울특별시 노원구,서울,노원구,하계동,127.074709989371,37.6424971798334
11350-00084,앵무새,어린이공원,1614.1,서울특별시 노원구 하계동 251-13,서울특별시 노원구,서울,노원구,하계동,127.071883705438,37.639560104919
11350-00085,이  화,어린이공원,1550.7,서울특별시 노원구 중계동 363-8,서울특별시 노원구,서울,노원구,중계동,127.079019900006,37.6466734950438
11350-00086,곰돌이,어린이공원,1477.8,서울특별시 노원구 하계동1동256-6,서울특별시 노원구,서울,노원구,하계동,127.07543260669,37.6404369798614
11350-00087,갓바위,어린이공원,1538.1,서울특별시 노원구 중계동 369-6,서울특별시 노원구,서울,노원구,중계동,127.07882090862,37.657593988111
11350-00088,국  화,어린이공원,1495.6,서울특별시 노원구 하계동 252-11,서울특별시 노원구,서울,노원구,하계동,127.076190229115,37.6370801448648
11350-00091,연  촌,어린이공원,1509.7,서울특별시 노원구 월계동 322-4,서울특별시 노원구,서울,노원구,월계동,127.062702711757,37.6283660918251
11350-00092,비둘기,어린이공원,3382.6,서울특별시 노원구 공릉동 708-1,서울특별시 노원구,서울,노원구,공릉동,127.069187363223,37.6300188406658
11350-00094,햇 살,어린이공원,2040.7,서울특별시 노원구 월계동 563,서울특별시 노원구,서울,노원구,월계동,127.05167475296,37.6272125879901
11350-00095,연  지,어린이공원,3847.1,서울특별시 노원구 월계동 564,서울특별시 노원구,서울,노원구,월계동,127.053256453116,37.6280847604175
11350-00097,초  안,어린이공원,1479.1,서울특별시 노원구 월계동 775-1,서울특별시 노원구,서울,노원구,월계동,127.051636250436,37.6339452231284
11350-00098,안  골,어린이공원,1473.9,서울특별시 노원구 월계동 781-1,서울특별시 노원구,서울,노원구,월계동,127.051441106371,37.6309074546453
11350-00099,새마을,어린이공원,1307.8,서울특별시 노원구 상계동 1257-1,서울특별시 노원구,서울,노원구,상계동,127.052541778476,37.6792724201504
11350-00100,샘  터,어린이공원,1500.0,서울특별시 노원구 상계동 1255-1,서울특별시 노원구,서울,노원구,상계동,127.053698134827,37.6815745298605
11350-00101,늘푸른,어린이공원,1502.0,서울특별시 노원구 상계동 1265-1,서울특별시 노원구,서울,노원구,상계동,127.056463478377,37.680728300907
11350-00104,코스모스,어린이공원,1385.7,서울특별시 노원구 상계동 1293-2,서울특별시 노원구,서울,노원구,상계동,127.083184974255,37.6677714458717
11350-00105,철  쭉,어린이공원,995.0,서울특별시 노원구 상계동 1096-16,서울특별시 노원구,서울,노원구,상계동,127.051695728806,37.6777514013721
11350-00106,무지개,어린이공원,1575.1,서울특별시 노원구 공릉동 89,서울특별시 노원구,서울,노원구,공릉동,127.083269956698,37.6205493821358
11350-00107,청  솔,어린이공원,1500.1,서울특별시 노원구 공릉동 110-2,서울특별시 노원구,서울,노원구,공릉동,127.087917861503,37.6242191550694
11350-00108,송  림,어린이공원,1500.3,서울특별시 노원구 공릉동 106-3,서울특별시 노원구,서울,노원구,공릉동,127.087067379526,37.627040324347
11350-00109,배  꽃,어린이공원,1537.2,서울특별시 노원구 공릉동 123-1,서울특별시 노원구,서울,노원구,공릉동,127.092819348495,37.6259254740154
11350-00110,불  암,어린이공원,1500.1,서울특별시 노원구 상계동 1275-4,서울특별시 노원구,서울,노원구,상계동,127.078687351969,37.6643054868274
11350-00111,장 암,어린이공원,1500.0,서울특별시 노원구 상계동 1312-5,서울특별시 노원구,서울,노원구,상계동,127.054093212222,37.6867282128613
11350-00112,꽃사슴,어린이공원,410.0,서울특별시 노원구 상계동 71-4,서울특별시 노원구,서울,노원구,상계동,127.084673168776,37.6725531482969
11380-00001,새록어린이공원,어린이공원,956.0,서울특별시 은평구 녹번 158-1,서울특별시 은평구,서울,은평구,녹번동,126.923682261396,37.6039970636263
11380-00002,응암어린이공원,어린이공원,992.1,서울특별시 은평구 응암 85-41,서울특별시 은평구,서울,은평구,응암동,126.923587501799,37.601644607026
11380-00003,신록어린이공원,어린이공원,469.0,서울특별시 은평구 녹번 20-6,서울특별시 은평구,서울,은평구,녹번동,126.938211660321,37.6051629764554
11380-00004,참다래어린이공원,어린이공원,954.4,서울특별시 은평구 응암 120-22,서울특별시 은평구,서울,은평구,응암동,126.917378848439,37.595377456645
11380-00005,포수동어린이공원,어린이공원,987.8,서울특별시 은평구 응암 115-25,서울특별시 은평구,서울,은평구,응암동,126.919429942963,37.5981284291241
11380-00006,시루메어린이공원,어린이공원,999.6,서울특별시 은평구 증산 185-1,서울특별시 은평구,서울,은평구,증산동,126.906545968275,37.5829061318099
11380-00007,연서어린이공원,어린이공원,956.0,서울특별시 은평구 역촌 32-36,서울특별시 은평구,서울,은평구,역촌동,126.91677798594,37.6040586197837
11380-00008,역마을어린이공원,어린이공원,949.1,서울특별시 은평구 역촌 39-2,서울특별시 은평구,서울,은평구,역촌동,126.918491792557,37.6011149293757
11380-00009,역말어린이공원,어린이공원,966.3,서울특별시 은평구 역촌 47-1,서울특별시 은평구,서울,은평구,역촌동,126.914126418072,37.6068206864486
11380-00010,인조유기비어린이공원,어린이공원,1256.9,서울특별시 은평구 역촌 8-11,서울특별시 은평구,서울,은평구,역촌동,126.916512924796,37.6086750132246
11380-00011,대조어린이공원,어린이공원,4176.9,서울특별시 은평구 대조 212,서울특별시 은평구,서울,은평구,대조동,126.919940112837,37.6154266046252
11380-00012,길마어린이공원,어린이공원,1596.7,서울특별시 은평구 갈현 474-1,서울특별시 은평구,서울,은평구,갈현동,126.915847543141,37.6147190041171
11380-00013,궁말어린이공원,어린이공원,1190.0,서울특별시 은평구 갈현 327-21,서울특별시 은평구,서울,은평구,갈현동,126.908958935314,37.6169047334631
11380-00014,박석어린이공원,어린이공원,856.9,서울특별시 은평구 갈현 416-3,서울특별시 은평구,서울,은평구,갈현동,126.918577482027,37.6251435431692
11380-00015,좌월어린이공원,어린이공원,1398.3,서울특별시 은평구 갈현 513-1,서울특별시 은평구,서울,은평구,갈현동,126.913317965198,37.6173189565193
11380-00016,갈곡리어린이공원,어린이공원,1738.7,서울특별시 은평구 갈현 436-51,서울특별시 은평구,서울,은평구,갈현동,126.916440325596,37.6239617563606
11380-00017,새락골어린이공원,어린이공원,994.0,서울특별시 은평구 신사 5-21,서울특별시 은평구,서울,은평구,신사동,126.91118919532,37.5989603472533
11380-00018,호연어린이공원,어린이공원,528.0,서울특별시 은평구 녹번 95-44,서울특별시 은평구,서울,은평구,녹번동,126.931019928173,37.6055221811345
11380-00019,분토골어린이공원,어린이공원,996.0,서울특별시 은평구 증산 163-34,서울특별시 은평구,서울,은평구,증산동,126.911732178637,37.5867838525333
11380-00020,서갈현어린이공원,어린이공원,1532.2,서울특별시 은평구 갈현 434-38,서울특별시 은평구,서울,은평구,갈현동,126.915772841521,37.6215007761335
11380-00021,새장골어린이공원,어린이공원,992.0,서울특별시 은평구 불광 444-1,서울특별시 은평구,서울,은평구,불광동,126.926257446418,37.6252645496944
11380-00022,시내어린이공원,어린이공원,659.0,서울특별시 은평구 불광 444-15,서울특별시 은평구,서울,은평구,불광동,126.927341042873,37.624947714166
11380-00023,관동어린이공원,어린이공원,331.0,서울특별시 은평구 불광 270-11,서울특별시 은평구,서울,은평구,불광동,126.92976109155,37.6136678224642
11380-00025,신흥어린이공원,어린이공원,937.9,서울특별시 은평구 신사 31-2,서울특별시 은평구,서울,은평구,신사동,126.911854722963,37.5960628989287
11380-00026,아까시아어린이공원,어린이공원,982.0,서울특별시 은평구 신사 200-27,서울특별시 은평구,서울,은평구,신사동,126.908714862335,37.594557388573
11380-00027,개나리어린이공원,어린이공원,2896.0,서울특별시 은평구 신사 237-177,서울특별시 은평구,서울,은평구,신사동,126.904410968428,37.5955615599782
11380-00028,응암4동어린이공원,어린이공원,1526.0,서울특별시 은평구 응암 742-9,서울특별시 은평구,서울,은평구,응암동,126.916103919967,37.5832989369245
11380-00029,불광어린이공원,어린이공원,496.0,서울특별시 은평구 불광 236-5,서울특별시 은평구,서울,은평구,불광동,126.93145967528,37.6163816971885
11380-00030,응암9어린이공원,어린이공원,2244.3,서울특별시 은평구 응암동 761-9,서울특별시 은평구,서울,은평구,응암동,126.923048205003,37.5870508975787
11380-00031,다래어린이공원,어린이공원,584.9,서울특별시 은평구 응암동751-22,서울특별시 은평구,서울,은평구,응암동,126.919042791648,37.5871446246081
11380-00032,연신어린이공원,어린이공원,1236.0,서울특별시 은평구 불광 339,서울특별시 은평구,서울,은평구,불광동,126.925081717131,37.6197391358386
11380-00033,양천리누리터 어린이공원,어린이공원,5153.3,서울특별시 은평구 녹번동 281-4,서울특별시 은평구,서울,은평구,녹번동,126.934449903655,37.6062986268695
11380-00035,응암10재개발구역내 어린이공원,어린이공원,4144.8,서울특별시 은평구 응암동 767-1,서울특별시 은평구,서울,은평구,응암동,126.919611594726,37.5957959772224
11380-00036,응암1구역어린이공원,어린이공원,3090.1,서울특별시 은평구 응암동764-2,서울특별시 은평구,서울,은평구,응암동,126.921432591097,37.5890479641975
11410-00003,명수어린이공원,어린이공원,2269.0,서울특별시 서대문구 북아현동 210-24,서울특별시 서대문구,서울,서대문구,북아현동,126.950750821335,37.5600634335619
11410-00005,문화촌어린이공원,어린이공원,1500.0,서울특별시 서대문구 홍제동 277-82,서울특별시 서대문구,서울,서대문구,홍제동,126.947368621366,37.5951717343397
11410-00006,불천어린이공원,어린이공원,2006.0,서울특별시 서대문구 홍제동 287-121,서울특별시 서대문구,서울,서대문구,홍제동,126.947908728708,37.5973068728497
11410-00007,은가어린이공원,어린이공원,1312.0,서울특별시 서대문구 북가좌동 3-39,서울특별시 서대문구,서울,서대문구,북가좌동,126.919491164143,37.5827142986684
11410-00009,동구물어린이공원,어린이공원,275.0,서울특별시 서대문구 연희동 109-2,서울특별시 서대문구,서울,서대문구,연희동,126.928064848635,37.5713586588807
11410-00010,궁뜰어린이공원,어린이공원,983.8,서울특별시 서대문구 연희동 123-5,서울특별시 서대문구,서울,서대문구,연희동,126.930406821726,37.5690128800532
11410-00011,궁말어린이공원,어린이공원,886.9,서울특별시 서대문구 연희동 86-3,서울특별시 서대문구,서울,서대문구,연희동,126.933610518061,37.5710865636992
11410-00012,대궐재어린이공원,어린이공원,971.9,서울특별시 서대문구 연희동 73-8,서울특별시 서대문구,서울,서대문구,연희동,126.93708722656,37.5740758062939
11410-00013,연희어린이공원,어린이공원,661.0,서울특별시 서대문구 연희동 446-182,서울특별시 서대문구,서울,서대문구,연희동,126.921497075256,37.5677487812527
11410-00014,신가어린이공원,어린이공원,993.4,서울특별시 서대문구 북가좌동 318-1,서울특별시 서대문구,서울,서대문구,북가좌동,126.908361452357,37.5802516970669
11410-00015,해담는어린이공원,어린이공원,793.0,서울특별시 서대문구 북가좌동 325-20,서울특별시 서대문구,서울,서대문구,북가좌동,126.910470805395,37.5824192137401
11410-00016,다람쥐어린이공원,어린이공원,595.0,서울특별시 서대문구 연희동 151-49,서울특별시 서대문구,서울,서대문구,연희동,126.934423195577,37.5760800603447
11410-00017,모랫재어린이공원,어린이공원,529.0,서울특별시 서대문구 홍제동 156-363,서울특별시 서대문구,서울,서대문구,홍제동,126.944701135197,37.5829895480937
11410-00018,상암곡어린이공원,어린이공원,294.0,서울특별시 서대문구 홍제동 322-72,서울특별시 서대문구,서울,서대문구,홍제동,126.942242515502,37.5828976406854
11410-00019,홍남어린이공원,어린이공원,970.9,서울특별시 서대문구 홍은동 405-3,서울특별시 서대문구,서울,서대문구,홍은동,126.929188731584,37.5779911986547
11410-00020,홍연어린이공원,어린이공원,965.1,서울특별시 서대문구 홍은동 408-4,서울특별시 서대문구,서울,서대문구,홍은동,126.926801359648,37.5801271701392
11410-00021,백련어린이공원,어린이공원,985.8,서울특별시 서대문구 홍은동 421-1,서울특별시 서대문구,서울,서대문구,홍은동,126.924130027407,37.5823712998371
11410-00022,남이마을어린이공원,어린이공원,1397.6,서울특별시 서대문구 남가좌동 368,서울특별시 서대문구,서울,서대문구,남가좌동,126.919573444783,37.5789500037821
11410-00023,연남어린이공원,어린이공원,991.7,서울특별시 서대문구 남가좌동 326-8,서울특별시 서대문구,서울,서대문구,남가좌동,126.925323618364,37.5782024425606
11410-00024,실락어린이공원,어린이공원,17452.0,서울특별시 서대문구 홍은동 455-4,서울특별시 서대문구,서울,서대문구,홍은동,126.943388748186,37.59449838358
11410-00025,바람산어린이공원,어린이공원,627.1,서울특별시 서대문구 창천동 4-54,서울특별시 서대문구,서울,서대문구,창천동,126.940217986188,37.5582813537292
11410-00027,가좌어린이공원,어린이공원,1665.0,서울특별시 서대문구 남가좌동 376-4,서울특별시 서대문구,서울,서대문구,남가좌동,126.920492161804,37.5758371510537
11410-00028,개나리어린이공원,어린이공원,1653.0,서울특별시 서대문구 남가좌동 377-3,서울특별시 서대문구,서울,서대문구,남가좌동,126.917792363368,37.5777863145507
11410-00032,독립문어린이공원,어린이공원,2600.0,서울특별시 서대문구 영천동 263,서울특별시 서대문구,서울,서대문구,영천동,126.960433294932,37.5716018063633
11410-00033,연서어린이공원,어린이공원,1582.0,서울특별시 서대문구 연희동 519-7,서울특별시 서대문구,서울,서대문구,연희동,126.923272076004,37.5721256314695
11410-00034,북가좌정원지구어린이공원,어린이공원,1869.0,서울특별시 서대문구 북가좌동 459-1,서울특별시 서대문구,서울,서대문구,북가좌동,126.916780890939,37.5797907676029
11410-00038,솟대어린이공원,어린이공원,1474.5,서울특별시 서대문구 남가좌동 379-3,서울특별시 서대문구,서울,서대문구,남가좌동,126.912981874452,37.5728062243261
11410-00039,나비울어린이공원,어린이공원,6757.0,서울특별시 서대문구 북가좌동 475,서울특별시 서대문구,서울,서대문구,북가좌동,126.909561523597,37.574792959475
11410-00041,거꾸로어린이공원,어린이공원,1125.3,서울특별시 서대문구 북가좌동 338-21,서울특별시 서대문구,서울,서대문구,북가좌동,126.913292913993,37.585233049384
11410-00046,모래내어린이공원,어린이공원,1766.3,서울특별시 서대문구 남가좌동 383-2,서울특별시 서대문구,서울,서대문구,남가좌동,126.913830550803,37.5722002070605
11410-00047,가재울어린이공원,어린이공원,9508.0,서울특별시 서대문구 남가좌동 385-2,서울특별시 서대문구,서울,서대문구,남가좌동,126.919296891088,37.5730613669977
11440-00010,큰더기어린이공원,어린이공원,1949.0,서울특별시 마포구 공덕동 470-1,서울특별시 마포구,서울,마포구,공덕동,126.953163709674,37.5501227175345
11440-00012,마포어린이공원,어린이공원,2030.0,서울특별시 마포구 마포동 350-5,서울특별시 마포구,서울,마포구,마포동,126.943680955426,37.5357726820231
11440-00013,복사꽃어린이공원,어린이공원,1553.0,서울특별시 마포구 도화동 533,서울특별시 마포구,서울,마포구,도화동,126.946591392197,37.539042773148
11440-00014,도화소어린이공원,어린이공원,1646.0,서울특별시 마포구 도화동 540,서울특별시 마포구,서울,마포구,도화동,126.94554170489,37.5410765713009
11440-00015,삼개어린이공원,어린이공원,3029.0,서울특별시 마포구 도화동 555-1,서울특별시 마포구,서울,마포구,도화동,126.945185056295,37.5406056339067
11440-00016,대흥어린이공원,어린이공원,1486.0,서울특별시 마포구 대흥동 660-1,서울특별시 마포구,서울,마포구,대흥동,126.943611853645,37.5436975741802
11440-00017,현석어린이공원,어린이공원,1622.0,서울특별시 마포구 현석동 1-5,서울특별시 마포구,서울,마포구,현석동,126.933295561799,37.5443448811506
11440-00018,창전어린이공원,어린이공원,1185.0,서울특별시 마포구 창전동 35-28,서울특별시 마포구,서울,마포구,창전동,126.929151808268,37.5501619283245
11440-00019,와우어린이공원,어린이공원,2924.0,서울특별시 마포구 상수동 72-7,서울특별시 마포구,서울,마포구,상수동,126.925330347718,37.5490075570863
11440-00020,서교어린이공원,어린이공원,1761.0,서울특별시 마포구 서교동 391-1,서울특별시 마포구,서울,마포구,서교동,126.91540455138,37.5519035188021
11440-00021,잔다리어린이공원,어린이공원,774.0,서울특별시 마포구 서교동 479-1,서울특별시 마포구,서울,마포구,서교동,126.912789031312,37.5546074021734
11440-00022,윗잔다리어린이공원,어린이공원,3251.0,서울특별시 마포구 동교동 168-1,서울특별시 마포구,서울,마포구,동교동,126.92598279293,37.5571888477797
11440-00023,동교어린이공원,어린이공원,978.0,서울특별시 마포구 동교동 197-17,서울특별시 마포구,서울,마포구,동교동,126.923303243893,37.5601651126855
11440-00024,합정어린이공원,어린이공원,3005.0,서울특별시 마포구 서교동 489,서울특별시 마포구,서울,마포구,서교동,126.913143833224,37.5516754566928
11440-00025,양화어린이공원,어린이공원,1388.0,서울특별시 마포구 합정동 394-1,서울특별시 마포구,서울,마포구,합정동,126.908510799305,37.5504322745998
11440-00026,한마음어린이공원,어린이공원,770.0,서울특별시 마포구 망원동 381-1,서울특별시 마포구,서울,마포구,망원동,126.908048077374,37.5545669544471
11440-00027,옹달샘어린이공원,어린이공원,1134.0,서울특별시 마포구 망원동 408-3,서울특별시 마포구,서울,마포구,망원동,126.902063337652,37.5548965922823
11440-00028,두리어린이공원,어린이공원,1007.0,서울특별시 마포구 망원2동 436-1,서울특별시 마포구,서울,마포구,망원동,126.901248496223,37.5601276426703
11440-00029,망원새싹어린이공원,어린이공원,559.0,서울특별시 마포구 망원2동 509-1,서울특별시 마포구,서울,마포구,망원동,126.898525558991,37.5590746816213
11440-00030,느티나무어린이공원,어린이공원,993.0,서울특별시 마포구 연남동 563-5,서울특별시 마포구,서울,마포구,연남동,126.918786557459,37.5596378022481
11440-00031,은행나무어린이공원,어린이공원,994.0,서울특별시 마포구 연남동 250-1,서울특별시 마포구,서울,마포구,연남동,126.922322593866,37.564578182505
11440-00032,다솜어린이공원,어린이공원,975.0,서울특별시 마포구 성산동 113-2,서울특별시 마포구,서울,마포구,성산동,126.915392848666,37.5624549075536
11440-00033,뒤뜰어린이공원,어린이공원,530.0,서울특별시 마포구 성산동 588-8,서울특별시 마포구,서울,마포구,성산동,126.90936805088,37.5632168237538
11440-00034,외주목어린이공원,어린이공원,263.0,서울특별시 마포구 성산동 587-18 일대,서울특별시 마포구,서울,마포구,성산동,126.90780921061,37.5627106985512
11440-00035,성메어린이공원,어린이공원,640.0,서울특별시 마포구 성산동 667-1,서울특별시 마포구,서울,마포구,성산동,126.914805208069,37.5681110272276
11440-00036,성황당어린이공원,어린이공원,1367.0,서울특별시 마포구 성산동 147-5,서울특별시 마포구,서울,마포구,성산동,126.907338589518,37.5690164894564
11440-00037,큰길어린이공원,어린이공원,942.0,서울특별시 마포구 성산동 200-50,서울특별시 마포구,서울,마포구,성산동,126.908219469022,37.5677209155195
11440-00038,쌍둥이어린이공원,어린이공원,905.0,서울특별시 마포구 성산동 200-335,서울특별시 마포구,서울,마포구,성산동,126.90674975473,37.5657480250074
11440-00039,성사천어린이공원,어린이공원,166.0,서울특별시 마포구 성산동 199-11,서울특별시 마포구,서울,마포구,성산동,126.904869244425,37.5653840541166
11440-00040,중동소어린이공원,어린이공원,779.0,서울특별시 마포구 중동 36-27,서울특별시 마포구,서울,마포구,중동,126.906581745496,37.570671831951
11440-00041,중동어린이공원,어린이공원,377.0,서울특별시 마포구 중동 228,서울특별시 마포구,서울,마포구,중동,126.91044868918,37.5684613536436
11440-00042,샘터어린이공원,어린이공원,123.0,서울특별시 마포구 중동 36-34,서울특별시 마포구,서울,마포구,중동,126.906741736169,37.5699100770169
11440-00043,개나리어린이공원,어린이공원,1481.0,서울특별시 마포구 중동 40-5 일대,서울특별시 마포구,서울,마포구,중동,126.909183941429,37.5698945917557
11440-00044,새누리어린이공원,어린이공원,2897.0,서울특별시 마포구 상암동 1619,서울특별시 마포구,서울,마포구,상암동,126.89815065246,37.5754948209674
11440-00045,휴암어린이공원,어린이공원,921.0,서울특별시 마포구 상암동 14-5,서울특별시 마포구,서울,마포구,상암동,126.895695835137,37.577115367844
11440-00046,부엉바위어린이공원,어린이공원,1511.0,서울특별시 마포구 상암동 1636,서울특별시 마포구,서울,마포구,상암동,126.892472502306,37.5753942801517
11440-00047,물치어린이공원,어린이공원,1522.0,서울특별시 마포구 상암동 1656,서울특별시 마포구,서울,마포구,상암동,126.887883504085,37.5777051150405
11440-00048,귀리어린이공원,어린이공원,1504.0,서울특별시 마포구 상암동 1681,서울특별시 마포구,서울,마포구,상암동,126.880694506934,37.5814744923155
11440-00049,목련어린이공원,어린이공원,1501.0,서울특별시 마포구 상암동1742,서울특별시 마포구,서울,마포구,상암동,126.880228575424,37.5873780454658
11440-00050,산수유어린이공원,어린이공원,2011.0,서울특별시 마포구 상암동1744,서울특별시 마포구,서울,마포구,상암동,126.87906674589,37.5854571163746
11440-00051,산딸나무어린이공원,어린이공원,1499.0,서울특별시 마포구 상암동1753,서울특별시 마포구,서울,마포구,상암동,126.877923414656,37.5835456548205
11440-00053,쌍룡산어린이공원,어린이공원,5911.0,서울특별시 마포구 아현동 769,서울특별시 마포구,서울,마포구,아현동,126.950504821607,37.5521101360107
11440-00055,애오개어린이공원,어린이공원,1424.0,서울특별시 마포구 아현동 802번지 일대,서울특별시 마포구,서울,마포구,아현동,126.959183184111,37.5555439140396
11440-00059,염리어린이공원,어린이공원,1933.0,서울특별시 마포구 염리동 533-10,서울특별시 마포구,서울,마포구,염리동,126.9464194249,37.549768280206
11470-00002,무지개,어린이공원,2375.1,서울특별시 양천구 목1동 925-1,서울특별시 양천구,서울,양천구,목동,126.867047747494,37.528850692574
11470-00006,한두,어린이공원,986.1,서울특별시 양천구 목3동 611-1,서울특별시 양천구,서울,양천구,목동,126.865472315426,37.5492232104382
11470-00007,백석,어린이공원,708.4,서울특별시 양천구 목3동 646-23,서울특별시 양천구,서울,양천구,목동,126.865047642034,37.5451889566485
11470-00008,무궁화,어린이공원,984.6,서울특별시 양천구 목3동 712-1,서울특별시 양천구,서울,양천구,목동,126.864347850303,37.5417674226943
11470-00009,목동누리,어린이공원,2190.0,서울특별시 양천구 목3동 965-1,서울특별시 양천구,서울,양천구,목동,126.86548910371,37.5459262068344
11470-00010,나말,어린이공원,1002.2,서울특별시 양천구 목4동 724-1,서울특별시 양천구,서울,양천구,목동,126.864551485962,37.5385989319167
11470-00011,정목,어린이공원,987.3,서울특별시 양천구 목4동 767-1,서울특별시 양천구,서울,양천구,목동,126.868364237801,37.5369840569384
11470-00012,모세미,어린이공원,988.9,서울특별시 양천구 목4동 772-1,서울특별시 양천구,서울,양천구,목동,126.868678500983,37.5352731375538
11470-00013,마장,어린이공원,785.4,서울특별시 양천구 목4동 791-22,서울특별시 양천구,서울,양천구,목동,126.864723384727,37.5335103712931
11470-00016,햇님,어린이공원,2299.5,서울특별시 양천구 목5동 901-2,서울특별시 양천구,서울,양천구,목동,126.879434112251,37.5399623290055
11470-00017,별님,어린이공원,4211.4,서울특별시 양천구 목5동 902-2,서울특별시 양천구,서울,양천구,목동,126.875254506692,37.5378340613647
11470-00018,영도,어린이공원,2985.4,서울특별시 양천구 목5동 903-2,서울특별시 양천구,서울,양천구,목동,126.87293360331,37.5350564168541
11470-00019,진달래,어린이공원,6517.0,서울특별시 양천구 목5동 904-1,서울특별시 양천구,서울,양천구,목동,126.870105436311,37.531893351342
11470-00020,달님,어린이공원,3659.2,서울특별시 양천구 목5동 911-5,서울특별시 양천구,서울,양천구,목동,126.885550874148,37.5351554543014
11470-00021,장미,어린이공원,3963.8,서울특별시 양천구 목5동 912-1,서울특별시 양천구,서울,양천구,목동,126.882785876417,37.5344441956361
11470-00022,은하수,어린이공원,3815.8,서울특별시 양천구 목5동 913-1,서울특별시 양천구,서울,양천구,목동,126.878616706109,37.533407797904
11470-00023,신대,어린이공원,1003.1,서울특별시 양천구 신월1동 100-1,서울특별시 양천구,서울,양천구,신월동,126.832789197463,37.5348018723592
11470-00024,돌다리,어린이공원,925.1,서울특별시 양천구 신월1동 119,서울특별시 양천구,서울,양천구,신월동,126.835792172079,37.5320340693493
11470-00025,반곡,어린이공원,946.7,서울특별시 양천구 신월1동 230-1,서울특별시 양천구,서울,양천구,신월동,126.83550493234,37.5291928151057
11470-00026,곰달래,어린이공원,945.1,서울특별시 양천구 신월1동 234-11외 4,서울특별시 양천구,서울,양천구,신월동,126.837932848514,37.5287421575606
11470-00027,신월,어린이공원,1148.2,서울특별시 양천구 신월1동 240,서울특별시 양천구,서울,양천구,신월동,126.83819855724,37.5270324221311
11470-00028,신곡,어린이공원,990.4,서울특별시 양천구 신월2동 459,서울특별시 양천구,서울,양천구,신월동,126.845108777183,37.5262689883673
11470-00029,꽃동산,어린이공원,1002.9,서울특별시 양천구 신월2동 471,서울특별시 양천구,서울,양천구,신월동,126.848446725122,37.5264570330179
11470-00030,신장,어린이공원,983.8,서울특별시 양천구 신월2동 486,서울특별시 양천구,서울,양천구,신월동,126.842796722261,37.5242366982073
11470-00032,남부,어린이공원,995.9,서울특별시 양천구 신월3동 156,서울특별시 양천구,서울,양천구,신월동,126.826098609715,37.5347735588959
11470-00033,경인,어린이공원,1161.6,서울특별시 양천구 신월3동 196,서울특별시 양천구,서울,양천구,신월동,126.82884059197,37.5321060999018
11470-00034,태양,어린이공원,998.1,서울특별시 양천구 신월4동 422-1,서울특별시 양천구,서울,양천구,신월동,126.838600528409,37.5243979939588
11470-00035,남도,어린이공원,1009.9,서울특별시 양천구 신월4동 426-4,서울특별시 양천구,서울,양천구,신월동,126.840836307178,37.5244214808689
11470-00036,문화,어린이공원,992.1,서울특별시 양천구 신월4동 515,서울특별시 양천구,서울,양천구,신월동,126.842737985093,37.5212303375239
11470-00037,꿀벌,어린이공원,1005.2,서울특별시 양천구 신월4동 531,서울특별시 양천구,서울,양천구,신월동,126.842042727776,37.520001974612
11470-00038,당곡,어린이공원,1055.3,서울특별시 양천구 신월4동 542,서울특별시 양천구,서울,양천구,신월동,126.83996416927,37.518617489568
11470-00039,당뒤,어린이공원,1068.8,서울특별시 양천구 신월5동 13-1,서울특별시 양천구,서울,양천구,신월동,126.828549311984,37.5414738191666
11470-00040,방아다리,어린이공원,927.3,서울특별시 양천구 신월5동 56-1,서울특별시 양천구,서울,양천구,신월동,126.82837013246,37.5386861384453
11470-00041,송죽,어린이공원,444.9,서울특별시 양천구 신월5동 65,서울특별시 양천구,서울,양천구,신월동,126.833877901535,37.5394200400005
11470-00042,신오,어린이공원,932.4,서울특별시 양천구 신월5동 73-2,서울특별시 양천구,서울,양천구,신월동,126.831553928139,37.5382155357891
11470-00043,강월,어린이공원,2755.6,서울특별시 양천구 신월6동 1004,서울특별시 양천구,서울,양천구,신월동,126.836307963379,37.5155708745934
11470-00044,강신,어린이공원,1500.0,서울특별시 양천구 신월6동 1012-2,서울특별시 양천구,서울,양천구,신월동,126.838441665345,37.5155469624583
11470-00045,아동,어린이공원,1500.2,서울특별시 양천구 신월7동 922-1,서울특별시 양천구,서울,양천구,신월동,126.833336127709,37.5231061246436
11470-00048,금실,어린이공원,3378.8,서울특별시 양천구 신월7동 985,서울특별시 양천구,서울,양천구,신월동,126.837318938439,37.5181374257454
11470-00054,해태,어린이공원,1046.8,서울특별시 양천구 신정1동 1017-5,서울특별시 양천구,서울,양천구,신정동,126.861977151697,37.5217120965067
11470-00055,양명,어린이공원,667.4,서울특별시 양천구 신정1동 1050-3,서울특별시 양천구,서울,양천구,신정동,126.854516511017,37.5192646698663
11470-00057,꿈나무,어린이공원,3148.2,서울특별시 양천구 신정1동 311-1,서울특별시 양천구,서울,양천구,신정동,126.858451294027,37.5176728744006
11470-00058,개나리,어린이공원,3500.0,서울특별시 양천구 신정1동 312-2,서울특별시 양천구,서울,양천구,신정동,126.862732405332,37.5177332489293
11470-00059,꽃사과,어린이공원,1738.6,서울특별시 양천구 신정1동 313-2,서울특별시 양천구,서울,양천구,신정동,126.864679682738,37.5201244141724
11470-00061,신정,어린이공원,487.0,서울특별시 양천구 신정2동 128-198,서울특별시 양천구,서울,양천구,신정동,126.87477696777,37.5204774815365
11470-00062,신세계,어린이공원,1674.0,서울특별시 양천구 신정2동 119-3,서울특별시 양천구,서울,양천구,신정동,126.875897978366,37.5217147498577
11470-00063,꽃사슴,어린이공원,1009.1,서울특별시 양천구 신정3동 1195,서울특별시 양천구,서울,양천구,신정동,126.848513354284,37.5217593861619
11470-00064,학마을,어린이공원,1500.0,서울특별시 양천구 신정3동 1293-4,서울특별시 양천구,서울,양천구,신정동,126.843675801555,37.5089561382089
11470-00065,신기,어린이공원,1534.0,서울특별시 양천구 신정3동 1260,서울특별시 양천구,서울,양천구,신정동,126.854310366556,37.5140498619558
11470-00067,푸른,어린이공원,2574.9,서울특별시 양천구 신정3동 1283-1,서울특별시 양천구,서울,양천구,신정동,126.837626752396,37.5112875240179
11470-00068,신이,어린이공원,1510.3,서울특별시 양천구 신정3동 1284-1,서울특별시 양천구,서울,양천구,신정동,126.83759373804,37.5125344672798
11470-00070,하늘마루,어린이공원,1500.0,서울특별시 양천구 신정3동 1316-2,서울특별시 양천구,서울,양천구,신정동,126.831648092633,37.5126302086024
11470-00072,숲속,어린이공원,1500.0,서울특별시 양천구 신정3동 1322-10,서울특별시 양천구,서울,양천구,신정동,126.830055189544,37.5147233001098
11470-00073,넓은들,어린이공원,3288.0,서울특별시 양천구 신정3동 767,서울특별시 양천구,서울,양천구,신정동,126.839196089815,37.5111366804822
11470-00075,동개울,어린이공원,991.2,서울특별시 양천구 신정4동 876-1,서울특별시 양천구,서울,양천구,신정동,126.856519561299,37.5279762033086
11470-00076,오구,어린이공원,738.4,서울특별시 양천구 신정4동 888-1,서울특별시 양천구,서울,양천구,신정동,126.861968411059,37.5273160465376
11470-00077,홍익,어린이공원,990.8,서울특별시 양천구 신정4동 896-22,서울특별시 양천구,서울,양천구,신정동,126.862287045249,37.5285768290509
11470-00078,앞산,어린이공원,1050.5,서울특별시 양천구 신정4동 910-9,서울특별시 양천구,서울,양천구,신정동,126.858399327138,37.5264366787124
11470-00079,진주,어린이공원,940.5,서울특별시 양천구 신정4동 920-3,서울특별시 양천구,서울,양천구,신정동,126.855058825753,37.5265617398608
11470-00080,음골,어린이공원,995.4,서울특별시 양천구 신정4동 936-13,서울특별시 양천구,서울,양천구,신정동,126.851239928688,37.5274066355643
11470-00081,안산,어린이공원,992.1,서울특별시 양천구 신정4동 949-4,서울특별시 양천구,서울,양천구,신정동,126.856203241243,37.5246186875071
11470-00082,새뚝,어린이공원,961.3,서울특별시 양천구 신정4동 955-1,서울특별시 양천구,서울,양천구,신정동,126.857761502956,37.5241131303072
11470-00083,은행정,어린이공원,1062.2,서울특별시 양천구 신정4동 975-30,서울특별시 양천구,서울,양천구,신정동,126.855009188706,37.5220468497301
11470-00084,아랫말,어린이공원,947.7,서울특별시 양천구 신정4동 990-1,서울특별시 양천구,서울,양천구,신정동,126.861858902567,37.525044944371
11470-00086,꿈동산,어린이공원,3730.1,서울특별시 양천구 신정6동 314-1,서울특별시 양천구,서울,양천구,신정동,126.867476059372,37.5219495016106
11470-00087,다람쥐,어린이공원,2265.5,서울특별시 양천구 신정6동 327-1,서울특별시 양천구,서울,양천구,신정동,126.866041454141,37.5135243181897
11470-00088,까치,어린이공원,2149.8,서울특별시 양천구 신정6동 328-1,서울특별시 양천구,서울,양천구,신정동,126.868330355336,37.5150003927122
11470-00089,꿈나래,어린이공원,2433.9,서울특별시 양천구 신정6동 329-2,서울특별시 양천구,서울,양천구,신정동,126.869770457652,37.5163263737727
11470-00090,기린,어린이공원,2029.7,서울특별시 양천구 신정6동 330-1,서울특별시 양천구,서울,양천구,신정동,126.872411504137,37.5136354366557
11470-00091,사슴,어린이공원,2511.3,서울특별시 양천구 신정6동 332-1,서울특별시 양천구,서울,양천구,신정동,126.873436992921,37.5156926294699
11470-00093,목련,어린이공원,2498.5,서울특별시 양천구 신정7동 325-2,서울특별시 양천구,서울,양천구,신정동,126.858291650673,37.5114706275956
11470-00094,호돌이,어린이공원,3399.7,서울특별시 양천구 신정7동 326-2,서울특별시 양천구,서울,양천구,신정동,126.861335694736,37.512510124147
11470-00095,세양,어린이공원,1560.7,서울특별시 양천구 신정7동 1306-2,서울특별시 양천구,서울,양천구,신정동,126.864084872352,37.5067907728899
11500-00023,이수,어린이공원,1805.1,서울특별시 강서구 염창동 281-3,서울특별시 강서구,서울,강서구,염창동,126.874378547633,37.5482737287593
11500-00024,백합,어린이공원,939.3,서울특별시 강서구 염창동 267-24,서울특별시 강서구,서울,강서구,염창동,126.869457754053,37.5511505933917
11500-00025,아리수,어린이공원,862.5,서울특별시 강서구 염창동 299-3,서울특별시 강서구,서울,강서구,염창동,126.875287070412,37.5517047909143
11500-00026,등서,어린이공원,879.7,서울특별시 강서구 등촌동 639-2,서울특별시 강서구,서울,강서구,등촌동,126.854620964176,37.5591625824614
11500-00027,백석,어린이공원,993.6,서울특별시 강서구 등촌동 646-41,서울특별시 강서구,서울,강서구,등촌동,126.863491519806,37.5526223835167
11500-00028,등마루,어린이공원,970.9,서울특별시 강서구 등촌동 641-5,서울특별시 강서구,서울,강서구,등촌동,126.857412815408,37.5560385378282
11500-00029,도림,어린이공원,1033.8,서울특별시 강서구 등촌동 635-1,서울특별시 강서구,서울,강서구,등촌동,126.862887056415,37.5556025422109
11500-00030,능안,어린이공원,853.9,서울특별시 강서구 등촌동 517-1,서울특별시 강서구,서울,강서구,등촌동,126.860057780717,37.5464904071297
11500-00031,한마음,어린이공원,1791.8,서울특별시 강서구 등촌동 690-3,서울특별시 강서구,서울,강서구,등촌동,126.843113747088,37.5606650400182
11500-00032,새나라,어린이공원,1563.4,서울특별시 강서구 등촌동 707-2,서울특별시 강서구,서울,강서구,등촌동,126.852037654609,37.5615671953508
11500-00033,백합,어린이공원,1547.4,서울특별시 강서구 등촌동 695-4,서울특별시 강서구,서울,강서구,등촌동,126.845005443929,37.5592506320737
11500-00034,채송화,어린이공원,1544.9,서울특별시 강서구 등촌동 694-1,서울특별시 강서구,서울,강서구,등촌동,126.846054857943,37.5627622852591
11500-00035,푸르매,어린이공원,1538.3,서울특별시 강서구 등촌동 705-3,서울특별시 강서구,서울,강서구,등촌동,126.847517403676,37.5590521698799
11500-00036,새벗,어린이공원,1565.8,서울특별시 강서구 등촌동 688-3,서울특별시 강서구,서울,강서구,등촌동,126.840300547169,37.5607037953459
11500-00037,코끼리,어린이공원,1594.5,서울특별시 강서구 등촌동 702-1,서울특별시 강서구,서울,강서구,등촌동,126.848554371883,37.5632335851918
11500-00038,구름,어린이공원,833.0,서울특별시 강서구 화곡동 98-22,서울특별시 강서구,서울,강서구,화곡동,126.844036761712,37.5433300836422
11500-00039,볏골,어린이공원,4219.0,서울특별시 강서구 화곡동 98-99,서울특별시 강서구,서울,강서구,화곡동,126.844388675502,37.5414780944294
11500-00040,노을,어린이공원,1031.0,서울특별시 강서구 화곡동 105-194,서울특별시 강서구,서울,강서구,화곡동,126.843955269895,37.5398650946318
11500-00041,까치산,어린이공원,1805.0,서울특별시 강서구 화곡동 102-206,서울특별시 강서구,서울,강서구,화곡동,126.844479706671,37.538291019914
11500-00042,비둘기,어린이공원,1086.0,서울특별시 강서구 화곡동 61-96,서울특별시 강서구,서울,강서구,화곡동,126.846981437126,37.541370479543
11500-00043,큰별,어린이공원,1067.0,서울특별시 강서구 화곡동 46-41,서울특별시 강서구,서울,강서구,화곡동,126.848956103752,37.544485882387
11500-00044,꿈돌이,어린이공원,1507.0,서울특별시 강서구 화곡동 24-128,서울특별시 강서구,서울,강서구,화곡동,126.845366226876,37.5459011192494
11500-00045,소나무,어린이공원,942.0,서울특별시 강서구 화곡동 29-31,서울특별시 강서구,서울,강서구,화곡동,126.847849374653,37.5470749217682
11500-00046,산새,어린이공원,539.0,서울특별시 강서구 화곡동 772,서울특별시 강서구,서울,강서구,화곡동,126.850417668848,37.5462814504484
11500-00047,박장,어린이공원,929.0,서울특별시 강서구 화곡동 56-25,서울특별시 강서구,서울,강서구,화곡동,126.849095936498,37.5407388071739
11500-00048,참새,어린이공원,256.0,서울특별시 강서구 화곡동 56-638,서울특별시 강서구,서울,강서구,화곡동,126.847057907124,37.5397187769766
11500-00049,한글,어린이공원,965.0,서울특별시 강서구 화곡동 56-3,서울특별시 강서구,서울,강서구,화곡동,126.850511918561,37.5385233390618
11500-00050,효심,어린이공원,1056.5,서울특별시 강서구 화곡동 922-10,서울특별시 강서구,서울,강서구,화곡동,126.840692530833,37.5295250978171
11500-00051,버들,어린이공원,1087.2,서울특별시 강서구 화곡동 424-45,서울특별시 강서구,서울,강서구,화곡동,126.841246018058,37.5311098021627
11500-00052,필마,어린이공원,1615.5,서울특별시 강서구 화곡동 355-12,서울특별시 강서구,서울,강서구,화곡동,126.838819562176,37.5314862871473
11500-00053,다운,어린이공원,1290.6,서울특별시 강서구 화곡동 346-26,서울특별시 강서구,서울,강서구,화곡동,126.844671810842,37.5320818518576
11500-00054,호돌이,어린이공원,811.6,서울특별시 강서구 화곡동 906-26,서울특별시 강서구,서울,강서구,화곡동,126.84604406033,37.5282290777874
11500-00055,곰돌이,어린이공원,1006.9,서울특별시 강서구 화곡동 900-46,서울특별시 강서구,서울,강서구,화곡동,126.84501936799,37.5295678862275
11500-00056,골말,어린이공원,977.9,서울특별시 강서구 화곡동 865-1,서울특별시 강서구,서울,강서구,화곡동,126.856095591595,37.5332510465953
11500-00057,뜸부기,어린이공원,998.4,서울특별시 강서구 화곡동 845-19,서울특별시 강서구,서울,강서구,화곡동,126.856946914027,37.5301397547016
11500-00058,하마터,어린이공원,1026.8,서울특별시 강서구 화곡동 883-3,서울특별시 강서구,서울,강서구,화곡동,126.853649289164,37.5300062404715
11500-00059,바탕골,어린이공원,976.6,서울특별시 강서구 화곡동 1016-34,서울특별시 강서구,서울,강서구,화곡동,126.834776243782,37.5445751932501
11500-00060,미리내,어린이공원,967.5,서울특별시 강서구 화곡동 1008-32,서울특별시 강서구,서울,강서구,화곡동,126.834765865715,37.547687856853
11500-00061,수명산,어린이공원,984.9,서울특별시 강서구 화곡동 1044-31,서울특별시 강서구,서울,강서구,화곡동,126.834445483996,37.5408407214211
11500-00062,대원,어린이공원,276.9,서울특별시 강서구 화곡동 1022,서울특별시 강서구,서울,강서구,화곡동,126.835926688139,37.5448944893629
11500-00063,천사,어린이공원,2395.2,서울특별시 강서구 화곡동 1139-1,서울특별시 강서구,서울,강서구,화곡동,126.833003087421,37.5469038514039
11500-00064,두레,어린이공원,986.1,서울특별시 강서구 화곡동 792-9,서울특별시 강서구,서울,강서구,화곡동,126.85935943214,37.5312099777825
11500-00065,달빛,어린이공원,976.2,서울특별시 강서구 화곡동783-1,서울특별시 강서구,서울,강서구,화곡동,126.862945093316,37.531198155609
11500-00066,무지개,어린이공원,976.2,서울특별시 강서구 화곡동806-10,서울특별시 강서구,서울,강서구,화곡동,126.861307059245,37.5339702434926
11500-00067,능골,어린이공원,997.2,서울특별시 강서구 화곡동468-1,서울특별시 강서구,서울,강서구,화곡동,126.855319382123,37.5367431852076
11500-00068,종달새,어린이공원,991.4,서울특별시 강서구 화곡동819-5,서울특별시 강서구,서울,강서구,화곡동,126.858045113919,37.5353339956357
11500-00069,화곡2주구1,어린이공원,2438.3,서울특별시 강서구 화곡동1159-2,서울특별시 강서구,서울,강서구,화곡동,126.838675498269,37.5502009198399
11500-00070,화곡2주구2,어린이공원,2438.2,서울특별시 강서구 화곡동1159-3,서울특별시 강서구,서울,강서구,화곡동,126.838700634547,37.5487242190589
11500-00071,범바위,어린이공원,973.6,서울특별시 강서구 화곡동1061-36,서울특별시 강서구,서울,강서구,화곡동,126.841552086533,37.5431253125338
11500-00072,개나리,어린이공원,285.0,서울특별시 강서구 화곡동75-3,서울특별시 강서구,서울,강서구,화곡동,126.844099994229,37.5483935970766
11500-00073,화곡3주구1,어린이공원,4504.2,서울특별시 강서구 화곡동1165-2,서울특별시 강서구,서울,강서구,화곡동,126.836957371539,37.5461719106355
11500-00074,화곡3주구2,어린이공원,3466.8,서울특별시 강서구 화곡동1165-6,서울특별시 강서구,서울,강서구,화곡동,126.840501039373,37.5451751106628
11500-00075,역말,어린이공원,982.1,서울특별시 강서구 화곡동978-18,서울특별시 강서구,서울,강서구,화곡동,126.848799764799,37.5496746205224
11500-00076,새말,어린이공원,969.6,서울특별시 강서구 화곡동994-5,서울특별시 강서구,서울,강서구,화곡동,126.846376563304,37.5519398440755
11500-00077,연지,어린이공원,629.1,서울특별시 강서구 화곡동1109,서울특별시 강서구,서울,강서구,화곡동,126.853314251146,37.5546912119624
11500-00078,백연,어린이공원,1107.4,서울특별시 강서구 화곡동980-2,서울특별시 강서구,서울,강서구,화곡동,126.851930154171,37.550688065298
11500-00079,솔뫼,어린이공원,1981.5,서울특별시 강서구 화곡동379-32,서울특별시 강서구,서울,강서구,화곡동,126.83849876993,37.5379097978938
11500-00080,월정,어린이공원,1181.5,서울특별시 강서구 화곡동372-26,서울특별시 강서구,서울,강서구,화곡동,126.836002950673,37.535184618724
11500-00081,초롱,어린이공원,946.0,서울특별시 강서구 화곡동1088-16,서울특별시 강서구,서울,강서구,화곡동,126.836238156487,37.5380901281168
11500-00082,은행,어린이공원,1123.6,서울특별시 강서구 화곡동369-11,서울특별시 강서구,서울,강서구,화곡동,126.840534664628,37.5358162089057
11500-00083,까치산,어린이공원,1163.6,서울특별시 강서구 화곡동354-14,서울특별시 강서구,서울,강서구,화곡동,126.84190817135,37.5334309463718
11500-00084,배다리,어린이공원,1630.1,서울특별시 강서구 화곡동341-24,서울특별시 강서구,서울,강서구,화곡동,126.848321127662,37.5321117331597
11500-00085,안골,어린이공원,2381.8,서울특별시 강서구 화곡동155-1,서울특별시 강서구,서울,강서구,화곡동,126.850866310496,37.5357895235112
11500-00086,대무,어린이공원,946.0,서울특별시 강서구 화곡동409-84,서울특별시 강서구,서울,강서구,화곡동,126.847587353162,37.5380970319737
11500-00087,모태,어린이공원,1003.4,서울특별시 강서구 화곡동892-17,서울특별시 강서구,서울,강서구,화곡동,126.849529598163,37.5294993862221
11500-00088,더부리,어린이공원,1263.7,서울특별시 강서구 화곡동339-19,서울특별시 강서구,서울,강서구,화곡동,126.846766057416,37.5348711109696
11500-00089,나들이,어린이공원,1500.0,서울특별시 강서구 가양동 1459-1,서울특별시 강서구,서울,강서구,가양동,126.844257853015,37.5718306052124
11500-00090,아름,어린이공원,1956.0,서울특별시 강서구 가양동 1465,서울특별시 강서구,서울,강서구,가양동,126.848693660094,37.5686828927884
11500-00091,꽃동네,어린이공원,1510.0,서울특별시 강서구 가양동 1461-1,서울특별시 강서구,서울,강서구,가양동,126.847068385248,37.5702000558208
11500-00092,가양,어린이공원,1500.0,서울특별시 강서구 가양동 1462-2,서울특별시 강서구,서울,강서구,가양동,126.844804515579,37.5697980509774
11500-00093,엄지,어린이공원,1511.6,서울특별시 강서구 가양동 1474-1,서울특별시 강서구,서울,강서구,가양동,126.854735277008,37.5658069366187
11500-00094,무지개,어린이공원,1500.0,서울특별시 강서구 가양동 1478-1,서울특별시 강서구,서울,강서구,가양동,126.851836854875,37.564946217891
11500-00095,풀피리,어린이공원,1562.0,서울특별시 강서구 가양동 1481-1,서울특별시 강서구,서울,강서구,가양동,126.854505287177,37.5636484088561
11500-00096,곰돌이,어린이공원,1612.3,서울특별시 강서구 가양동 1482-1,서울특별시 강서구,서울,강서구,가양동,126.857433684604,37.5623113897262
11500-00097,비둘기,어린이공원,1622.8,서울특별시 강서구 가양동 1489-1,서울특별시 강서구,서울,강서구,가양동,126.862961972694,37.5594984486202
11500-00098,진달래,어린이공원,1500.0,서울특별시 강서구 가양동 1486-1,서울특별시 강서구,서울,강서구,가양동,126.860978931486,37.5623748129041
11500-00099,발음,어린이공원,913.6,서울특별시 강서구 내발산동 697,서울특별시 강서구,서울,강서구,내발산동,126.833179561873,37.5522095348501
11500-00101,수정,어린이공원,4000.3,서울특별시 강서구 내발산동 741-2,서울특별시 강서구,서울,강서구,내발산동,126.828726775614,37.553919288796
11500-00102,은행나무,어린이공원,1764.4,서울특별시 강서구 내발산동 753-1,서울특별시 강서구,서울,강서구,내발산동,126.823289562498,37.5521584772274
11500-00103,신광명,어린이공원,8596.6,서울특별시 강서구 내발산동 761,서울특별시 강서구,서울,강서구,내발산동,126.82292544429,37.5473029072309
11500-00104,원당,어린이공원,992.0,서울특별시 강서구 내발산동 650,서울특별시 강서구,서울,강서구,내발산동,126.842140529852,37.557272302932
11500-00105,가곡,어린이공원,2747.9,서울특별시 강서구 내발산동 657-2,서울특별시 강서구,서울,강서구,내발산동,126.837763777491,37.5559718182978
11500-00106,꿈빛,어린이공원,1500.0,서울특별시 강서구 내발산동 657-3,서울특별시 강서구,서울,강서구,내발산동,126.84002676497,37.5561496093152
11500-00107,활주로,어린이공원,2116.4,서울특별시 강서구 공항동1341,서울특별시 강서구,서울,강서구,공항동,126.8158695107,37.5544380137181
11500-00108,다솔,어린이공원,2492.7,서울특별시 강서구 공항동1361,서울특별시 강서구,서울,강서구,공항동,126.818360948501,37.5545930599622
11500-00109,장미,어린이공원,1661.5,서울특별시 강서구 공항동668,서울특별시 강서구,서울,강서구,공항동,126.813833714348,37.5566929886834
11500-00110,송정,어린이공원,397.0,서울특별시 강서구 공항동42-11,서울특별시 강서구,서울,강서구,공항동,126.811289492944,37.560660179165
11500-00111,쌈지,어린이공원,3973.0,서울특별시 강서구 방화동 266-24,서울특별시 강서구,서울,강서구,방화동,126.814996753409,37.5711812867314
11500-00112,개나리,어린이공원,252.0,서울특별시 강서구 방화동 569-14,서울특별시 강서구,서울,강서구,방화동,126.812260760386,37.5731288805211
11500-00113,긴등,어린이공원,253.0,서울특별시 강서구 방화동 247-201,서울특별시 강서구,서울,강서구,방화동,126.816225308071,37.568037293978
11500-00114,문성,어린이공원,254.0,서울특별시 강서구 방화동 608-112,서울특별시 강서구,서울,강서구,방화동,126.815456251462,37.5648829731046
11500-00115,새싹,어린이공원,334.0,서울특별시 강서구 방화동 448-5,서울특별시 강서구,서울,강서구,방화동,126.81279499003,37.5748317057386
11500-00116,도레미,어린이공원,6649.0,서울특별시 강서구 방화동 184-66,서울특별시 강서구,서울,강서구,방화동,126.81913164729,37.5718228047673
11500-00117,들꽃,어린이공원,705.0,서울특별시 강서구 방화동 890-1,서울특별시 강서구,서울,강서구,방화동,126.821216935517,37.570610450035
11500-00118,봉선화,어린이공원,552.0,서울특별시 강서구 방화동 645-13,서울특별시 강서구,서울,강서구,방화동,126.807029598412,37.5665344487942
11500-00119,민들레,어린이공원,589.0,서울특별시 강서구 방화동 648-13,서울특별시 강서구,서울,강서구,방화동,126.806747352669,37.5672599184445
11500-00122,목련,어린이공원,251.0,서울특별시 강서구 방화동 616-1,서울특별시 강서구,서울,강서구,방화동,126.80783957383,37.5649968708907
11500-00123,샛별,어린이공원,294.0,서울특별시 강서구 방화동 558,서울특별시 강서구,서울,강서구,방화동,126.80949747633,37.5727132402236
11500-00124,새싹교통,어린이공원,4939.0,서울특별시 강서구 방화동 583,서울특별시 강서구,서울,강서구,방화동,126.809430369756,37.5697285894856
11500-00125,은하수,어린이공원,3825.8,서울특별시 강서구 방화동 853,서울특별시 강서구,서울,강서구,방화동,126.806501227745,37.5705162491462
11500-00126,능말,어린이공원,1520.7,서울특별시 강서구 방화동 815,서울특별시 강서구,서울,강서구,방화동,126.810607658535,37.5779732235556
11500-00127,메아리,어린이공원,1511.6,서울특별시 강서구 방화동 826,서울특별시 강서구,서울,강서구,방화동,126.814378822476,37.5786105394057
11500-00128,느티,어린이공원,1512.9,서울특별시 강서구 방화동 799,서울특별시 강서구,서울,강서구,방화동,126.81031323852,37.5793885709354
11500-00129,돌샘,어린이공원,1500.3,서울특별시 강서구 방화동 837,서울특별시 강서구,서울,강서구,방화동,126.818933762551,37.5760835706904
11500-00130,꿈나무,어린이공원,1500.2,서울특별시 강서구 방화동 840,서울특별시 강서구,서울,강서구,방화동,126.818937364508,37.5751102330477
11500-00131,개화,어린이공원,1512.2,서울특별시 강서구 방화동 818,서울특별시 강서구,서울,강서구,방화동,126.812543830057,37.5802812337284
11500-00135,풀잎,어린이공원,1945.0,서울특별시 강서구 공항동 705,서울특별시 강서구,서울,강서구,공항동,126.816565244957,37.5569958541377
11530-00026,개웅,어린이공원,179740.0,서울특별시 구로구 개봉동 340-8,서울특별시 구로구,서울,구로구,개봉동,126.853014041591,37.4900893607411
11530-00027,소막골,어린이공원,516.0,서울특별시 구로구 개봉동 271-17,서울특별시 구로구,서울,구로구,개봉동,126.852318095435,37.4885244348306
11530-00028,절골,어린이공원,369.0,서울특별시 구로구 개봉동 312-25,서울특별시 구로구,서울,구로구,개봉동,126.851654246813,37.4828641046032
11530-00029,가린열,어린이공원,332.9,서울특별시 구로구 개봉동 458-4,서울특별시 구로구,서울,구로구,개봉동,126.854204534096,37.5006541409393
11530-00030,오금,어린이공원,348.0,서울특별시 구로구 고척동 57-22,서울특별시 구로구,서울,구로구,고척동,126.866226712976,37.5049767926374
11530-00031,능골,어린이공원,357.0,서울특별시 구로구 고척동 220-3,서울특별시 구로구,서울,구로구,고척동,126.854249286521,37.5068952761199
11530-00032,골목,어린이공원,266.0,서울특별시 구로구 고척동 224-3,서울특별시 구로구,서울,구로구,고척동,126.85356434761,37.5070719268548
11530-00033,도레미,어린이공원,326.3,서울특별시 구로구 고척동 331-1,서울특별시 구로구,서울,구로구,고척동,126.852330525602,37.5080541072528
11530-00034,꿈마을,어린이공원,909.0,서울특별시 구로구 구로동 777-1,서울특별시 구로구,서울,구로구,구로동,126.890094850588,37.4872145555918
11530-00035,환경,어린이공원,528.0,서울특별시 구로구 구로동 797-1,서울특별시 구로구,서울,구로구,구로동,126.888419810702,37.4850210137443
11530-00036,희망,어린이공원,669.0,서울특별시 구로구 구로동 745-74,서울특별시 구로구,서울,구로구,구로동,126.886210004526,37.4869758049767
11530-00037,삼각,어린이공원,263350.0,서울특별시 구로구 구로동 47,서울특별시 구로구,서울,구로구,구로동,126.892043601629,37.5013663903733
11530-00038,삭새,어린이공원,207700.0,서울특별시 구로구 궁동 237-6,서울특별시 구로구,서울,구로구,궁동,126.825319294264,37.4962386872908
11530-00039,수른,어린이공원,332.0,서울특별시 구로구 궁동 279-6,서울특별시 구로구,서울,구로구,궁동,126.829612063132,37.497933531192
11530-00040,온수,어린이공원,475.0,서울특별시 구로구 온수동 73-5,서울특별시 구로구,서울,구로구,온수동,126.817702292687,37.4947098855012
11530-00041,화원,어린이공원,454400.0,서울특별시 구로구 구로동 478-1,서울특별시 구로구,서울,구로구,구로동,126.880254805481,37.4977622685883
11530-00042,신도림,어린이공원,229200.0,서울특별시 구로구 신도림동 646-1,서울특별시 구로구,서울,구로구,신도림동,126.88839249359,37.5107497549351
11530-00043,구로리,어린이공원,778200.0,서울특별시 구로구 구로동 139-82,서울특별시 구로구,서울,구로구,구로동,126.891610005413,37.4908836860729
11530-00044,애경,어린이공원,299600.0,서울특별시 구로구 구로동 501-22,서울특별시 구로구,서울,구로구,구로동,126.884574794133,37.5002710942849
11530-00045,미래사랑,어린이공원,587000.0,서울특별시 구로구 신도림동 314-2,서울특별시 구로구,서울,구로구,신도림동,126.888958025216,37.5102134696968
11530-00046,솔길,어린이공원,199900.0,서울특별시 구로구 구로동 391-1,서울특별시 구로구,서울,구로구,구로동,126.880612294475,37.489293618839
11530-00048,버들,어린이공원,616700.0,서울특별시 구로구 천왕동 277-14,서울특별시 구로구,서울,구로구,천왕동,126.839982003837,37.4815920569182
11530-00049,이펜시아,어린이공원,150600.0,서울특별시 구로구 천왕동 2-5,서울특별시 구로구,서울,구로구,천왕동,126.847314319198,37.4830755385657
11545-00008,조마,어린이공원,1003.0,서울특별시 금천구 가산동 148-11,서울특별시 금천구,서울,금천구,가산동,126.895729144552,37.4755788118756
11545-00009,무아래,어린이공원,1162.6,서울특별시 금천구 가산동 234-29,서울특별시 금천구,서울,금천구,가산동,126.893265030873,37.4733639122796
11545-00010,골말,어린이공원,1485.0,서울특별시 금천구 가산동 28-2,서울특별시 금천구,서울,금천구,가산동,126.884531606566,37.4828538671816
11545-00011,참새,어린이공원,1500.1,서울특별시 금천구 독산동 1088-2,서울특별시 금천구,서울,금천구,독산동,126.886897042492,37.4568739923082
11545-00012,파랑새,어린이공원,1500.0,서울특별시 금천구 독산동 1095-1,서울특별시 금천구,서울,금천구,독산동,126.888874259306,37.4549118411657
11545-00013,철쭉,어린이공원,1501.6,서울특별시 금천구 독산동 1112,서울특별시 금천구,서울,금천구,독산동,126.88984322526,37.453040894372
11545-00014,두산,어린이공원,974.9,서울특별시 금천구 독산동 298-1,서울특별시 금천구,서울,금천구,독산동,126.894168008013,37.4730869431578
11545-00015,다람쥐,어린이공원,1019.6,서울특별시 금천구 독산동 999-11,서울특별시 금천구,서울,금천구,독산동,126.890882396825,37.4682342674085
11545-00016,푸른골,어린이공원,977.3,서울특별시 금천구 독산동 1038-9,서울특별시 금천구,서울,금천구,독산동,126.903235399548,37.4665435599352
11545-00017,무지개,어린이공원,972.1,서울특별시 금천구 독산동 1063-14,서울특별시 금천구,서울,금천구,독산동,126.901025708189,37.4629434516579
11545-00018,옥계,어린이공원,1058.6,서울특별시 금천구 독산동 1067-9,서울특별시 금천구,서울,금천구,독산동,126.900367637475,37.4601233629157
11545-00019,무궁화,어린이공원,1336.0,서울특별시 금천구 독산동 378-291,서울특별시 금천구,서울,금천구,독산동,126.904389225476,37.4643855864892
11545-00020,정훈,어린이공원,1094.0,서울특별시 금천구 독산동 378-4,서울특별시 금천구,서울,금천구,독산동,126.906342374962,37.4656527108815
11545-00021,꿈나무,어린이공원,567.0,서울특별시 금천구 독산동 378-434,서울특별시 금천구,서울,금천구,독산동,126.904992752621,37.4634698348454
11545-00022,목화,어린이공원,985.8,서울특별시 금천구 독산동 883-9,서울특별시 금천구,서울,금천구,독산동,126.907256424118,37.4774352209299
11545-00023,동산,어린이공원,1017.2,서울특별시 금천구 독산동 993-29,서울특별시 금천구,서울,금천구,독산동,126.90591208952,37.4728286474749
11545-00024,남문,어린이공원,883.6,서울특별시 금천구 독산동 160-6,서울특별시 금천구,서울,금천구,독산동,126.90034229266,37.4723207770371
11545-00025,구룡,어린이공원,934.9,서울특별시 금천구 독산동 964,서울특별시 금천구,서울,금천구,독산동,126.902760969633,37.4778914819554
11545-00026,반수,어린이공원,990.6,서울특별시 금천구 독산동 980-44,서울특별시 금천구,서울,금천구,독산동,126.902341762882,37.4741510459974
11545-00027,한사랑,어린이공원,585.9,서울특별시 금천구 독산동 925-2,서울특별시 금천구,서울,금천구,독산동,126.904552047964,37.4677244143268
11545-00028,쌈지,어린이공원,982.8,서울특별시 금천구 독산동 189-1,서울특별시 금천구,서울,금천구,독산동,126.903984260067,37.4708930785254
11545-00029,소망,어린이공원,998.0,서울특별시 금천구 독산동 196-8,서울특별시 금천구,서울,금천구,독산동,126.901564915896,37.4694678519698
11545-00031,새재미,어린이공원,1185.2,서울특별시 금천구 시흥동 855,서울특별시 금천구,서울,금천구,시흥동,126.904183089723,37.4591265749813
11545-00032,해태,어린이공원,962.6,서울특별시 금천구 시흥동 871-24,서울특별시 금천구,서울,금천구,시흥동,126.901853664302,37.4577668380706
11545-00033,부장천,어린이공원,944.0,서울특별시 금천구 시흥동 893,서울특별시 금천구,서울,금천구,시흥동,126.904092853419,37.4532277531925
11545-00034,풍림,어린이공원,2195.0,서울특별시 금천구 시흥동 1026-3,서울특별시 금천구,서울,금천구,시흥동,126.901796794387,37.4478391593676
11545-00035,중앙,어린이공원,1515.0,서울특별시 금천구 시흥동 1027-2,서울특별시 금천구,서울,금천구,시흥동,126.901602590071,37.4464115215881
11545-00036,꾸러기,어린이공원,359.4,서울특별시 금천구 시흥동 943-16,서울특별시 금천구,서울,금천구,시흥동,126.905863469653,37.4431698090701
11545-00037,비둘기,어린이공원,985.2,서울특별시 금천구 시흥동 947-4,서울특별시 금천구,서울,금천구,시흥동,126.906267932356,37.441521994567
11545-00038,까치,어린이공원,925.3,서울특별시 금천구 시흥동 959-2,서울특별시 금천구,서울,금천구,시흥동,126.904993994424,37.4396124477185
11545-00039,진달래,어린이공원,992.2,서울특별시 금천구 시흥동 970-3,서울특별시 금천구,서울,금천구,시흥동,126.904891982908,37.4348592391772
11545-00040,단군,어린이공원,250.0,서울특별시 금천구 시흥동 169-21,서울특별시 금천구,서울,금천구,시흥동,126.908658461792,37.4556648253692
11545-00041,산장,어린이공원,678.0,서울특별시 금천구 시흥동 3-17,서울특별시 금천구,서울,금천구,시흥동,126.912499779843,37.4608927017792
11545-00042,장미,어린이공원,1207.0,서울특별시 금천구 시흥동 3-82,서울특별시 금천구,서울,금천구,시흥동,126.912209103377,37.4616332980746
11545-00043,신흥,어린이공원,312.0,서울특별시 금천구 시흥동 4-128,서울특별시 금천구,서울,금천구,시흥동,126.907821632802,37.4599074929259
11545-00044,효봉,어린이공원,503.0,서울특별시 금천구 시흥동 4-28,서울특별시 금천구,서울,금천구,시흥동,126.910501515301,37.4606991996966
11545-00045,송록,어린이공원,947.1,서울특별시 금천구 시흥동 791-35,서울특별시 금천구,서울,금천구,시흥동,126.906126325737,37.4613401187415
11545-00046,느티나무,어린이공원,939.2,서울특별시 금천구 시흥동 817,서울특별시 금천구,서울,금천구,시흥동,126.906728806337,37.4561338269529
11545-00047,은행,어린이공원,865.0,서울특별시 금천구 시흥동 836,서울특별시 금천구,서울,금천구,시흥동,126.906999692207,37.4521429140239
11545-00048,별장길,어린이공원,971.4,서울특별시 금천구 시흥동 925-32,서울특별시 금천구,서울,금천구,시흥동,126.908569911611,37.4481876089768
11560-00001,신일어린이공원,어린이공원,173.0,서울특별시 영등포구 신길동 455-1,서울특별시 영등포구,서울,영등포구,신길동,126.922195103671,37.5100595674225
11560-00007,중앙어린이공원,어린이공원,3671.0,서울특별시 영등포구 영등포동6가 65-1,서울특별시 영등포구,서울,영등포구,영등포동6가,126.903669046442,37.5212843073895
11560-00008,평화어린이공원,어린이공원,4595.0,서울특별시 영등포구 여의도동 50-2,서울특별시 영등포구,서울,영등포구,여의도동,126.938296956263,37.5211505192912
11560-00009,자유어린이공원,어린이공원,5385.0,서울특별시 영등포구 여의도동 50-3,서울특별시 영등포구,서울,영등포구,여의도동,126.936238985475,37.5204282635917
11560-00010,강마을어린이공원,어린이공원,3329.0,서울특별시 영등포구 당산6가 10-7,서울특별시 영등포구,서울,영등포구,당산동6가,126.906636807879,37.5329830437392
11560-00011,양남어린이공원,어린이공원,1467.0,서울특별시 영등포구 양평동1가 205,서울특별시 영등포구,서울,영등포구,양평동1가,126.888213691552,37.5233254263497
11560-00012,산성어린이공원,어린이공원,413.0,서울특별시 영등포구 대림동 752-60,서울특별시 영등포구,서울,영등포구,대림동,126.902535955523,37.4969764417856
11560-00013,다사랑어린이공원,어린이공원,1632.0,서울특별시 영등포구 대림동 703-6,서울특별시 영등포구,서울,영등포구,대림동,126.899424166055,37.4927818104719
11560-00014,고추말어린이공원,어린이공원,3071.0,서울특별시 영등포구 도림동 23-1,서울특별시 영등포구,서울,영등포구,도림동,126.90710190907,37.5116453309675
11560-00015,대림어린이공원,어린이공원,6969.0,서울특별시 영등포구 대림동 870,서울특별시 영등포구,서울,영등포구,대림동,126.903280829026,37.4912025020701
11560-00016,서강어린이공원,어린이공원,1797.0,서울특별시 영등포구 영등포동8가 28,서울특별시 영등포구,서울,영등포구,영등포동8가,126.905902170089,37.5258873456758
11560-00017,원지어린이공원,어린이공원,4845.0,서울특별시 영등포구 대림동 690,서울특별시 영등포구,서울,영등포구,대림동,126.899610423296,37.4980916900698
11560-00018,동심어린이공원,어린이공원,2820.0,서울특별시 영등포구 대림동 742,서울특별시 영등포구,서울,영등포구,대림동,126.89729019363,37.4984437909426
11560-00019,두암어린이공원,어린이공원,1477.0,서울특별시 영등포구 대림동 715,서울특별시 영등포구,서울,영등포구,대림동,126.897383806921,37.4954853282983
11560-00020,신우어린이공원,어린이공원,3112.0,서울특별시 영등포구 대림동 657,서울특별시 영등포구,서울,영등포구,대림동,126.899193115625,37.503320411119
11560-00023,양평어린이공원,어린이공원,2845.0,서울특별시 영등포구 양평동4가 301-7,서울특별시 영등포구,서울,영등포구,양평동4가,126.8980194298,37.5380553060611
11560-00024,영일어린이공원,어린이공원,5413.0,서울특별시 영등포구 영등포동 647-3,서울특별시 영등포구,서울,영등포구,영등포동,126.903902098661,37.5101526904373
11560-00026,꿈에그린어린이공원,어린이공원,1619.0,서울특별시 영등포구 신길동 4937-1,서울특별시 영등포구,서울,영등포구,신길동,126.908796822944,37.5031828840175
11560-00046,상아현대어린이공원,어린이공원,1587.0,서울특별시 영등포구 당산동5가 4-13,서울특별시 영등포구,서울,영등포구,당산동5가,126.901592860537,37.5300310535098
11560-00047,대림3주택어린이공원,어린이공원,2878.0,서울특별시 영등포구 대림동 1127-6,서울특별시 영등포구,서울,영등포구,대림동,126.908192648065,37.4945201443371
11590-00001,제비,어린이공원,1813.9,서울특별시 동작구 대방동 362-11,서울특별시 동작구,서울,동작구,대방동,126.925887261259,37.5064336859871
11590-00007,꿈동산,어린이공원,613.8,서울특별시 동작구 상도동 426,서울특별시 동작구,서울,동작구,상도동,126.954290530859,37.5033434075097
11590-00008,해님,어린이공원,876.0,서울특별시 동작구 상도1동 424,서울특별시 동작구,서울,동작구,상도1동,126.951256545293,37.5015964960903
11590-00009,별님,어린이공원,259.0,서울특별시 동작구 상도4동 211-415,서울특별시 동작구,서울,동작구,상도동,126.944966513481,37.4989318912671
11590-00011,까치,어린이공원,1604.3,서울특별시 동작구 사당동 1028-1,서울특별시 동작구,서울,동작구,사당동,126.979772397992,37.4804886291055
11590-00013,은하수,어린이공원,4726.0,서울특별시 동작구 신대방동 492-222외 1,서울특별시 동작구,서울,동작구,신대방동,126.912679103496,37.4940740333854
11590-00014,장미,어린이공원,410.5,서울특별시 동작구 상도동 380-2,서울특별시 동작구,서울,동작구,상도동,126.936041815863,37.4936504714778
11590-00015,노루,어린이공원,337.0,서울특별시 동작구 사당동 316-23,서울특별시 동작구,서울,동작구,사당동,126.97419942561,37.481829055875
11590-00016,새싹,어린이공원,780.0,서울특별시 동작구 사당동 316-33,서울특별시 동작구,서울,동작구,사당동,126.973158224317,37.4799640956545
11590-00017,꿈돌이,어린이공원,761.0,서울특별시 동작구 사당동 300-26,서울특별시 동작구,서울,동작구,사당동,126.969983818249,37.4803388724713
11590-00018,동산,어린이공원,466.1,서울특별시 동작구 사당동 1000,서울특별시 동작구,서울,동작구,사당동,126.969746326616,37.4793800480395
11590-00019,토끼,어린이공원,821.7,서울특별시 동작구 사당동 1000-13,서울특별시 동작구,서울,동작구,사당동,126.970186962506,37.4781239728173
11590-00020,참새,어린이공원,2982.7,서울특별시 동작구 대방동 414-29 외 5,서울특별시 동작구,서울,동작구,대방동,126.921966873272,37.4982008359312
11590-00021,양지,어린이공원,568.0,서울특별시 동작구 사당동 316-37,서울특별시 동작구,서울,동작구,사당동,126.974017842414,37.479885089105
11590-00022,새벽,어린이공원,496.0,서울특별시 동작구 상도동 335-141,서울특별시 동작구,서울,동작구,상도동,126.930200528903,37.5007244797518
11590-00023,옹달샘,어린이공원,445.0,서울특별시 동작구 상도동 299-193,서울특별시 동작구,서울,동작구,상도동,126.929611324555,37.4951842931503
11590-00025,샛별,어린이공원,344.7,서울특별시 동작구 사당동 1144,서울특별시 동작구,서울,동작구,사당동,126.965413615694,37.4874063955275
11590-00026,반달,어린이공원,182.0,서울특별시 동작구 사당동 233-12,서울특별시 동작구,서울,동작구,사당동,126.967947723204,37.4835100690366
11590-00027,늘푸른,어린이공원,1503.0,서울특별시 동작구 사당동 산32-76,서울특별시 동작구,서울,동작구,사당동,126.969170751393,37.4823930536062
11590-00028,본동,어린이공원,2195.5,서울특별시 동작구 본동 483,서울특별시 동작구,서울,동작구,본동,126.95445348505,37.5106285462436
11590-00029,개나리,어린이공원,454.0,서울특별시 동작구 사당동 1138-1,서울특별시 동작구,서울,동작구,사당동,126.965686783387,37.4861942588791
11590-00030,청명,어린이공원,1024.0,서울특별시 동작구 신대방동 719-1,서울특별시 동작구,서울,동작구,신대방동,126.907991290058,37.4875737628514
11590-00031,해당화,어린이공원,374.0,서울특별시 동작구 신대방동 719-3,서울특별시 동작구,서울,동작구,신대방동,126.905922860212,37.486872231086
11590-00033,태양,어린이공원,1514.5,서울특별시 동작구 상도동 527-1외 2,서울특별시 동작구,서울,동작구,상도동,126.944664406809,37.5066597651757
11590-00035,희망,어린이공원,2654.3,서울특별시 동작구 동작동 333-3,서울특별시 동작구,서울,동작구,동작동,126.980281399832,37.4938061551317
11590-00038,꿈나무,어린이공원,1500.0,서울특별시 동작구 상도동 521-1,서울특별시 동작구,서울,동작구,상도동,126.942779231409,37.5032913599139
11590-00042,까망돌,어린이공원,1904.5,서울특별시 동작구 흑석동 335-10,서울특별시 동작구,서울,동작구,흑석동,126.964068248862,37.5066338338859
11590-00043,해밀,어린이공원,2392.0,서울특별시 동작구 사당동 1157-1,서울특별시 동작구,서울,동작구,사당동,126.974383124044,37.488533138709
11590-00052,비둘기,어린이공원,2114.7,서울특별시 동작구 상도1동 558,서울특별시 동작구,서울,동작구,상도1동,126.951579160069,37.5060313776348
11620-00002,호박골,어린이공원,417.0,서울특별시 관악구 신림동 1580-22,서울특별시 관악구,서울,관악구,신림동,126.923944482496,37.4819716480667
11620-00003,해태,어린이공원,1359.0,서울특별시 관악구 신림동 103-141,서울특별시 관악구,서울,관악구,신림동,126.940628686854,37.4724958325287
11620-00004,당곡,어린이공원,294.0,서울특별시 관악구 봉천동 662-122,서울특별시 관악구,서울,관악구,봉천동,126.933582272145,37.4887299747989
11620-00005,군아파트,어린이공원,926.0,서울특별시 관악구 남현동 602-143,서울특별시 관악구,서울,관악구,남현동,126.978944623923,37.4718380700445
11620-00006,상록,어린이공원,1557.0,서울특별시 관악구 남현동 602-196,서울특별시 관악구,서울,관악구,남현동,126.980371115688,37.4728960116525
11620-00007,남현,어린이공원,554.0,서울특별시 관악구 남현동 602-333,서울특별시 관악구,서울,관악구,남현동,126.981235628524,37.4718760281996
11620-00008,예촌,어린이공원,1509.0,서울특별시 관악구 남현동 1083-1,서울특별시 관악구,서울,관악구,남현동,126.976746136273,37.4745834864388
11620-00009,난우,어린이공원,241.0,서울특별시 관악구 신림동 652-160,서울특별시 관악구,서울,관악구,신림동,126.921891479064,37.4664525764731
11620-00010,남부,어린이공원,990.0,서울특별시 관악구 신림동 483-14,서울특별시 관악구,서울,관악구,신림동,126.920560967954,37.4849699598904
11620-00011,새들,어린이공원,979.0,서울특별시 관악구 신림동 1441-42,서울특별시 관악구,서울,관악구,신림동,126.925745285006,37.4886539493377
11620-00012,색동,어린이공원,952.0,서울특별시 관악구 신림동 1418-1,서울특별시 관악구,서울,관악구,신림동,126.932674981659,37.4864574798433
11620-00013,새숲,어린이공원,991.0,서울특별시 관악구 신림동 539-14,서울특별시 관악구,서울,관악구,신림동,126.913080048408,37.4823970896722
11620-00015,은천,어린이공원,443.0,서울특별시 관악구 봉천동 635-309,서울특별시 관악구,서울,관악구,봉천동,126.942979501233,37.4882962733418
11620-00016,국회단지,어린이공원,1200.0,서울특별시 관악구 봉천동 635-37,서울특별시 관악구,서울,관악구,봉천동,126.94316626271,37.4902805623722
11620-00019,송학,어린이공원,1013.0,서울특별시 관악구 봉천동 877-21,서울특별시 관악구,서울,관악구,봉천동,126.94929859151,37.4803382040359
11620-00021,신화,어린이공원,850.0,서울특별시 관악구 신림동 408-10,서울특별시 관악구,서울,관악구,신림동,126.935674694601,37.4767123984012
11620-00022,미도,어린이공원,978.0,서울특별시 관악구 신림동 675-200,서울특별시 관악구,서울,관악구,신림동,126.915284236483,37.4628439793634
11620-00023,무궁화,어린이공원,660.0,서울특별시 관악구 신림동 645-1,서울특별시 관악구,서울,관악구,신림동,126.923572484543,37.4696708247962
11620-00027,비안,어린이공원,1661.0,서울특별시 관악구 봉천동 1530-14,서울특별시 관악구,서울,관악구,봉천동,126.940170436575,37.4808039908105
11620-00028,원당,어린이공원,1647.0,서울특별시 관악구 봉천동 196-2,서울특별시 관악구,서울,관악구,봉천동,126.963506901576,37.4748610741822
11620-00029,교체,어린이공원,813.0,서울특별시 관악구 봉천동 196-193,서울특별시 관악구,서울,관악구,봉천동,126.964040800967,37.4733009587779
11620-00032,청룡,어린이공원,853.0,서울특별시 관악구 봉천동 1557-34,서울특별시 관악구,서울,관악구,봉천동,126.944745943399,37.4776589039127
11620-00034,모래내,어린이공원,1667.0,서울특별시 관악구 봉천동 1613-19,서울특별시 관악구,서울,관악구,봉천동,126.955627032411,37.4778154014306
11620-00038,태양,어린이공원,345.0,서울특별시 관악구 신림동 1542-1,서울특별시 관악구,서울,관악구,신림동,126.936483099461,37.4684861623759
11620-00039,사우촌,어린이공원,339.0,서울특별시 관악구 신림동 1555-1,서울특별시 관악구,서울,관악구,신림동,126.934173908302,37.4675459551667
11620-00040,약수,어린이공원,304.0,서울특별시 관악구 봉천동 1510-19,서울특별시 관악구,서울,관악구,봉천동,126.962279025045,37.4740045488936
11620-00041,탑골,어린이공원,597.0,서울특별시 관악구 봉천동 1510,서울특별시 관악구,서울,관악구,봉천동,126.961096737882,37.4744517873273
11620-00042,장미,어린이공원,423.0,서울특별시 관악구 봉천동 148-103,서울특별시 관악구,서울,관악구,봉천동,126.962402165682,37.4791376401562
11620-00044,국사봉,어린이공원,454.0,서울특별시 관악구 봉천동 1511-5,서울특별시 관악구,서울,관악구,봉천동,126.934078454133,37.4899946366559
11620-00048,봉림,어린이공원,988.0,서울특별시 관악구 신림동 1510-2,서울특별시 관악구,서울,관악구,신림동,126.935719631068,37.4827208919961
11620-00049,쑥고개,어린이공원,1124.0,서울특별시 관악구 신림동 1564-68,서울특별시 관악구,서울,관악구,신림동,126.940809395261,37.4758634478663
11620-00050,난곡,어린이공원,695.0,서울특별시 관악구 신림동 1563-56,서울특별시 관악구,서울,관악구,신림동,126.915295271748,37.4741021158121
11620-00052,신라,어린이공원,514.0,서울특별시 관악구 신림동 744-1,서울특별시 관악구,서울,관악구,신림동,126.912626410568,37.473585335448
11620-00053,학다리,어린이공원,221.0,서울특별시 관악구 봉천동 647-175,서울특별시 관악구,서울,관악구,봉천동,126.93759597513,37.4887726182542
11620-00054,용담,어린이공원,646.0,서울특별시 관악구 봉천동 850-8,서울특별시 관악구,서울,관악구,봉천동,126.943611692215,37.4755004500834
11620-00055,한라,어린이공원,479.0,서울특별시 관악구 신림동 750-39,서울특별시 관악구,서울,관악구,신림동,126.914739880763,37.4756711851732
11620-00056,서광,어린이공원,459.0,서울특별시 관악구 신림동 98-402,서울특별시 관악구,서울,관악구,신림동,126.942683193919,37.4751999670802
11620-00058,남강,어린이공원,10350.0,서울특별시 관악구 신림동 1678-12,서울특별시 관악구,서울,관악구,신림동,126.924677497148,37.4734926287693
11620-00059,목화,어린이공원,347.0,서울특별시 관악구 신림동 1716-1,서울특별시 관악구,서울,관악구,신림동,126.942298660045,37.4679031277646
11620-00060,대협,어린이공원,391.0,서울특별시 관악구 신림동 746-32,서울특별시 관악구,서울,관악구,신림동,126.913398358038,37.474821278273
11620-00061,인헌,어린이공원,379.0,서울특별시 관악구 봉천동 196-240,서울특별시 관악구,서울,관악구,봉천동,126.962571020131,37.4753931881716
11620-00062,충효,어린이공원,3188.0,서울특별시 관악구 봉천동 1526-1,서울특별시 관악구,서울,관악구,봉천동,126.941036083783,37.4810221097324
11620-00063,해바라기,어린이공원,416.0,서울특별시 관악구 신림동 321-5,서울특별시 관악구,서울,관악구,신림동,126.930218113726,37.4620035468622
11620-00064,영락,어린이공원,206.0,서울특별시 관악구 봉천동 1555-16,서울특별시 관악구,서울,관악구,봉천동,126.943804471641,37.4768264677352
11620-00065,오성,어린이공원,225.0,서울특별시 관악구 신림동 655-104,서울특별시 관악구,서울,관악구,신림동,126.920831187198,37.467939710201
11620-00066,미림,어린이공원,185.0,서울특별시 관악구 신림동 254-256,서울특별시 관악구,서울,관악구,신림동,126.935302688928,37.4665473573537
11620-00069,약수,어린이공원,533.0,서울특별시 관악구 신림동 1685,서울특별시 관악구,서울,관악구,신림동,126.912465795505,37.473173004535
11620-00071,양산,어린이공원,297.0,서울특별시 관악구 신림동 395-35,서울특별시 관악구,서울,관악구,신림동,126.932562207332,37.4736747106005
11620-00072,합실,어린이공원,1297.0,서울특별시 관악구 신림동 1704-4,서울특별시 관악구,서울,관악구,신림동,126.927033115625,37.4651158793681
11620-00074,봉천,어린이공원,652.0,서울특별시 관악구 봉천동 1707-2,서울특별시 관악구,서울,관악구,봉천동,126.964489374398,37.4692523137805
11650-00038,분토골,어린이공원,999.1,서울특별시 서초구 서초동 1627-4,서울특별시 서초구,서울,서초구,서초동,127.017457201378,37.4883784814929
11650-00039,당골,어린이공원,1616.2,서울특별시 서초구 서초동 1436-6,서울특별시 서초구,서울,서초구,서초동,127.022660614848,37.4855879868789
11650-00040,사도감,어린이공원,946.7,서울특별시 서초구 서초동 1359-12,서울특별시 서초구,서울,서초구,서초동,127.031247071593,37.4857828082138
11650-00041,마산말,어린이공원,984.9,서울특별시 서초구 서초동 1343-8,서울특별시 서초구,서울,서초구,서초동,127.026714094771,37.4871645349234
11650-00042,예술,어린이공원,1006.3,서울특별시 서초구 서초동 1455-4,서울특별시 서초구,서울,서초구,서초동,127.014562575467,37.4832379006534
11650-00043,신중,어린이공원,974.9,서울특별시 서초구 서초동 1484-14,서울특별시 서초구,서울,서초구,서초동,127.010687166324,37.4823357742863
11650-00044,장안,어린이공원,969.0,서울특별시 서초구 서초동 1556-5,서울특별시 서초구,서울,서초구,서초동,127.011450523341,37.4916760033236
11650-00045,상명달,어린이공원,991.5,서울특별시 서초구 서초동 1488-4,서울특별시 서초구,서울,서초구,서초동,127.005648838203,37.4821359184278
11650-00046,궁현,어린이공원,985.5,서울특별시 서초구 서초동 1547-2,서울특별시 서초구,서울,서초구,서초동,127.010380135152,37.4884027414444
11650-00047,하명달,어린이공원,991.9,서울특별시 서초구 서초동 1518-1,서울특별시 서초구,서울,서초구,서초동,127.005432365723,37.4858471828889
11650-00048,교대,어린이공원,993.2,서울특별시 서초구 서초동 1712-1,서울특별시 서초구,서울,서초구,서초동,127.011575995485,37.4943254928426
11650-00049,새싹,어린이공원,840.0,서울특별시 서초구 서초동 1686-10,서울특별시 서초구,서울,서초구,서초동,127.018267891664,37.4975136708481
11650-00050,누리숲,어린이공원,2233.1,서울특별시 서초구 서초동 1301-25,서울특별시 서초구,서울,서초구,서초동,127.021177173761,37.5020424529321
11650-00051,싸리재,어린이공원,991.9,서울특별시 서초구 잠원동 30-10,서울특별시 서초구,서울,서초구,잠원동,127.018231942097,37.5133742525727
11650-00052,주흥,어린이공원,959.2,서울특별시 서초구 잠원동 33-6,서울특별시 서초구,서울,서초구,잠원동,127.016673815972,37.5121835354968
11650-00053,고무래,어린이공원,5506.9,서울특별시 서초구 반포동 30-5,서울특별시 서초구,서울,서초구,반포동,127.015423777707,37.5035405453886
11650-00054,언구비,어린이공원,1031.9,서울특별시 서초구 반포동 720,서울특별시 서초구,서울,서초구,반포동,127.020215374681,37.508954953671
11650-00055,파랑새,어린이공원,4188.3,서울특별시 서초구 반포동 4-2,서울특별시 서초구,서울,서초구,반포동,126.99525319228,37.5051056925242
11650-00056,반원,어린이공원,6020.9,서울특별시 서초구 잠원동 72-1,서울특별시 서초구,서울,서초구,잠원동,127.003267005812,37.509457687028
11650-00057,코아,어린이공원,1717.0,서울특별시 서초구 잠원동 72-4,서울특별시 서초구,서울,서초구,잠원동,127.004073074154,37.5090331085635
11650-00058,새터,어린이공원,1100.0,서울특별시 서초구 잠원동 70-6,서울특별시 서초구,서울,서초구,잠원동,127.006809408552,37.5080910720829
11650-00059,늘푸른,어린이공원,1600.0,서울특별시 서초구 잠원동 70-7,서울특별시 서초구,서울,서초구,잠원동,127.005535445342,37.5083044966058
11650-00060,아름,어린이공원,1100.0,서울특별시 서초구 잠원동 70-8,서울특별시 서초구,서울,서초구,잠원동,127.004754644331,37.5074076703136
11650-00061,청룡,어린이공원,945.1,서울특별시 서초구 반포동 86-1,서울특별시 서초구,서울,서초구,반포동,126.999723624129,37.4958856124619
11650-00062,서래,어린이공원,997.1,서울특별시 서초구 반포동 71-6,서울특별시 서초구,서울,서초구,반포동,127.000303751855,37.4983045447333
11650-00063,미도,어린이공원,988.3,서울특별시 서초구 반포동 53-1,서울특별시 서초구,서울,서초구,반포동,127.010736532663,37.5017905904957
11650-00064,새말,어린이공원,984.8,서울특별시 서초구 방배동 794-16,서울특별시 서초구,서울,서초구,방배동,126.988604861945,37.4933125982818
11650-00065,너른골,어린이공원,1216.0,서울특별시 서초구 방배동 144-18,서울특별시 서초구,서울,서초구,방배동,126.994851210438,37.4874815342957
11650-00066,효령,어린이공원,1432.8,서울특별시 서초구 방배동 906-14,서울특별시 서초구,서울,서초구,방배동,126.997547071907,37.4831452479347
11650-00067,청두,어린이공원,1657.9,서울특별시 서초구 방배동 463-14,서울특별시 서초구,서울,서초구,방배동,126.985006832608,37.4806232992273
11650-00068,안산,어린이공원,1615.6,서울특별시 서초구 방배동 979-44,서울특별시 서초구,서울,서초구,방배동,126.992490466395,37.4801031384892
11650-00069,남태령,어린이공원,1328.0,서울특별시 서초구 방배동 2956-4,서울특별시 서초구,서울,서초구,방배동,126.988375179425,37.4664251999973
11650-00070,햇님,어린이공원,2119.1,서울특별시 서초구 방배동 424-29,서울특별시 서초구,서울,서초구,방배동,126.985134356888,37.4829457558889
11650-00071,정문,어린이공원,993.1,서울특별시 서초구 방배동 985-3,서울특별시 서초구,서울,서초구,방배동,126.999625767323,37.4811669276636
11650-00072,방현,어린이공원,1781.5,서울특별시 서초구 방배동 537-50,서울특별시 서초구,서울,서초구,방배동,126.991673336264,37.4784996476004
11650-00073,동덕,어린이공원,936.0,서울특별시 서초구 방배동 593-43,서울특별시 서초구,서울,서초구,방배동,126.993710647502,37.4755597791653
11650-00074,뒷벌,어린이공원,5794.8,서울특별시 서초구 방배동 821-1,서울특별시 서초구,서울,서초구,방배동,126.986871970912,37.4904262215422
11650-00075,가꿀,어린이공원,993.5,서울특별시 서초구 방배동 859-1,서울특별시 서초구,서울,서초구,방배동,126.987585769074,37.4879679890974
11650-00076,종열,어린이공원,847.8,서울특별시 서초구 양재동 103-4,서울특별시 서초구,서울,서초구,양재동,127.03374613699,37.4740387279066
11650-00077,암산,어린이공원,1506.0,서울특별시 서초구 우면동 46-12,서울특별시 서초구,서울,서초구,우면동,127.025655310104,37.4732910310704
11650-00078,성형촌,어린이공원,2167.0,서울특별시 서초구 우면동 211,서울특별시 서초구,서울,서초구,우면동,127.019956107075,37.4663165059816
11650-00079,식유촌,어린이공원,1009.0,서울특별시 서초구 우면동 598-3,서울특별시 서초구,서울,서초구,우면동,127.013339578481,37.4579053206109
11650-00080,송동,어린이공원,1042.0,서울특별시 서초구 우면동 491,서울특별시 서초구,서울,서초구,우면동,127.015549791422,37.4611107621515
11650-00081,양재,어린이공원,990.4,서울특별시 서초구 양재동 9-29,서울특별시 서초구,서울,서초구,양재동,127.039280198992,37.4833542651735
11650-00082,비석,어린이공원,1500.6,서울특별시 서초구 양재동 90-1,서울특별시 서초구,서울,서초구,양재동,127.041079250474,37.4787538224158
11650-00083,횃불,어린이공원,1496.9,서울특별시 서초구 양재동 66-4,서울특별시 서초구,서울,서초구,양재동,127.037517953259,37.4783352266419
11650-00084,바우뫼,어린이공원,2023.7,서울특별시 서초구 우면동 60,서울특별시 서초구,서울,서초구,우면동,127.023481682975,37.4706751290468
11650-00085,동문,어린이공원,1515.2,서울특별시 서초구 우면동 70-1,서울특별시 서초구,서울,서초구,우면동,127.026784229717,37.4726816976512
11650-00086,효자,어린이공원,2481.0,서울특별시 서초구 우면동 55,서울특별시 서초구,서울,서초구,우면동,127.024326942223,37.4735230518345
11650-00087,섶다리,어린이공원,1729.5,서울특별시 서초구 우면동 716,서울특별시 서초구,서울,서초구,우면동,127.0275304427,37.4636883555292
11650-00088,샛말,어린이공원,1644.7,서울특별시 서초구 우면동 732,서울특별시 서초구,서울,서초구,우면동,127.024559870897,37.4619160893405
11650-00089,원터,어린이공원,553.0,서울특별시 서초구 원지동 419-7,서울특별시 서초구,서울,서초구,원지동,127.055246193535,37.443620835409
11650-00090,동산,어린이공원,1890.4,서울특별시 서초구 양재동 376-3,서울특별시 서초구,서울,서초구,양재동,127.045167367505,37.4711642053627
11650-00091,잔디,어린이공원,1664.3,서울특별시 서초구 양재동 205-4,서울특별시 서초구,서울,서초구,양재동,127.035583542406,37.4663986098087
11650-00092,게리,어린이공원,1057.9,서울특별시 서초구 양재동 325,서울특별시 서초구,서울,서초구,양재동,127.040558111557,37.4696532607374
11650-00093,구룡,어린이공원,1651.3,서울특별시 서초구 양재동 399,서울특별시 서초구,서울,서초구,양재동,127.048730716089,37.4715444575872
11650-00094,개뜰,어린이공원,1530.4,서울특별시 서초구 양재동 260,서울특별시 서초구,서울,서초구,양재동,127.041180539129,37.4739950144476
11650-00095,버들,어린이공원,1487.4,서울특별시 서초구 양재동 298,서울특별시 서초구,서울,서초구,양재동,127.04569396798,37.4738157661868
11650-00096,샛별,어린이공원,1500.1,서울특별시 서초구 양재동 370-4,서울특별시 서초구,서울,서초구,양재동,127.044634076051,37.4703150253813
11650-00097,두둑재,어린이공원,1703.8,서울특별시 서초구 양재동 357,서울특별시 서초구,서울,서초구,양재동,127.044031518315,37.4679536121045
11650-00098,용말,어린이공원,1994.5,서울특별시 서초구 양재동 218-3,서울특별시 서초구,서울,서초구,양재동,127.034776672167,37.4629863591411
11650-00099,세원,어린이공원,1369.0,서울특별시 서초구 신원동 500-5,서울특별시 서초구,서울,서초구,신원동,127.049933211215,37.4559328487283
11650-00100,본마을,어린이공원,1234.0,서울특별시 서초구 신원동 445,서울특별시 서초구,서울,서초구,신원동,127.053122907587,37.4545908409506
11650-00101,청계숲,어린이공원,1470.0,서울특별시 서초구 신원동 251,서울특별시 서초구,서울,서초구,신원동,127.058011251964,37.4475033328827
11650-00102,새쟁이,어린이공원,1586.0,서울특별시 서초구 신원동 9-2,서울특별시 서초구,서울,서초구,신원동,127.068700866801,37.4355812302486
11650-00103,염곡,어린이공원,1318.0,서울특별시 서초구 염곡동 143-9,서울특별시 서초구,서울,서초구,염곡동,127.054386809055,37.463154478146
11650-00104,안골,어린이공원,1192.0,서울특별시 서초구 내곡동 192-1,서울특별시 서초구,서울,서초구,내곡동,127.06327822412,37.4562275752484
11650-00105,홍씨마을,어린이공원,1461.0,서울특별시 서초구 내곡동 156-8,서울특별시 서초구,서울,서초구,내곡동,127.065685303867,37.4531429056598
11650-00106,아랫샘,어린이공원,1059.0,서울특별시 서초구 내곡동 1-2173,서울특별시 서초구,서울,서초구,내곡동,127.072078596175,37.4607140818028
11650-00107,윗샘,어린이공원,1084.0,서울특별시 서초구 내곡동 1-2128,서울특별시 서초구,서울,서초구,내곡동,127.071657672685,37.4584653214369
11650-00108,능안,어린이공원,1156.0,서울특별시 서초구 내곡동 168-10,서울특별시 서초구,서울,서초구,내곡동,127.065751824381,37.4545086242187
11650-00109,아람,어린이공원,1533.5,서울특별시 서초구 내곡동 산48-1,서울특별시 서초구,서울,서초구,신원동,127.069885521944,37.4339236575991
11650-00112,소라,어린이공원,1782.4,서울특별시 서초구 방배동 997-1,서울특별시 서초구,서울,서초구,방배동,127.003007089579,37.4783455598173
11650-00113,원지,어린이공원,1938.0,서울특별시 서초구 원지동 368-1,서울특별시 서초구,서울,서초구,원지동,127.055658155462,37.4444643521744
11650-00114,서초무지개,어린이공원,4395.4,서울특별시 서초구 서초동 1355,서울특별시 서초구,서울,서초구,서초동,127.027997913072,37.4856991983769
11680-00055,논현까치공원,어린이공원,956.7,서울특별시 강남구 논현동 162-11,서울특별시 강남구,서울,강남구,논현동,127.02510218715,37.50851459624
11680-00056,논현목련공원,어린이공원,986.0,서울특별시 강남구 논현동 137-18,서울특별시 강남구,서울,강남구,논현동,127.026708854383,37.5108678481479
11680-00057,논현은행나무공원,어린이공원,1014.5,서울특별시 강남구 논현동 47-13,서울특별시 강남구,서울,강남구,논현동,127.02243895365,37.5126379485231
11680-00058,논현개나리공원,어린이공원,1652.9,서울특별시 강남구 논현동 150-5,서울특별시 강남구,서울,강남구,논현동,127.029927693074,37.5113209123796
11680-00059,논현무궁화공원,어린이공원,1879.7,서울특별시 강남구 논현동 205-7,서울특별시 강남구,서울,강남구,논현동,127.030704189354,37.5066726099589
11680-00060,논현소나무공원,어린이공원,1819.9,서울특별시 강남구 논현동 239,서울특별시 강남구,서울,강남구,논현동,127.037438587727,37.5157125166276
11680-00061,학동공원,어린이공원,1498.5,서울특별시 강남구 논현동 263-23,서울특별시 강남구,서울,강남구,논현동,127.038936512646,37.5115087586237
11680-00062,신사은행나무공원,어린이공원,1240.1,서울특별시 강남구 신사동 558,서울특별시 강남구,서울,강남구,신사동,127.026039367002,37.520597215739
11680-00063,신사목련공원,어린이공원,1001.1,서울특별시 강남구 신사동 567-37,서울특별시 강남구,서울,강남구,신사동,127.025833494793,37.5229155410874
11680-00064,신사무궁화공원,어린이공원,1641.8,서울특별시 강남구 신사동 625-5,서울특별시 강남구,서울,강남구,신사동,127.031938770423,37.5241549085239
11680-00065,까치공원,어린이공원,992.9,서울특별시 강남구 신사동 597,서울특별시 강남구,서울,강남구,신사동,127.029226528723,37.5234615686448
11680-00066,신사개나리공원,어린이공원,991.3,서울특별시 강남구 신사동 609-2,서울특별시 강남구,서울,강남구,신사동,127.029443574036,37.5256585188393
11680-00067,압구정목련공원,어린이공원,2027.2,서울특별시 강남구 압구정동 466,서울특별시 강남구,서울,강남구,압구정동,127.03379748326,37.5320423916117
11680-00068,압구정은행나무공원,어린이공원,2547.4,서울특별시 강남구 압구정동 459,서울특별시 강남구,서울,강남구,압구정동,127.031440603431,37.5307199221936
11680-00069,삼성목련공원,어린이공원,1641.4,서울특별시 강남구 삼성동 55-1,서울특별시 강남구,서울,강남구,삼성동,127.053928716652,37.5185654730258
11680-00070,삼성까치공원,어린이공원,1462.9,서울특별시 강남구 삼성동 85,서울특별시 강남구,서울,강남구,삼성동,127.060603010228,37.5183039194404
11680-00071,청담은행나무공원,어린이공원,1643.8,서울특별시 강남구 청담동 94-4,서울특별시 강남구,서울,강남구,청담동,127.044060818007,37.5251575180077
11680-00072,청담목련공원,어린이공원,1642.1,서울특별시 강남구 청담동 51,서울특별시 강남구,서울,강남구,청담동,127.049833863146,37.522994349251
11680-00073,도곡까치공원,어린이공원,1793.8,서울특별시 강남구 도곡동 455,서울특별시 강남구,서울,강남구,도곡동,127.045166667596,37.4831506960093
11680-00074,도곡목련공원,어린이공원,1709.2,서울특별시 강남구 도곡동 415-3,서울특별시 강남구,서울,강남구,도곡동,127.044314995224,37.4849418629995
11680-00075,역삼장미공원,어린이공원,1636.6,서울특별시 강남구 역삼동 780-25,서울특별시 강남구,서울,강남구,역삼동,127.044738980198,37.4953425740956
11680-00076,역삼까치공원,어린이공원,987.2,서울특별시 강남구 역삼동 824-10,서울특별시 강남구,서울,강남구,역삼동,127.030746243372,37.4972489794406
11680-00077,역삼무궁화공원,어린이공원,991.5,서울특별시 강남구 역삼동 830-23,서울특별시 강남구,서울,강남구,역삼동,127.032281103609,37.4939828710069
11680-00078,역삼개나리공원,어린이공원,1635.0,서울특별시 강남구 역삼동 739-15,서울특별시 강남구,서울,강남구,역삼동,127.03608851434,37.4977197758469
11680-00079,역삼소나무공원,어린이공원,987.3,서울특별시 강남구 역삼동 836-21,서울특별시 강남구,서울,강남구,역삼동,127.033705136697,37.490985002446
11680-00080,역삼은행나무공원,어린이공원,1647.1,서울특별시 강남구 역삼동 611,서울특별시 강남구,서울,강남구,역삼동,127.031254925757,37.5054458370923
11680-00081,대치목련공원,어린이공원,1649.1,서울특별시 강남구 대치동 929-10,서울특별시 강남구,서울,강남구,대치동,127.058422964351,37.4998084742764
11680-00082,대치까치공원,어린이공원,992.2,서울특별시 강남구 대치동 1014-4,서울특별시 강남구,서울,강남구,대치동,127.05919731693,37.4969813618863
11680-00083,대치은행나무공원,어린이공원,1618.7,서울특별시 강남구 대치동 899-25,서울특별시 강남구,서울,강남구,대치동,127.051608124998,37.5018326943504
11680-00084,개포까치공원,어린이공원,1690.2,서울특별시 강남구 개포동 169-3,서울특별시 강남구,서울,강남구,개포동,127.061144318156,37.4838223275792
11680-00085,개포공원,어린이공원,4793.8,서울특별시 강남구 개포동 190,서울특별시 강남구,서울,강남구,개포동,127.071624381384,37.4852945433408
11680-00086,개포개나리공원,어린이공원,1500.6,서울특별시 강남구 개포동 190,서울특별시 강남구,서울,강남구,개포동,127.071624381384,37.4852945433408
11680-00087,개포은행나무공원,어린이공원,1641.7,서울특별시 강남구 개포동 1220,서울특별시 강남구,서울,강남구,개포동,127.049063746155,37.4760324310209
11680-00088,개포목련공원,어린이공원,1639.1,서울특별시 강남구 개포동 1176,서울특별시 강남구,서울,강남구,개포동,127.052450397862,37.474283737978
11680-00089,일원은행나무공원,어린이공원,1500.3,서울특별시 강남구 일원동 615-2,서울특별시 강남구,서울,강남구,일원동,127.076963763171,37.492016216825
11680-00090,일원목련공원,어린이공원,1613.8,서울특별시 강남구 일원동 658,서울특별시 강남구,서울,강남구,일원동,127.085576919505,37.4914558119879
11680-00091,일원까치공원,어린이공원,1476.3,서울특별시 강남구 일원동 712-4,서울특별시 강남구,서울,강남구,일원동,127.088196413985,37.4920945916524
11680-00092,궁마을공원,어린이공원,306.0,서울특별시 강남구 수서동 465-15,서울특별시 강남구,서울,강남구,수서동,127.099415090067,37.4848535667078
11680-00093,예지공원,어린이공원,1535.9,서울특별시 강남구 개포동 12-7,서울특별시 강남구,서울,강남구,개포동,127.073174385424,37.4919796110497
11680-00094,한마음공원,어린이공원,2488.1,서울특별시 강남구 개포동 12-3,서울특별시 강남구,서울,강남구,개포동,127.075803126477,37.4960355478012
11680-00095,일원장미공원,어린이공원,1500.0,서울특별시 강남구 일원동 732-4,서울특별시 강남구,서울,강남구,일원동,127.080757115672,37.4807209012646
11680-00096,일원개나리공원,어린이공원,4453.6,서울특별시 강남구 일원동 730-3,서울특별시 강남구,서울,강남구,일원동,127.076404322169,37.4829779397259
11680-00097,일원느티나무공원,어린이공원,1825.7,서울특별시 강남구 일원동 730-2,서울특별시 강남구,서울,강남구,일원동,127.077452192642,37.483081594243
11680-00098,일원소나무공원,어린이공원,1500.6,서울특별시 강남구 일원동 718-1,서울특별시 강남구,서울,강남구,일원동,127.08178024799,37.4840841130508
11680-00099,일원상록수공원,어린이공원,1500.4,서울특별시 강남구 일원동 734-1,서울특별시 강남구,서울,강남구,일원동,127.08220899447,37.4821250231012
11680-00100,일원비둘기공원,어린이공원,1501.0,서울특별시 강남구 일원동 735-1,서울특별시 강남구,서울,강남구,일원동,127.085996820037,37.4833095857625
11680-00101,일원진달래공원,어린이공원,1500.1,서울특별시 강남구 일원동 716-1,서울특별시 강남구,서울,강남구,일원동,127.084734867357,37.4847753568485
11680-00102,일원새싹공원,어린이공원,1500.2,서울특별시 강남구 수서동 746-1,서울특별시 강남구,서울,강남구,수서동,127.089089084705,37.484793237429
11680-00103,수서까치공원,어린이공원,1500.2,서울특별시 강남구 수서동 736-1,서울특별시 강남구,서울,강남구,수서동,127.097951289051,37.487162000317
11680-00104,수서은행나무공원,어린이공원,1500.4,서울특별시 강남구 수서동 707-1,서울특별시 강남구,서울,강남구,수서동,127.099755120029,37.4912598045038
11680-00105,수서목련공원,어린이공원,1418.8,서울특별시 강남구 수서동 712-1,서울특별시 강남구,서울,강남구,수서동,127.103720901501,37.4905810845343
11680-00106,수서개나리공원,어린이공원,1500.1,서울특별시 강남구 수서동 723-1,서울특별시 강남구,서울,강남구,수서동,127.105420335791,37.4875410229792
11680-00107,아래반고개공원,어린이공원,863.0,서울특별시 강남구 세곡동 129-13,서울특별시 강남구,서울,강남구,세곡동,127.107108428223,37.463896116326
11680-00108,윗반고개공원,어린이공원,1250.0,서울특별시 강남구 세곡동 99-6,서울특별시 강남구,서울,강남구,세곡동,127.109150993604,37.4656981616214
11680-00109,은곡마을공원,어린이공원,2686.0,서울특별시 강남구 세곡동 369-3,서울특별시 강남구,서울,강남구,세곡동,127.100461063907,37.4680415591501
11680-00110,쟁골공원,어린이공원,468.0,서울특별시 강남구 자곡동 233-2,서울특별시 강남구,서울,강남구,자곡동,127.102085836045,37.4819424740962
11680-00111,못골공원,어린이공원,749.0,서울특별시 강남구 자곡동 447-23,서울특별시 강남구,서울,강남구,자곡동,127.100155005328,37.4735919518444
11680-00112,윗방죽마을공원,어린이공원,935.0,서울특별시 강남구 율현동 308-29,서울특별시 강남구,서울,강남구,율현동,127.104684259939,37.4702889778007
11680-00113,아래방죽마을공원,어린이공원,386.0,서울특별시 강남구 율현동 194-1,서울특별시 강남구,서울,강남구,율현동,127.108232071227,37.473277585248
11680-00114,충현공원,어린이공원,2721.8,서울특별시 강남구 역삼동 666-2,서울특별시 강남구,서울,강남구,역삼동,127.036522544205,37.5046957706898
11680-00115,세곡천공원,어린이공원,2645.1,서울특별시 강남구 세곡동 522-1,서울특별시 강남구,서울,강남구,세곡동,127.101271483446,37.4632000055217
11680-00116,대왕공원,어린이공원,2633.1,서울특별시 강남구 세곡동 526-2,서울특별시 강남구,서울,강남구,세곡동,127.104596679186,37.4622771764551
11680-00131,도담공원,어린이공원,4282.7,서울특별시 강남구 세곡동 548,서울특별시 강남구,서울,강남구,세곡동,127.098689042774,37.467279896281
11680-00132,행복공원,어린이공원,2483.5,서울특별시 강남구 세곡동 546,서울특별시 강남구,서울,강남구,세곡동,127.097163432383,37.4672653027646
11710-00043,가야금,어린이공원,1500.0,서울특별시 송파구 오금동 21,서울특별시 송파구,서울,송파구,오금동,127.129335250725,37.5086508956895
11710-00044,개나리,어린이공원,1312.2,서울특별시 송파구 문정동 81,서울특별시 송파구,서울,송파구,문정동,127.128428811818,37.4824141331572
11710-00045,개미,어린이공원,1500.4,서울특별시 송파구 거여동 29,서울특별시 송파구,서울,송파구,거여동,127.146614010544,37.4922644025847
11710-00046,거북이,어린이공원,1594.0,서울특별시 송파구 송파동 243-1,서울특별시 송파구,서울,송파구,송파동,127.11954503512,37.5017367171336
11710-00047,거여,어린이공원,756.6,서울특별시 송파구 거여동 593-1,서울특별시 송파구,서울,송파구,거여동,127.142808125681,37.4926679400157
11710-00048,곰말,어린이공원,1707.2,서울특별시 송파구 방이동 139,서울특별시 송파구,서울,송파구,방이동,127.117791828576,37.511781255734
11710-00049,굴렁쇠,어린이공원,1596.1,서울특별시 송파구 문정동 150-6,서울특별시 송파구,서울,송파구,문정동,127.11243310924,37.4902638889699
11710-00050,꿈나무,어린이공원,1496.3,서울특별시 송파구 오금동 117-1,서울특별시 송파구,서울,송파구,오금동,127.141109988859,37.5032254427852
11710-00051,나루터,어린이공원,1472.9,서울특별시 송파구 삼전동 37,서울특별시 송파구,서울,송파구,삼전동,127.086725071361,37.5016008472564
11710-00052,남천,어린이공원,282.9,서울특별시 송파구 마천동 344,서울특별시 송파구,서울,송파구,마천동,127.152688070864,37.501303257024
11710-00053,늘봄,어린이공원,3004.4,서울특별시 송파구 장지동 123-1,서울특별시 송파구,서울,송파구,문정동,127.133780875627,37.4877399978921
11710-00054,능골,어린이공원,1484.7,서울특별시 송파구 가락동 198,서울특별시 송파구,서울,송파구,가락동,127.133017055286,37.4931458208238
11710-00055,대건,어린이공원,1500.0,서울특별시 송파구 가락동 165-4,서울특별시 송파구,서울,송파구,가락동,127.132031770281,37.4971136961658
11710-00056,도담,어린이공원,4138.0,서울특별시 송파구 마천동 583,서울특별시 송파구,서울,송파구,마천동,127.159449777826,37.4995329488246
11710-00057,돌마리,어린이공원,1715.6,서울특별시 송파구 석촌동 258,서울특별시 송파구,서울,송파구,석촌동,127.103444683153,37.5005193374452
11710-00058,돌무데기,어린이공원,97.6,서울특별시 송파구 마천동 375,서울특별시 송파구,서울,송파구,마천동,127.155112932422,37.4920410022214
11710-00059,동호수,어린이공원,1469.7,서울특별시 송파구 송파동 34,서울특별시 송파구,서울,송파구,송파동,127.107057202807,37.5097588977018
11710-00060,모슬,어린이공원,550.0,서울특별시 송파구 거여동 28-7,서울특별시 송파구,서울,송파구,거여동,127.145487974981,37.4923777897513
11710-00061,몽촌,어린이공원,1560.8,서울특별시 송파구 방이동 150,서울특별시 송파구,서울,송파구,방이동,127.114871581491,37.5129347135802
11710-00062,무궁화,어린이공원,1500.0,서울특별시 송파구 가락동 134,서울특별시 송파구,서울,송파구,가락동,127.127087170447,37.4931392840217
11710-00063,문현,어린이공원,1523.0,서울특별시 송파구 장지동 838-1,서울특별시 송파구,서울,송파구,장지동,127.128195108066,37.4812876760665
11710-00064,반딧불,어린이공원,1489.2,서울특별시 송파구 문정동 47,서울특별시 송파구,서울,송파구,문정동,127.124098283777,37.4879586076822
11710-00065,방잇골,어린이공원,1629.6,서울특별시 송파구 방이동 70-1,서울특별시 송파구,서울,송파구,방이동,127.110327702109,37.5134308129591
11710-00066,방죽,어린이공원,1492.1,서울특별시 송파구 가락본동 28,서울특별시 송파구,서울,송파구,가락동,127.122823591091,37.5007095413961
11710-00067,배미골,어린이공원,1500.1,서울특별시 송파구 거여동 291-1,서울특별시 송파구,서울,송파구,거여동,127.147134692726,37.4908598067222
11710-00068,배밭,어린이공원,1475.8,서울특별시 송파구 송파동 178,서울특별시 송파구,서울,송파구,송파동,127.115390561507,37.5015686661616
11710-00069,버들,어린이공원,1886.0,서울특별시 송파구 장지동 854-2,서울특별시 송파구,서울,송파구,장지동,127.133110031063,37.478757164747
11710-00070,벌말,어린이공원,1502.1,서울특별시 송파구 오금동 132,서울특별시 송파구,서울,송파구,오금동,127.140026869306,37.5018248579145
11710-00071,복숭아,어린이공원,1500.3,서울특별시 송파구 오금동 27,서울특별시 송파구,서울,송파구,오금동,127.131380172182,37.5068590641831
11710-00072,봉우리,어린이공원,1495.2,서울특별시 송파구 가락본동 85,서울특별시 송파구,서울,송파구,가락동,127.119256324665,37.4965544238963
11710-00073,부렴,어린이공원,1659.8,서울특별시 송파구 잠실본동 296,서울특별시 송파구,서울,송파구,잠실동,127.079237556113,37.5056362136914
11710-00074,비둘기,어린이공원,1500.2,서울특별시 송파구 방이동 195,서울특별시 송파구,서울,송파구,방이동,127.1233683357,37.5127977517743
11710-00075,비석거리,어린이공원,1624.5,서울특별시 송파구 가락본동 96-15,서울특별시 송파구,서울,송파구,가락동,127.117563266918,37.4946330130187
11710-00076,뽕밭,어린이공원,1125.6,서울특별시 송파구 잠실본동 220,서울특별시 송파구,서울,송파구,잠실동,127.081070079843,37.5078281962799
11710-00077,삼밭,어린이공원,1646.1,서울특별시 송파구 삼전동 70,서울특별시 송파구,서울,송파구,삼전동,127.092842226012,37.4995068558132
11710-00078,삼밭나루,어린이공원,1434.1,서울특별시 송파구 삼전동 95,서울특별시 송파구,서울,송파구,삼전동,127.091729113731,37.505163156491
11710-00079,삼전,어린이공원,1644.7,서울특별시 송파구 삼전동 51,서울특별시 송파구,서울,송파구,삼전동,127.090226540405,37.501811763104
11710-00080,삼학사,어린이공원,1648.0,서울특별시 송파구 삼전동 110-7,서울특별시 송파구,서울,송파구,삼전동,127.095493814534,37.5061623608878
11710-00081,새마을,어린이공원,1667.3,서울특별시 송파구 잠실본동 209-4,서울특별시 송파구,서울,송파구,잠실동,127.086629590228,37.5082293415718
11710-00082,새말,어린이공원,1498.1,서울특별시 송파구 가락동 145-10,서울특별시 송파구,서울,송파구,가락동,127.125739523652,37.4946418028588
11710-00083,새싹,어린이공원,1806.4,서울특별시 송파구 송파동 107,서울특별시 송파구,서울,송파구,송파동,127.112793298979,37.5048809270357
11710-00084,샛별,어린이공원,1500.0,서울특별시 송파구 가락본동 51,서울특별시 송파구,서울,송파구,가락동,127.121781475396,37.4980026476968
11710-00085,샛팽이,어린이공원,1500.7,서울특별시 송파구 가락동 170-6,서울특별시 송파구,서울,송파구,가락동,127.134112748672,37.4968522227697
11710-00086,석촌,어린이공원,1638.4,서울특별시 송파구 석촌동 27,서울특별시 송파구,서울,송파구,석촌동,127.099822830263,37.505940017983
11710-00087,섬굴,어린이공원,368.0,서울특별시 송파구 마천동 128-2,서울특별시 송파구,서울,송파구,마천동,127.149193924781,37.496890542348
11710-00088,솔바람,어린이공원,1500.0,서울특별시 송파구 장지동 843-1,서울특별시 송파구,서울,송파구,장지동,127.12949991281,37.4788427179159
11710-00089,솔밭,어린이공원,1500.1,서울특별시 송파구 방이동 214,서울특별시 송파구,서울,송파구,방이동,127.123610520665,37.5091055449816
11710-00090,수정,어린이공원,1494.6,서울특별시 송파구 문정동 23-5,서울특별시 송파구,서울,송파구,문정동,127.126223503494,37.4890592793224
11710-00093,아랫말,어린이공원,1500.0,서울특별시 송파구 오금동 123-2,서울특별시 송파구,서울,송파구,오금동,127.137402049548,37.5047538635607
11710-00094,아랫바람,어린이공원,198.0,서울특별시 송파구 풍납동 306-9,서울특별시 송파구,서울,송파구,풍납동,127.112234902103,37.5323469984168
11710-00095,아름,어린이공원,2338.7,서울특별시 송파구 석촌동 289-3,서울특별시 송파구,서울,송파구,석촌동,127.10708186601,37.5033497585248
11710-00096,안골,어린이공원,1500.1,서울특별시 송파구 오금동 66-12,서울특별시 송파구,서울,송파구,오금동,127.135319131663,37.5028652389256
11710-00097,안산골,어린이공원,1500.5,서울특별시 송파구 가락동 152-3,서울특별시 송파구,서울,송파구,가락동,127.126705020384,37.4976580606522
11710-00098,어사,어린이공원,1653.4,서울특별시 송파구 송파동 129,서울특별시 송파구,서울,송파구,송파동,127.113002803663,37.5073146108977
11710-00099,영풍,어린이공원,1500.4,서울특별시 송파구 거여동 16,서울특별시 송파구,서울,송파구,거여동,127.142497997189,37.4951322965002
11710-00100,옛동산,어린이공원,1266.3,서울특별시 송파구 방이동 121,서울특별시 송파구,서울,송파구,방이동,127.115852505889,37.509595986517
11710-00101,오동나무,어린이공원,1500.0,서울특별시 송파구 오금동 84,서울특별시 송파구,서울,송파구,오금동,127.133915616965,37.5062732671224
11710-00102,오봉산,어린이공원,1508.0,서울특별시 송파구 석촌동 162,서울특별시 송파구,서울,송파구,석촌동,127.102484954419,37.5061961465342
11710-00103,용마,어린이공원,1500.3,서울특별시 송파구 마천동 45,서울특별시 송파구,서울,송파구,마천동,127.148579366407,37.4998305772921
11710-00104,윗바람,어린이공원,291.0,서울특별시 송파구 풍납동 295-4,서울특별시 송파구,서울,송파구,풍납동,127.112128658383,37.5343073162002
11710-00105,임금샘,어린이공원,1500.3,서울특별시 송파구 방이동 189,서울특별시 송파구,서울,송파구,방이동,127.125053969097,37.5110183889089
11710-00106,잔버들,어린이공원,303.0,서울특별시 송파구 거여동 135-46,서울특별시 송파구,서울,송파구,거여동,127.144299533001,37.4973778492962
11710-00107,중대,어린이공원,1497.8,서울특별시 송파구 송파동 188,서울특별시 송파구,서울,송파구,송파동,127.11543213262,37.4997017420466
11710-00108,진달래,어린이공원,1738.1,서울특별시 송파구 잠실본동 338,서울특별시 송파구,서울,송파구,잠실동,127.086328860756,37.5037189507818
11710-00109,천상,어린이공원,12464.0,서울특별시 송파구 마천동 610,서울특별시 송파구,서울,송파구,마천동,127.159178375577,37.4942102632944
11710-00110,초록,어린이공원,343.9,서울특별시 송파구 마천동 360,서울특별시 송파구,서울,송파구,마천동,127.15696960642,37.4956870843434
11710-00111,큰바위,어린이공원,1508.1,서울특별시 송파구 거여동 7,서울특별시 송파구,서울,송파구,거여동,127.142553978561,37.4981098733033
11710-00113,투구봉,어린이공원,1502.9,서울특별시 송파구 가락동 185,서울특별시 송파구,서울,송파구,가락동,127.135360199669,37.4940397508947
11710-00114,팔각정,어린이공원,1497.5,서울특별시 송파구 가락본동 118,서울특별시 송파구,서울,송파구,가락동,127.124133448235,37.492672909944
11710-00116,한샘,어린이공원,1688.0,서울특별시 송파구 문정동 66,서울특별시 송파구,서울,송파구,문정동,127.125008094455,37.484792228463
11710-00117,향나무,어린이공원,1512.4,서울특별시 송파구 거여동 293-2,서울특별시 송파구,서울,송파구,거여동,127.144204543439,37.4897919422382
11710-00120,훙이,어린이공원,1500.0,서울특별시 송파구 가락본동 14,서울특별시 송파구,서울,송파구,가락동,127.124970579803,37.5011624775664
11710-00137,문정동136 어린이공원,어린이공원,4685.0,서울특별시 송파구 문정동 142 일대,서울특별시 송파구,서울,송파구,문정동,127.134765385326,37.4873623480123
11710-00140,잠실진주,어린이공원,4470.0,서울특별시 송파구 신천동 20-4 일원,서울특별시 송파구,서울,송파구,신천동,127.110740852277,37.5183793669114
11710-00141,장미아파트1호,어린이공원,5470.0,서울특별시 송파구 신천동 7 일원,서울특별시 송파구,서울,송파구,신천동,127.099280476931,37.5188849274204
11710-00142,장미아파트2호,어린이공원,3288.0,서울특별시 송파구 신천동 11 일원,서울특별시 송파구,서울,송파구,신천동,127.10261654141,37.5200313952778
11710-00159,두레어린이공원,어린이공원,75.0,서울특별시 송파구 마천동 364-5 일대,서울특별시 송파구,서울,송파구,마천동,127.156140478137,37.4943273937188
11740-00001,고명공원,어린이공원,545.0,서울특별시 강동구 명일1동 312-30,서울특별시 강동구,서울,강동구,명일동,127.143367667429,37.5525116306906
11740-00004,명우공원,어린이공원,403.0,서울특별시 강동구 명일1동 312-206,서울특별시 강동구,서울,강동구,명일동,127.141475256568,37.5515528193135
11740-00005,혜림공원,어린이공원,992.0,서울특별시 강동구 천호1동 47-23,서울특별시 강동구,서울,강동구,천호동,127.139990979487,37.5444872495347
11740-00006,성안공원,어린이공원,1057.1,서울특별시 강동구 성내3동 405-18,서울특별시 강동구,서울,강동구,성내동,127.134924636218,37.5313749522352
11740-00007,선린공원,어린이공원,1575.2,서울특별시 강동구 성내3동 424,서울특별시 강동구,서울,강동구,성내동,127.132812454889,37.5283598943576
11740-00008,보람공원,어린이공원,989.9,서울특별시 강동구 성내3동 444-6,서울특별시 강동구,서울,강동구,성내동,127.131322816618,37.5248608992575
11740-00010,샛별공원,어린이공원,2391.6,서울특별시 강동구 성내1동 566,서울특별시 강동구,서울,강동구,성내동,127.127052173303,37.527005179078
11740-00011,달님공원,어린이공원,998.6,서울특별시 강동구 길동 405-21,서울특별시 강동구,서울,강동구,길동,127.142554722166,37.5360223578369
11740-00012,무궁화공원,어린이공원,996.3,서울특별시 강동구 길동 340-17,서울특별시 강동구,서울,강동구,길동,127.145371672233,37.5422034737099
11740-00013,희망공원,어린이공원,992.4,서울특별시 강동구 길동 365-6,서울특별시 강동구,서울,강동구,길동,127.142279306228,37.5390469854477
11740-00014,성심공원,어린이공원,992.3,서울특별시 강동구 길동 386-1,서울특별시 강동구,서울,강동구,길동,127.137570211377,37.5383251883245
11740-00015,샘물공원,어린이공원,992.1,서울특별시 강동구 명일1동 315-1,서울특별시 강동구,서울,강동구,명일동,127.144909477774,37.5511663613558
11740-00016,염주골공원,어린이공원,991.3,서울특별시 강동구 명일1동 326-10,서울특별시 강동구,서울,강동구,명일동,127.145650555942,37.5498025104019
11740-00017,성내천공원,어린이공원,1413.6,서울특별시 강동구 성내1동 463-4,서울특별시 강동구,서울,강동구,성내동,127.123938082116,37.5268282877844
11740-00018,새장터공원,어린이공원,1592.0,서울특별시 강동구 암사1동 468-2,서울특별시 강동구,서울,강동구,암사동,127.13080502008,37.552122388915
11740-00019,광나루공원,어린이공원,1637.7,서울특별시 강동구 암사2동 515,서울특별시 강동구,서울,강동구,암사동,127.125340959733,37.5501881070609
11740-00020,볕우물공원,어린이공원,1552.8,서울특별시 강동구 암사1동 453-8,서울특별시 강동구,서울,강동구,암사동,127.135941724195,37.5535538577505
11740-00021,구암공원,어린이공원,1647.8,서울특별시 강동구 암사3동 449-8,서울특별시 강동구,서울,강동구,암사동,127.137608571189,37.5565479222349
11740-00022,선사공원,어린이공원,1610.3,서울특별시 강동구 암사3동 440,서울특별시 강동구,서울,강동구,암사동,127.130675043314,37.555912307489
11740-00023,천사공원,어린이공원,1617.2,서울특별시 강동구 천호2동 363-5,서울특별시 강동구,서울,강동구,천호동,127.128475796144,37.5440156021987
11740-00024,고분다리공원,어린이공원,1621.8,서울특별시 강동구 천호2동 300,서울특별시 강동구,서울,강동구,천호동,127.131763607886,37.5455307927387
11740-00025,동산공원,어린이공원,1646.0,서울특별시 강동구 천호2동 305-11,서울특별시 강동구,서울,강동구,천호동,127.129697848463,37.547131991589
11740-00026,광진공원,어린이공원,1672.7,서울특별시 강동구 천호2동 338-19,서울특별시 강동구,서울,강동구,천호동,127.122616503392,37.5431408349749
11740-00027,천일골목공원,어린이공원,233.0,서울특별시 강동구 천호1동 21-192,서울특별시 강동구,서울,강동구,천호동,127.138185946245,37.5456137317355
11740-00028,천호삼거리공원,어린이공원,170.0,서울특별시 강동구 천호1동 21-194,서울특별시 강동구,서울,강동구,천호동,127.138499871603,37.5455043431334
11740-00029,천호큰골목공원,어린이공원,586.0,서울특별시 강동구 천호1동 21-197,서울특별시 강동구,서울,강동구,천호동,127.138583691508,37.545060052523
11740-00030,천암공원,어린이공원,166.0,서울특별시 강동구 천호1동 231-14,서울특별시 강동구,서울,강동구,천호동,127.136895271212,37.5478467376026
11740-00033,화랑공원,어린이공원,220.0,서울특별시 강동구 천호2동 431-2,서울특별시 강동구,서울,강동구,천호동,127.123221653937,37.5400464440235
11740-00034,꿈나래공원,어린이공원,1500.0,서울특별시 강동구 고덕1동 536,서울특별시 강동구,서울,강동구,고덕동,127.153898756416,37.5609011586559
11740-00035,곰돌이공원,어린이공원,1983.0,서울특별시 강동구 고덕1동 308,서울특별시 강동구,서울,강동구,고덕동,127.155012500971,37.5562213683861
11740-00036,한우물공원,어린이공원,1500.0,서울특별시 강동구 고덕2동 253,서울특별시 강동구,서울,강동구,고덕동,127.162672977568,37.5614456703032
11740-00038,말우물공원,어린이공원,1619.1,서울특별시 강동구 고덕2동 178,서울특별시 강동구,서울,강동구,고덕동,127.169581266206,37.5598888499054
11740-00041,게내공원,어린이공원,1500.0,서울특별시 강동구 상일동 278,서울특별시 강동구,서울,강동구,상일동,127.171614733504,37.5491634198367
11740-00042,까치공원,어린이공원,1965.8,서울특별시 강동구 상일동 177,서울특별시 강동구,서울,강동구,상일동,127.16208500318,37.5477588052886
11740-00043,하늬공원,어린이공원,2233.2,서울특별시 강동구 상일동 175,서울특별시 강동구,서울,강동구,상일동,127.159711338119,37.5461206915534
11740-00044,파랑새공원,어린이공원,2017.3,서울특별시 강동구 명일2동 258,서울특별시 강동구,서울,강동구,명일동,127.15088515482,37.5479753812264
11740-00045,은하수공원,어린이공원,2018.0,서울특별시 강동구 명일2동 55,서울특별시 강동구,서울,강동구,명일동,127.154470865813,37.5505275061931
11740-00046,진달래공원,어린이공원,2024.0,서울특별시 강동구 명일2동 43,서울특별시 강동구,서울,강동구,명일동,127.151489249236,37.5512920813511
11740-00056,방아다리공원,어린이공원,2010.4,서울특별시 강동구 명일2동 236,서울특별시 강동구,서울,강동구,명일동,127.153770259397,37.5479950852889
11740-00057,둔촌공원,어린이공원,2226.0,서울특별시 강동구 둔촌2동 79-4,서울특별시 강동구,서울,강동구,둔촌동,127.143267973414,37.531464055317
11740-00062,천일공원,어린이공원,2408.0,서울특별시 강동구 천호1동 221-3,서울특별시 강동구,서울,강동구,천호동,127.136421701924,37.5448731801549
11740-00063,당말공원,어린이공원,2409.0,서울특별시 강동구 천호3동 167-195,서울특별시 강동구,서울,강동구,천호동,127.133243151558,37.5389176916961
11740-00068,나루공원,어린이공원,1500.0,서울특별시 강동구 천호2동 569-1,서울특별시 강동구,서울,강동구,천호동,127.1236410425,37.5470683912352
11740-00071,암사공원,어린이공원,1780.0,서울특별시 강동구 암사1동 산59-2,서울특별시 강동구,서울,강동구,암사동,127.137899740117,37.5528464667108
11470-00053,온수도시자연공원,도시농업공원,1003471.0,서울특별시 양천구 신월동 산85-4 일대,서울특별시 양천구,서울,양천구,신월동,126.82756207346,37.5211229300188
