Unnamed: 0,id,name,address,city_name,county_name,town_name,type,x,y,data_type,h_code
0,88,삼익패션타운,서울특별시 중구 남대문시장8길 7 ,서울,중구,남창동,쇼핑센터,126.978956614349,37.5604352919962,마트,1114054000
9,53,누죤,서울특별시 중구 을지로45길 62 ,서울,중구,신당동,쇼핑센터,127.013008334406,37.5669477713142,마트,1114061500
10,80,(주)광희패션몰,서울특별시 중구 마장로1길 21 ,서울,중구,신당동,쇼핑센터,127.011915526088,37.5686729331271,마트,1114061500
11,90,디자이너크럽,서울특별시 중구 을지로45길 72 ,서울,중구,신당동,쇼핑센터,127.013071008776,37.5674049296835,마트,1114061500
12,92,혜양엘리시움,서울특별시 중구 마장로1길 18 ,서울,중구,신당동,쇼핑센터,127.012580309153,37.5686635839046,마트,1114061500
13,118,DDP FASHION MALL,서울특별시 중구 마장로 22 ,서울,중구,신당동,쇼핑센터,127.012111462314,37.5672655578674,마트,1114061500
16,143,(주)에리어식스,서울특별시 중구 마장로 19 ,서울,중구,신당동,쇼핑센터,127.011973962004,37.5681416100756,마트,1114061500
17,146,아트프라자,서울특별시 중구 마장로1길 28 ,서울,중구,신당동,쇼핑센터,127.012827274623,37.569192892231,마트,1114061500
18,147,남산타운5상가,서울특별시 중구 다산로 32 ,서울,중구,신당동,복합쇼핑몰,127.005706247221,37.5471505540187,마트,1114063500
19,148,올레오,서울특별시 중구 마장로1길 22 ,서울,중구,신당동,쇼핑센터,127.012687655618,37.5688944975891,마트,1114061500
20,149,남산타운2상가,서울특별시 중구 다산로 32 ,서울,중구,신당동,쇼핑센터,127.005706247221,37.5471505540187,마트,1114063500
23,162,에이피엠패션몰,서울특별시 중구 마장로 40 ,서울,중구,신당동,쇼핑센터,127.014033422257,37.5677236816149,마트,1114061500
25,167,디오트,서울특별시 중구 다산로 293 ,서울,중구,신당동,쇼핑센터,127.014991766546,37.5691596607746,마트,1114061500
26,704,남평화상가(주),서울특별시 중구 장충단로 282-10 ,서울,중구,신당동,쇼핑센터,127.010835959946,37.5691711976069,마트,1114061500
33,168,베네치아메가몰,서울특별시 중구 청계천로 400 ,서울,중구,황학동,복합쇼핑몰,127.021463886656,37.5708105464699,마트,1114067000
34,169,엠플라자(M plaza),서울특별시 중구 명동8길 27 ,서울,중구,명동2가,쇼핑센터,126.985166774442,37.5625312330845,마트,1114055000
35,172,눈스퀘어,서울특별시 중구 명동길 14 ,서울,중구,명동2가,쇼핑센터,126.98288772495,37.5634116488196,마트,1114055000
37,155,롯데아울렛 서울역점,서울특별시 중구 한강대로 405 ,서울,중구,봉래동2가,복합쇼핑몰,126.969526329341,37.5547278494914,마트,1114054000
38,156,롯데아울렛 서울역점,서울특별시 중구 한강대로 405 ,서울,중구,봉래동2가,복합쇼핑몰,126.969526329341,37.5547278494914,마트,1114054000
42,150,현대시티타워,서울특별시 중구 장충단로 13-20 ,서울,중구,을지로6가,복합쇼핑몰,127.007035,37.5680076,마트,1114059000
43,153,통일상가,서울특별시 중구 장충단로13길 20 ,서울,중구,을지로6가,쇼핑센터,127.007666479829,37.568734553218,마트,1114059000
44,157,밀리오레,서울특별시 중구 장충단로 263 ,서울,중구,을지로6가,쇼핑센터,127.008472686741,37.5681156942942,마트,1114059000
45,164,헬로우에이피엠,서울특별시 중구 장충단로 253 ,서울,중구,을지로6가,쇼핑센터,127.008078935255,37.567487097159,마트,1114059000
46,170,굿모닝시티 쇼핑몰,서울특별시 중구 장충단로 247 ,서울,중구,을지로6가,쇼핑센터,127.007358177138,37.5668021171335,마트,1114059000
48,703,두타몰,서울특별시 중구 장충단로 275 ,서울,중구,을지로6가,복합쇼핑몰,127.008775114213,37.5688849422849,마트,1114059000
49,113,에이피엠플레이스,서울특별시 중구 을지로 276 ,서울,중구,을지로7가,쇼핑센터,127.00843026396,37.5653191861991,마트,1114059000
51,91,선싸인,서울특별시 중구 명동8가길 27 ,서울,중구,충무로2가,쇼핑센터,126.986563787577,37.5620005331406,마트,1114055000
52,151,하이해리엇,서울특별시 중구 퇴계로 123 ,서울,중구,충무로2가,쇼핑센터,126.985364301804,37.5612658980395,마트,1114055000
55,130,센터포인트 명동,서울특별시 중구 남대문로2가 9-1,서울,중구,남대문로2가,쇼핑센터,126.982697400493,37.5646489593288,마트,1114055000
67,626,두산아케이드,서울특별시 강남구 언주로 726 ,서울,강남구,논현동,쇼핑센터,127.035197500084,37.5193816410498,마트,1168053100
69,595,그랑프리,서울특별시 강남구 남부순환로 2912 ,서울,강남구,대치동,쇼핑센터,127.056142941592,37.4907059879875,마트,1168060000
78,600,도심공항몰(CALT MALL),서울특별시 강남구 테헤란로87길 22-0 ,서울,강남구,삼성동,복합쇼핑몰,127.059443354483,37.5096322564759,마트,1168058000
80,603,파르나스몰(PARNAS MALL),서울특별시 강남구 테헤란로 521 ,서울,강남구,삼성동,복합쇼핑몰,127.06080691987,37.5091916919873,마트,1168058000
81,604,코엑스 호텔아케이드,서울특별시 강남구 봉은사로 524 ,서울,강남구,삼성동,복합쇼핑몰,127.057250899584,37.5128320848839,마트,1168058000
82,605,코엑스 몰,서울특별시 강남구 영동대로 513 ,서울,강남구,삼성동,복합쇼핑몰,127.059159043842,37.5118239121138,마트,1168058000
97,633,더 샵스 앳 센터필드 (THE SHOPS AT CENTERFIELD),서울특별시 강남구 테헤란로 231,서울,강남구,역삼동,복합쇼핑몰,127.041356540268,37.5028813541774,마트,1168064000
108,668,강동한신휴플러스,서울특별시 강동구 진황도로 99 ,서울,강동구,길동,쇼핑센터,127.137473996228,37.5360846941657,마트,1174068500
109,670,동서울오네뜨상가,서울특별시 강동구 양재대로124길 32 ,서울,강동구,길동,쇼핑센터,127.143653765609,37.5426089532686,마트,1174068500
113,674,주양쇼핑,서울특별시 강동구  고덕로62길  55 ,서울,강동구,명일동,쇼핑센터,127.153459033904,37.5523961426953,마트,1174054000
127,701,이천일아울렛 천호점,서울특별시 강동구 구천면로 189 ,서울,강동구,천호동,쇼핑센터,127.125536352486,37.5415920129665,마트,1174061000
133,317,연이스퀘어,서울특별시 강북구 도봉로 52 ,서울,강북구,미아동,쇼핑센터,127.03052852605,37.613699372646,마트,1130554500
135,323,트레지오,서울특별시 강북구 도봉로 34 ,서울,강북구,미아동,복합쇼핑몰,127.03072164571,37.6120685327599,마트,1130554500
141,318,수유프라자,서울특별시 강북구 도봉로 261 ,서울,강북구,수유동,쇼핑센터,127.02346745196,37.6316925338476,마트,1130561500
142,319,수유프라자,서울특별시 강북구 도봉로 261 ,서울,강북구,수유동,쇼핑센터,127.02346745196,37.6316925338476,마트,1130561500
151,108,원 웨스트 몰,서울특별시 강서구 공항대로 지하163,서울,강서구,마곡동,복합쇼핑몰,126.825547992125,37.5601984535897,마트,1150062000
158,698,롯데몰 김포공항,서울특별시 강서구 하늘길 38 ,서울,강서구,방화동,복합쇼핑몰,126.80296035927,37.5713698504776,마트,1150064000
175,552,관악쇼핑,서울특별시 관악구 청림3길 10 ,서울,관악구,봉천동,쇼핑센터,126.95950602146,37.4886505222551,마트,1162054500
185,569,라붐아울렛,서울특별시 관악구 남부순환로 1820 ,서울,관악구,봉천동,쇼핑센터,126.952083773717,37.4809479979455,마트,1162059500
186,716,롯데쇼핑(주) 관악점,서울특별시  봉천로 209,서울,관악구,봉천동,쇼핑센터,126.924981674031,37.4904954867064,마트,1162052500
187,550,일성트루엘상가,서울특별시 관악구 신림로23길 16 ,서울,관악구,신림동,쇼핑센터,126.934476782389,37.4704811658789,마트,1162073500
191,568,르네상스쇼핑몰(주),서울특별시 관악구 신림로 340 ,서울,관악구,신림동,복합쇼핑몰,126.930096548294,37.4847625375982,마트,1162069500
203,222,파크에비뉴,서울특별시 광진구 광나루로 369 ,서울,광진구,군자동,쇼핑센터,127.071049482737,37.5484610827889,마트,1121573000
210,232,커먼그라운드,서울특별시 광진구 아차산로 200 ,서울,광진구,자양동,쇼핑센터,127.065669226745,37.5410566332301,마트,1121584700
225,41,고척아이파크쇼핑센터,서울특별시 구로구 고척동 100-7,서울,구로구,고척동,쇼핑센터,126.858700234963,37.4986663995985,마트,1153072000
226,217,이천일 아울렛 구로점,서울특별시 구로구 중앙로1길 36 ,서울,구로구,고척동,복합쇼핑몰,126.862677366638,37.4980725516017,마트,1153072000
227,454,개봉프라자,서울특별시 구로구 고척동 269번지,서울,구로구,고척동,쇼핑센터,126.8511678,37.5020213,마트,1153073000
232,470,고척스카이프라자,서울특별시 구로구 중앙로 64 ,서울,구로구,고척동,쇼핑센터,126.862833580926,37.5037992525197,마트,1153072000
246,472,나인스에비뉴,서울특별시 구로구 구로중앙로 134 ,서울,구로구,구로동,쇼핑센터,126.884098218095,37.4999880723052,마트,1153056000
253,463,삼익쇼핑센타,서울특별시 구로구 경인로 192 ,서울,구로구,오류동,쇼핑센터,126.842638571132,37.4950354961803,마트,1153077000
258,0,마리오아울렛 1관,서울특별시 금천구 디지털로 185 ,서울,금천구,가산동,쇼핑센터,126.887252802757,37.4781274612414,마트,1154551000
259,1,마리오아울렛 3관,서울특별시 금천구 벚꽃로 266 ,서울,금천구,가산동,쇼핑센터,126.885080837326,37.4784457675388,마트,1154551000
260,28,현대아울렛,서울특별시 금천구 디지털로10길 9 ,서울,금천구,가산동,복합쇼핑몰,126.88905533739,37.4776190161713,마트,1154551000
261,102,가산퍼블릭 상업시설,서울특별시 금천구 디지털로 178 ,서울,금천구,가산동,쇼핑센터,126.88734955117,37.4764138341284,마트,1154551000
262,494,롯데쇼핑(주) 아울렛 가산점,서울특별시 금천구 벚꽃로 278 ,서울,금천구,가산동,복합쇼핑몰,126.884634912937,37.4794931161957,마트,1154551000
264,487,롯데캐슬 골드파크 4차 마르쉐도르 960,서울특별시 금천구 시흥대로 315,서울,금천구,독산동,쇼핑센터,126.896265163559,37.4609911113644,마트,1154561000
268,496,시티렉스,서울특별시 금천구 시흥대로 399 ,서울,금천구,독산동,쇼핑센터,126.897001948519,37.4693591753013,마트,1154561000
274,488,럭키남서울상가,서울특별시 금천구 시흥대로47길 43 ,서울,금천구,시흥동,쇼핑센터,126.898955300111,37.4506553147109,마트,1154567000
291,355,와우패션클럽,서울특별시 노원구 노해로 507 ,서울,노원구,상계동,쇼핑센터,127.063889081054,37.6554272387774,마트,1135064000
294,61,이천일아울렛 중계점,서울특별시 노원구 동일로204가길 46 ,서울,노원구,중계동,쇼핑센터,127.067907398806,37.6412864943823,마트,1135062500
316,328,금강아미움쇼핑센터,서울특별시 도봉구 방학로5길 33,서울,도봉구,쌍문동,쇼핑센터,127.038133956964,37.6614180122621,마트,1132067000
336,397,AK PLAZA 홍대,서울특별시 마포구 양화로 188 ,서울,마포구,동교동,복합쇼핑몰,126.926498328277,37.5577458058734,마트,1144066000
337,414,홍대복합역사 상업시설,서울특별시 마포구 와우산로35길 50-4 ,서울,마포구,동교동,복합쇼핑몰,126.928391464019,37.5565346774855,마트,1144066000
338,408,성산프라자(마포영화블렌하임),서울특별시 마포구 월드컵로25길 26 ,서울,마포구,망원동,쇼핑센터,126.906300605198,37.5585307790582,마트,1144070000
361,576,신동아종합상가,서울특별시 서초구 사임당로 130 ,서울,서초구,서초동,쇼핑센터,127.025215721794,37.4902937940964,마트,1165052000
375,191,파크에비뉴 엔터식스 한양대점,서울특별시 성동구 왕십리로 241 ,서울,성동구,행당동,쇼핑센터,127.04010502543,37.5571543304982,마트,1120055000
379,211,ENTER-6,서울특별시 성동구 왕십리광장로 17,서울,성동구,행당동,쇼핑센터,127.038394194396,37.5614417528647,마트,1120056000
389,17,이마트에브리데이 길음점,서울특별시 성북구 길음로7길 6,서울,성북구,길음동,쇼핑센터,127.022429212083,37.6043421622613,마트,1129066000
419,305,유타쇼핑몰,서울특별시 성북구 동소문로 106 ,서울,성북구,동선동1가,복합쇼핑몰,127.017088831326,37.5925747617089,마트,1129057500
433,649,송파쇼핑센타,서울특별시 송파구 마천로 315 ,서울,송파구,마천동,쇼핑센터,127.151061447823,37.4950016428817,마트,1171054000
434,16,가든파이브 툴,서울특별시 송파구 충민로 10 ,서울,송파구,문정동,쇼핑센터,127.119106729654,37.4786173172251,마트,1171064200
436,644,가든파이브 라이프,서울특별시 송파구 충민로 66 ,서울,송파구,문정동,쇼핑센터,127.124961768886,37.4776148442516,마트,1171064200
446,648,한화 송파지점,서울특별시 송파구 가락로 183 ,서울,송파구,송파동,쇼핑센터,127.114525472441,37.5051646086263,마트,1171058000
449,638,롯데월드몰,서울특별시 송파구 올림픽로 300 ,서울,송파구,신천동,복합쇼핑몰,127.104301829165,37.5137129859207,마트,1171071000
457,640,프리마 쇼핑센타,서울특별시 송파구 올림픽로4길 40 ,서울,송파구,잠실동,쇼핑센터,127.074204083657,37.5071938064643,마트,1171072000
470,418,목동시장아울렛,서울특별시 양천구 목동중앙본로7길 45 ,서울,양천구,목동,쇼핑센터,126.866336562907,37.5391374210157,마트,1147054000
490,182,해밀톤 쇼핑몰,서울특별시 용산구 이태원로 179 ,서울,용산구,이태원동,복합쇼핑몰,126.993735204809,37.5348143960679,마트,1117065000
491,186,신동아 쇼핑센터,서울특별시 용산구 이촌로 352 ,서울,용산구,용산동6가,쇼핑센터,126.985175715456,37.5173837456591,마트,1117069000
494,176,국제센터아케이드,서울특별시 용산구 한강로1가 191호,서울,용산구,한강로1가,쇼핑센터,126.974161296142,37.5334265367748,마트,1117062500
496,178,LS Avenue,서울특별시 용산구 한강대로 92 ,서울,용산구,한강로2가,쇼핑센터,126.96752270323,37.5281759339792,마트,1117062500
498,174,아이파크몰(I PARK MALL),서울특별시 용산구 한강대로23길 55 ,서울,용산구,한강로3가,복합쇼핑몰,126.964741503485,37.5297718014452,마트,1117062500
524,377,롯데몰 은평,서울특별시 은평구 통일로 1050 ,서울,은평구,진관동,복합쇼핑몰,126.917900261732,37.6375366740938,마트,1138069000
532,120,효성주얼리시티,서울특별시 종로구 종로 183 ,서울,종로구,인의동,쇼핑센터,126.998320034926,37.5714476873524,마트,1111061500
533,126,세운스퀘어,서울특별시 종로구 창경궁로 109 ,서울,종로구,인의동,쇼핑센터,126.997086146344,37.5723490188717,마트,1111061500
583,382,신촌 밀리오레,서울특별시 서대문구 신촌역로 30 ,서울,서대문구,신촌동,쇼핑센터,126.942386979371,37.5598241279561,마트,1141058500
611,510,한화스토아여의점,서울특별시 영등포구 여의도동 42번지,서울,영등포구,여의도동,쇼핑센터,126.932503484941,37.5214748650508,마트,1156054000
613,527,아이에프씨몰(IFC Mall),서울특별시 영등포구 국제금융로 10 ,서울,영등포구,여의도동,복합쇼핑몰,126.924876706923,37.5251775245928,마트,1156054000
622,79,이랜드리테일 당산점,서울특별시 영등포구 양평로 47 ,서울,영등포구,당산동5가,쇼핑센터,126.90098183202,37.5338722303791,마트,1156056000
630,525,타임스퀘어,서울특별시 영등포구 영중로 15 ,서울,영등포구,영등포동4가,복합쇼핑몰,126.903715993779,37.5172332566615,마트,1156053500
